{
"type": "FeatureCollection",
"name": "MetroLisboa_2300_shapes_aggregated",
"crs": { "type": "name", "properties": { "name": "urn:ogc:def:crs:OGC:1.3:CRS84" } },
"features": [
{ "type": "Feature", "properties": { "services_sum": 12.926391382405745, "total_departures_sum": 468, "route_short_name_sum": null, "services_unique": null, "total_departures_unique": null, "route_short_name_unique": "Az" }, "geometry": { "type": "LineString", "coordinates": [ [ -9.22414, 38.75221 ], [ -9.219171, 38.758373 ], [ -9.204708, 38.760616 ], [ -9.196931, 38.762398 ], [ -9.192812, 38.759308 ], [ -9.188663, 38.753323 ], [ -9.179946, 38.74958 ], [ -9.172431, 38.748528 ], [ -9.168724, 38.742176 ], [ -9.158451, 38.73767 ], [ -9.154225, 38.73484 ], [ -9.150276, 38.729725 ], [ -9.150807, 38.72488 ], [ -9.145823, 38.720116 ], [ -9.141623, 38.715084 ], [ -9.139091, 38.71067 ], [ -9.133351, 38.707207 ], [ -9.122563, 38.713783 ] ] } },
{ "type": "Feature", "properties": { "services_sum": 13.559322033898306, "total_departures_sum": 354, "route_short_name_sum": null, "services_unique": null, "total_departures_unique": null, "route_short_name_unique": "Am" }, "geometry": { "type": "LineString", "coordinates": [ [ -9.173219, 38.79323 ], [ -9.172146, 38.78575 ], [ -9.159986, 38.779903 ], [ -9.159701, 38.772823 ], [ -9.155458, 38.767094 ], [ -9.157941, 38.75988 ], [ -9.158633, 38.751945 ], [ -9.148564, 38.74791 ], [ -9.147035, 38.74142 ], [ -9.145576, 38.735275 ], [ -9.146503, 38.730644 ], [ -9.150807, 38.72488 ], [ -9.154111, 38.720078 ] ] } },
{ "type": "Feature", "properties": { "services_sum": 12.265758091993186, "total_departures_sum": 320, "route_short_name_sum": null, "services_unique": null, "total_departures_unique": null, "route_short_name_unique": "Vd" }, "geometry": { "type": "LineString", "coordinates": [ [ -9.145029, 38.706154 ], [ -9.139091, 38.71067 ], [ -9.138957, 38.71384 ], [ -9.135749, 38.716812 ], [ -9.135309, 38.722248 ], [ -9.135025, 38.726616 ], [ -9.134451, 38.733475 ], [ -9.134086, 38.737255 ], [ -9.133807, 38.7426 ], [ -9.141349, 38.74845 ], [ -9.143883, 38.753456 ], [ -9.157941, 38.75988 ], [ -9.166056, 38.760365 ] ] } },
{ "type": "Feature", "properties": { "services_sum": 12.141652613827993, "total_departures_sum": 292, "route_short_name_sum": null, "services_unique": null, "total_departures_unique": null, "route_short_name_unique": "Vm" }, "geometry": { "type": "LineString", "coordinates": [ [ -9.154225, 38.73484 ], [ -9.145576, 38.735275 ], [ -9.134086, 38.737255 ], [ -9.123664, 38.73919 ], [ -9.118547, 38.747738 ], [ -9.114136, 38.755283 ], [ -9.112038, 38.761276 ], [ -9.104093, 38.763195 ], [ -9.099771, 38.767838 ], [ -9.102664, 38.774776 ], [ -9.114978, 38.77501 ], [ -9.128328, 38.76859 ] ] } }
]
}
