{
"type": "FeatureCollection",
"name": "MobiCascais_0500_shapes_aggregated",
"crs": { "type": "name", "properties": { "name": "urn:ogc:def:crs:OGC:1.3:CRS84" } },
"features": [
{ "type": "Feature", "properties": { "services_sum": 1.0002778549597111, "total_departures_sum": 18, "route_short_name_sum": null, "services_unique": null, "total_departures_unique": null, "route_short_name_unique": "22" }, "geometry": { "type": "LineString", "coordinates": [ [ -9.39501, 38.73763 ], [ -9.39499, 38.73778 ], [ -9.39488, 38.73796 ], [ -9.39475, 38.73808 ], [ -9.39449, 38.73829 ], [ -9.39422, 38.73848 ], [ -9.39363, 38.73883 ], [ -9.39308, 38.73907 ], [ -9.3923, 38.73947 ], [ -9.39208, 38.73962 ], [ -9.392074277007518, 38.739623433800425 ], [ -9.391978881094817, 38.739680621613992 ], [ -9.39189, 38.73973 ], [ -9.39169, 38.7398 ], [ -9.391687890473913, 38.739800493718874 ], [ -9.39122, 38.73991 ], [ -9.39109, 38.73995 ], [ -9.39096, 38.74004 ], [ -9.39071, 38.74026 ], [ -9.39054, 38.74034 ], [ -9.39024, 38.74039 ], [ -9.389351606330912, 38.74037 ], [ -9.38901, 38.74037 ], [ -9.38877, 38.74041 ], [ -9.38851, 38.74051 ], [ -9.388061673194676, 38.740754163425379 ], [ -9.38771, 38.74093 ], [ -9.38738, 38.74108 ], [ -9.38722, 38.74113 ], [ -9.38704, 38.74116 ], [ -9.38684, 38.74116 ], [ -9.38624, 38.74107 ], [ -9.38601, 38.74105 ], [ -9.38572, 38.74108 ], [ -9.38557, 38.74113 ], [ -9.38532, 38.74124 ], [ -9.38517, 38.74133 ], [ -9.3848, 38.74159 ], [ -9.384794891722267, 38.741593746079062 ], [ -9.38481, 38.74159 ], [ -9.38455, 38.74176 ], [ -9.38446, 38.74179 ], [ -9.38436, 38.7418 ], [ -9.38424, 38.7418 ], [ -9.38408, 38.74175 ], [ -9.38375, 38.74157 ], [ -9.38363, 38.74153 ], [ -9.38333, 38.74155 ], [ -9.38309, 38.74159 ], [ -9.3829, 38.74165 ], [ -9.38268, 38.74175 ], [ -9.38235, 38.74201 ], [ -9.38203, 38.74232 ], [ -9.38179, 38.74252 ], [ -9.381784103227515, 38.742524717417986 ], [ -9.38169, 38.7426 ], [ -9.38155, 38.74282 ], [ -9.38145, 38.74274 ], [ -9.38137, 38.74256 ], [ -9.38134, 38.74215 ], [ -9.3813, 38.7419 ], [ -9.38123, 38.74174 ], [ -9.38091, 38.74131 ], [ -9.3806994186804, 38.741078119349815 ], [ -9.38014, 38.74045 ], [ -9.37986, 38.74023 ], [ -9.37946, 38.74009 ], [ -9.37887, 38.7399 ], [ -9.37856, 38.73977 ], [ -9.378545601197299, 38.739764109642103 ], [ -9.3779, 38.7395 ], [ -9.37774, 38.73948 ], [ -9.37708, 38.73957 ], [ -9.37685, 38.73956 ], [ -9.37667, 38.73954 ], [ -9.37612, 38.73938 ], [ -9.37605, 38.73874 ], [ -9.376048696655898, 38.738726705982899 ], [ -9.376, 38.73823 ], [ -9.37356, 38.73857 ], [ -9.37306, 38.73857 ], [ -9.37257, 38.73852 ], [ -9.37226, 38.73842 ], [ -9.37187, 38.73829 ], [ -9.37109, 38.73811 ], [ -9.371079841959011, 38.738107712208453 ], [ -9.36998, 38.73786 ], [ -9.36973, 38.73774 ], [ -9.36914, 38.73738 ], [ -9.36869, 38.73707 ], [ -9.36849, 38.7369 ], [ -9.36844, 38.73685 ], [ -9.36845, 38.73682 ], [ -9.36842, 38.73664 ], [ -9.36838, 38.73657 ], [ -9.36834, 38.73655 ], [ -9.36827, 38.7364 ], [ -9.36828, 38.73637 ], [ -9.36842, 38.73619 ], [ -9.36848, 38.73606 ], [ -9.36855, 38.73584 ], [ -9.36855, 38.73558 ], [ -9.36854, 38.73552 ], [ -9.368537152835753, 38.735508611354163 ], [ -9.36852, 38.73544 ], [ -9.36846, 38.73546 ], [ -9.36832, 38.73558 ], [ -9.36807, 38.73586 ], [ -9.368, 38.73589 ], [ -9.36794, 38.7359 ], [ -9.36781, 38.73598 ], [ -9.36769, 38.73601 ], [ -9.3676, 38.73599 ], [ -9.36752, 38.73594 ], [ -9.36646, 38.73567 ], [ -9.36635, 38.73563 ], [ -9.36626, 38.73542 ], [ -9.36618, 38.73517 ], [ -9.366176509300393, 38.735158946176746 ], [ -9.36606, 38.73479 ], [ -9.36603, 38.73458 ], [ -9.36603, 38.73411 ], [ -9.36602, 38.73395 ], [ -9.36586, 38.73313 ], [ -9.365858188358064, 38.73312094180843 ], [ -9.36583, 38.73298 ], [ -9.36578, 38.73291 ], [ -9.36542, 38.73261 ], [ -9.36532, 38.73245 ], [ -9.36516, 38.73216 ], [ -9.36512, 38.73193 ], [ -9.36499, 38.73165 ], [ -9.36473, 38.73124 ], [ -9.364724889651567, 38.731232391339233 ], [ -9.36428, 38.73057 ], [ -9.36342, 38.72955 ], [ -9.363412533567219, 38.729542533597552 ], [ -9.36319, 38.72932 ], [ -9.36281, 38.72914 ], [ -9.36244, 38.72901 ], [ -9.36203, 38.72888 ], [ -9.36186, 38.72885 ], [ -9.36135, 38.72881 ], [ -9.36118, 38.72875 ], [ -9.3611, 38.7287 ], [ -9.36104, 38.72863 ], [ -9.36095, 38.72858 ], [ -9.3608, 38.72858 ], [ -9.3606, 38.72855 ], [ -9.3604, 38.72859 ], [ -9.360388197701607, 38.728594425866902 ], [ -9.36032, 38.72862 ], [ -9.36053, 38.72871 ], [ -9.36064, 38.72879 ], [ -9.36069, 38.72887 ], [ -9.36072, 38.72907 ], [ -9.36071, 38.72915 ], [ -9.36061, 38.72944 ], [ -9.35996, 38.73109 ], [ -9.3596, 38.73193 ], [ -9.35947, 38.73211 ], [ -9.35906, 38.73248 ], [ -9.35886, 38.73259 ], [ -9.35832, 38.73277 ], [ -9.35788, 38.73283 ], [ -9.35749, 38.73281 ], [ -9.35722, 38.73277 ], [ -9.3572, 38.73271 ], [ -9.35713, 38.73267 ], [ -9.35706, 38.73268 ], [ -9.35702, 38.7327 ], [ -9.35665, 38.73251 ], [ -9.35641, 38.73235 ], [ -9.3562, 38.73215 ], [ -9.35589, 38.73171 ], [ -9.35575, 38.73104 ], [ -9.35548, 38.72859 ], [ -9.35539, 38.7282 ], [ -9.35509, 38.72766 ], [ -9.355083596333586, 38.727648910843499 ], [ -9.35468, 38.72695 ], [ -9.35369, 38.72581 ], [ -9.35322, 38.72529 ], [ -9.353215296954462, 38.725284896587553 ], [ -9.35052, 38.72236 ], [ -9.350515747049641, 38.722355377268165 ], [ -9.35006, 38.72186 ], [ -9.34953, 38.72123 ], [ -9.34817, 38.7193 ], [ -9.3476, 38.71885 ], [ -9.347589702780814, 38.718842683597899 ], [ -9.34759, 38.71884 ], [ -9.34735, 38.71864 ], [ -9.3473, 38.71851 ], [ -9.34731, 38.71842 ], [ -9.34736, 38.71834 ], [ -9.34773, 38.71796 ], [ -9.34794, 38.71731 ], [ -9.34802, 38.71715 ], [ -9.34824, 38.71688 ], [ -9.34853, 38.71668 ], [ -9.34864, 38.71662 ], [ -9.34876, 38.71639 ], [ -9.348942084620196, 38.715894006736413 ], [ -9.34902, 38.71567 ], [ -9.34904, 38.7155 ], [ -9.3489, 38.7154 ], [ -9.34883, 38.71533 ], [ -9.34882, 38.71526 ], [ -9.34883, 38.71506 ], [ -9.34884, 38.715 ], [ -9.3488, 38.71494 ], [ -9.34873, 38.71491 ], [ -9.34865, 38.71492 ], [ -9.3486, 38.71494 ], [ -9.34857, 38.71502 ], [ -9.348575891006085, 38.715034727515217 ], [ -9.348392510157931, 38.715072502031582 ], [ -9.34818, 38.71503 ], [ -9.34792, 38.71496 ], [ -9.34779, 38.71479 ], [ -9.34762, 38.7145 ], [ -9.34738, 38.71438 ], [ -9.34721, 38.71434 ], [ -9.34714, 38.71435 ], [ -9.347121458691024, 38.714355297557049 ], [ -9.34672, 38.71447 ], [ -9.34671, 38.7146 ], [ -9.34672, 38.71482 ], [ -9.34669, 38.71488 ], [ -9.34656, 38.71495 ], [ -9.34595, 38.71503 ], [ -9.34533, 38.71506 ], [ -9.34517, 38.71508 ], [ -9.34444, 38.71514 ], [ -9.34432, 38.71512 ], [ -9.34426, 38.7151 ], [ -9.34416, 38.71505 ], [ -9.34398, 38.71506 ], [ -9.34386, 38.71504 ], [ -9.34355, 38.71484 ], [ -9.343519492771833, 38.714817119715597 ], [ -9.34315, 38.71454 ], [ -9.34286, 38.71438 ], [ -9.3426, 38.71427 ], [ -9.34218, 38.71403 ], [ -9.3421, 38.71396 ], [ -9.3419, 38.71389 ], [ -9.34181, 38.71374 ], [ -9.3417, 38.71368 ], [ -9.34158, 38.7137 ], [ -9.34145, 38.71366 ], [ -9.34128, 38.71357 ], [ -9.341242961916027, 38.713548466361061 ], [ -9.34085, 38.71332 ], [ -9.3401, 38.71296 ], [ -9.3393, 38.71252 ], [ -9.33917, 38.71247 ], [ -9.33913, 38.71243 ], [ -9.33908, 38.71233 ], [ -9.339067325011611, 38.712299580121773 ], [ -9.33898, 38.71209 ], [ -9.3388, 38.71151 ], [ -9.33876, 38.71129 ], [ -9.33873, 38.71071 ], [ -9.33871, 38.71 ], [ -9.33871, 38.70996450022281 ], [ -9.33871, 38.70728 ], [ -9.33875, 38.70675 ], [ -9.3388, 38.70651 ], [ -9.33886, 38.70639 ], [ -9.33893, 38.70623 ], [ -9.33912, 38.70601 ], [ -9.33979, 38.70531 ], [ -9.34006, 38.70497 ], [ -9.3404, 38.70447 ], [ -9.34048, 38.70446 ], [ -9.34055, 38.70442 ], [ -9.34061, 38.70432 ], [ -9.3406, 38.70425 ], [ -9.34057, 38.7042 ], [ -9.34058, 38.70409 ], [ -9.34063, 38.70396 ], [ -9.34093, 38.70332 ], [ -9.34095, 38.70307 ], [ -9.34081, 38.70262 ], [ -9.34076, 38.70219 ], [ -9.34076, 38.70213 ], [ -9.34078, 38.70211 ], [ -9.340807419484191, 38.702079153111939 ], [ -9.34086, 38.70202 ], [ -9.34092, 38.702 ], [ -9.34095, 38.70197 ], [ -9.34095, 38.70191 ], [ -9.34094, 38.70188 ], [ -9.34086, 38.70184 ], [ -9.34083, 38.70184 ], [ -9.34072, 38.70169 ], [ -9.34131, 38.69882 ], [ -9.341308436502821, 38.698784039662527 ], [ -9.3413, 38.69859 ], [ -9.34141, 38.69832 ], [ -9.34175, 38.69696 ], [ -9.34171, 38.6961 ], [ -9.34163, 38.69579 ], [ -9.341619653338091, 38.695758960040735 ], [ -9.3416, 38.6957 ], [ -9.34168, 38.6955 ], [ -9.34175, 38.69541 ], [ -9.34181, 38.69537 ], [ -9.34183, 38.69534 ], [ -9.34182, 38.69526 ], [ -9.34166, 38.69513 ], [ -9.34156, 38.695 ], [ -9.34153, 38.69493 ], [ -9.34147, 38.69486 ], [ -9.33984, 38.6949 ], [ -9.33949, 38.69488 ], [ -9.33833, 38.69476 ], [ -9.33808, 38.69471 ], [ -9.33701, 38.69445 ], [ -9.33565, 38.69398 ], [ -9.33587, 38.69335 ], [ -9.335870117275453, 38.693349687266554 ], [ -9.33596, 38.69311 ], [ -9.33596, 38.69304 ], [ -9.33624, 38.69267 ], [ -9.3366, 38.69214 ], [ -9.33667, 38.69199 ], [ -9.33672, 38.69096 ], [ -9.336720174882979, 38.690956152586054 ], [ -9.33673, 38.69074 ], [ -9.33689, 38.69052 ], [ -9.33694, 38.69045 ], [ -9.33694, 38.69041 ], [ -9.33688, 38.69035 ], [ -9.33652, 38.69029 ], [ -9.33605, 38.6902 ], [ -9.33574, 38.6902 ], [ -9.33531, 38.69024 ], [ -9.335294920757157, 38.690242331907811 ], [ -9.3353, 38.69024 ], [ -9.33434, 38.69039 ], [ -9.33392, 38.6905 ], [ -9.33391413592696, 38.690501819884737 ], [ -9.33363, 38.69059 ], [ -9.33358, 38.69056 ], [ -9.3335, 38.69057 ], [ -9.33344, 38.69062 ], [ -9.33313, 38.69072 ], [ -9.33301, 38.69077 ], [ -9.33299, 38.69079 ], [ -9.33284, 38.69087 ], [ -9.33244, 38.69113 ], [ -9.33224, 38.69117 ], [ -9.33203, 38.69113 ], [ -9.33189, 38.69103 ], [ -9.33183, 38.69091 ], [ -9.331480592845587, 38.689682083428778 ], [ -9.33148, 38.68968 ], [ -9.33138, 38.68914 ], [ -9.33136, 38.68861 ], [ -9.33136, 38.68611 ], [ -9.3314, 38.68599 ], [ -9.33149, 38.68594 ], [ -9.33168, 38.68596 ], [ -9.33176, 38.686 ], [ -9.33184, 38.68607 ], [ -9.33189, 38.68616 ], [ -9.33202, 38.68661 ], [ -9.33209, 38.68672 ], [ -9.3322, 38.68684 ], [ -9.3324, 38.68694 ], [ -9.33258, 38.68699 ], [ -9.33267, 38.68704 ], [ -9.33276, 38.68703 ], [ -9.33282, 38.687 ], [ -9.333, 38.68701 ], [ -9.335327195585227, 38.687279675024897 ], [ -9.335404336452486, 38.687450595010006 ], [ -9.335476756095888, 38.687505029752558 ], [ -9.336391389369966, 38.687580400866231 ] ] } }
]
}
