{
"type": "FeatureCollection",
"name": "CP_0800_shapes_aggregated",
"crs": { "type": "name", "properties": { "name": "urn:ogc:def:crs:OGC:1.3:CRS84" } },
"features": [
{ "type": "Feature", "properties": { "services_sum": 2.0005557099194222, "total_departures_sum": 97, "route_short_name_sum": null, "services_unique": null, "total_departures_unique": null, "route_short_name_unique": "Linha de Cascais" }, "geometry": { "type": "LineString", "coordinates": [ [ -9.418564, 38.700762 ], [ -9.406633, 38.703679 ], [ -9.398336, 38.702284 ], [ -9.386179, 38.701016 ], [ -9.370434, 38.696124 ], [ -9.356355, 38.689857 ], [ -9.337191, 38.686946 ], [ -9.319014, 38.688613 ], [ -9.311547, 38.68679 ], [ -9.28876, 38.696672 ], [ -9.274441, 38.698888 ], [ -9.252189, 38.69992 ], [ -9.229237, 38.698345 ], [ -9.196767, 38.695876 ], [ -9.172074, 38.70194 ], [ -9.155324, 38.706252 ], [ -9.144381, 38.705907 ] ] } },
{ "type": "Feature", "properties": { "services_sum": 4.0011114198388444, "total_departures_sum": 102, "route_short_name_sum": null, "services_unique": null, "total_departures_unique": null, "route_short_name_unique": "Linha de Sintra" }, "geometry": { "type": "LineString", "coordinates": [ [ -9.379503, 38.801465 ], [ -9.370453, 38.802494 ], [ -9.338369, 38.798368 ], [ -9.328742, 38.790853 ], [ -9.320603, 38.783862 ], [ -9.296683, 38.764014 ] ] } },
{ "type": "Feature", "properties": { "services_sum": 4.0011114198388444, "total_departures_sum": 27, "route_short_name_sum": null, "services_unique": null, "total_departures_unique": null, "route_short_name_unique": "R, IR, Linha de Sintra" }, "geometry": { "type": "LineString", "coordinates": [ [ -9.313149, 38.793035 ], [ -9.296683, 38.764014 ] ] } },
{ "type": "Feature", "properties": { "services_sum": 6.0016671297582667, "total_departures_sum": 124, "route_short_name_sum": null, "services_unique": null, "total_departures_unique": null, "route_short_name_unique": "Linha de Sintra" }, "geometry": { "type": "LineString", "coordinates": [ [ -9.296683, 38.764014 ], [ -9.2806, 38.750647 ], [ -9.263756, 38.757067 ], [ -9.254494, 38.758425 ], [ -9.234521, 38.759131 ], [ -9.223969, 38.751226 ], [ -9.213991, 38.747148 ], [ -9.20132, 38.74452 ] ] } },
{ "type": "Feature", "properties": { "services_sum": 4.0011114198388444, "total_departures_sum": 52, "route_short_name_sum": null, "services_unique": null, "total_departures_unique": null, "route_short_name_unique": "Linha de Sintra" }, "geometry": { "type": "LineString", "coordinates": [ [ -9.20132, 38.74452 ], [ -9.168181, 38.736103 ], [ -9.145902, 38.71476 ] ] } },
{ "type": "Feature", "properties": { "services_sum": 5.0013892747985551, "total_departures_sum": 82, "route_short_name_sum": null, "services_unique": null, "total_departures_unique": null, "route_short_name_unique": "R, IC, IR, Linha de Sintra" }, "geometry": { "type": "LineString", "coordinates": [ [ -9.165675, 38.740433 ], [ -9.1476, 38.74485 ] ] } },
{ "type": "Feature", "properties": { "services_sum": 1.0002778549597111, "total_departures_sum": 5, "route_short_name_sum": null, "services_unique": null, "total_departures_unique": null, "route_short_name_unique": "R" }, "geometry": { "type": "LineString", "coordinates": [ [ -9.140619, 39.407702 ], [ -9.14772, 39.487382 ], [ -9.135027, 39.501954 ], [ -9.08949, 39.529744 ], [ -9.017867, 39.584705 ], [ -8.983988, 39.656871 ], [ -8.945994, 39.687412 ] ] } },
{ "type": "Feature", "properties": { "services_sum": 2.0005557099194222, "total_departures_sum": 5, "route_short_name_sum": null, "services_unique": null, "total_departures_unique": null, "route_short_name_unique": "AP" }, "geometry": { "type": "LineString", "coordinates": [ [ -9.1476, 38.74485 ], [ -8.91298, 38.629981 ] ] } },
{ "type": "Feature", "properties": { "services_sum": 12.003334259516533, "total_departures_sum": 76, "route_short_name_sum": null, "services_unique": null, "total_departures_unique": null, "route_short_name_unique": "R, IC, AP" }, "geometry": { "type": "LineString", "coordinates": [ [ -9.120748, 38.71584 ], [ -9.09812, 38.767786 ] ] } },
{ "type": "Feature", "properties": { "services_sum": 4.0011114198388444, "total_departures_sum": 104, "route_short_name_sum": null, "services_unique": null, "total_departures_unique": null, "route_short_name_unique": "Linha da Azambuja, Linha de Sintra" }, "geometry": { "type": "LineString", "coordinates": [ [ -9.102924, 38.746603 ], [ -9.09812, 38.767786 ] ] } },
{ "type": "Feature", "properties": { "services_sum": 7.0019449847179782, "total_departures_sum": 24, "route_short_name_sum": null, "services_unique": null, "total_departures_unique": null, "route_short_name_unique": "IC, R" }, "geometry": { "type": "LineString", "coordinates": [ [ -9.09812, 38.767786 ], [ -8.986486, 38.9547 ], [ -8.675246, 39.241918 ] ] } },
{ "type": "Feature", "properties": { "services_sum": 2.0005557099194222, "total_departures_sum": 26, "route_short_name_sum": null, "services_unique": null, "total_departures_unique": null, "route_short_name_unique": "Linha do Sado" }, "geometry": { "type": "LineString", "coordinates": [ [ -9.080153, 38.653656 ], [ -9.071594, 38.659875 ], [ -9.059446, 38.662091 ], [ -9.045498, 38.659969 ], [ -9.028574, 38.652334 ], [ -8.997857, 38.645271 ], [ -8.956804, 38.638367 ], [ -8.91298, 38.629981 ], [ -8.891374, 38.610011 ], [ -8.872821568, 38.5718791 ], [ -8.884939, 38.530729 ], [ -8.886497, 38.525648 ], [ -8.849731, 38.511928 ] ] } },
{ "type": "Feature", "properties": { "services_sum": 4.0011114198388444, "total_departures_sum": 77, "route_short_name_sum": null, "services_unique": null, "total_departures_unique": null, "route_short_name_unique": "R, Linha da Azambuja" }, "geometry": { "type": "LineString", "coordinates": [ [ -9.06431, 38.859255 ], [ -9.034573, 38.889243 ] ] } },
{ "type": "Feature", "properties": { "services_sum": 3.0008335648791333, "total_departures_sum": 7, "route_short_name_sum": null, "services_unique": null, "total_departures_unique": null, "route_short_name_unique": "R, IR" }, "geometry": { "type": "LineString", "coordinates": [ [ -8.945994, 39.687412 ], [ -8.925494, 39.737142 ], [ -8.828034, 39.756605 ] ] } },
{ "type": "Feature", "properties": { "services_sum": 2.0005557099194222, "total_departures_sum": 8, "route_short_name_sum": null, "services_unique": null, "total_departures_unique": null, "route_short_name_unique": "IC, AP" }, "geometry": { "type": "LineString", "coordinates": [ [ -8.91298, 38.629981 ], [ -8.554587, 38.181438 ], [ -8.413854, 38.002896 ], [ -8.337657, 37.727755 ] ] } },
{ "type": "Feature", "properties": { "services_sum": 1.0002778549597111, "total_departures_sum": 2, "route_short_name_sum": null, "services_unique": null, "total_departures_unique": null, "route_short_name_unique": "AP" }, "geometry": { "type": "LineString", "coordinates": [ [ -8.91298, 38.629981 ], [ -8.255074, 37.16349 ] ] } },
{ "type": "Feature", "properties": { "services_sum": 5.0013892747985551, "total_departures_sum": 33, "route_short_name_sum": null, "services_unique": null, "total_departures_unique": null, "route_short_name_unique": "R, IR" }, "geometry": { "type": "LineString", "coordinates": [ [ -8.862221, 41.778211 ], [ -8.866795, 41.816207 ], [ -8.860661, 41.852146 ] ] } },
{ "type": "Feature", "properties": { "services_sum": 6.0016671297582667, "total_departures_sum": 44, "route_short_name_sum": null, "services_unique": null, "total_departures_unique": null, "route_short_name_unique": "R, IR" }, "geometry": { "type": "LineString", "coordinates": [ [ -8.830407, 41.696031 ], [ -8.799277, 41.684085 ] ] } },
{ "type": "Feature", "properties": { "services_sum": 1.0002778549597111, "total_departures_sum": 1, "route_short_name_sum": null, "services_unique": null, "total_departures_unique": null, "route_short_name_unique": "IR" }, "geometry": { "type": "LineString", "coordinates": [ [ -8.799277, 41.684085 ], [ -8.739143, 41.648435 ] ] } },
{ "type": "Feature", "properties": { "services_sum": 2.0005557099194222, "total_departures_sum": 15, "route_short_name_sum": null, "services_unique": null, "total_departures_unique": null, "route_short_name_unique": "IR" }, "geometry": { "type": "LineString", "coordinates": [ [ -8.799277, 41.684085 ], [ -8.700862, 41.646334 ], [ -8.634906, 41.608823 ] ] } },
{ "type": "Feature", "properties": { "services_sum": 4.0011114198388444, "total_departures_sum": 29, "route_short_name_sum": null, "services_unique": null, "total_departures_unique": null, "route_short_name_unique": "R, IR" }, "geometry": { "type": "LineString", "coordinates": [ [ -8.739143, 41.648435 ], [ -8.720439, 41.64664 ], [ -8.700862, 41.646334 ], [ -8.666161, 41.638902 ], [ -8.634906, 41.608823 ] ] } },
{ "type": "Feature", "properties": { "services_sum": 8.0022228396776889, "total_departures_sum": 28, "route_short_name_sum": null, "services_unique": null, "total_departures_unique": null, "route_short_name_unique": "IC, R, AP" }, "geometry": { "type": "LineString", "coordinates": [ [ -8.675246, 39.241918 ], [ -8.47418, 39.461597 ] ] } },
{ "type": "Feature", "properties": { "services_sum": 2.0005557099194222, "total_departures_sum": 25, "route_short_name_sum": null, "services_unique": null, "total_departures_unique": null, "route_short_name_unique": "R" }, "geometry": { "type": "LineString", "coordinates": [ [ -8.671616, 37.108744 ], [ -8.649169, 37.117388 ], [ -8.607801, 37.153087 ] ] } },
{ "type": "Feature", "properties": { "services_sum": 1.0002778549597111, "total_departures_sum": 15, "route_short_name_sum": null, "services_unique": null, "total_departures_unique": null, "route_short_name_unique": "R" }, "geometry": { "type": "LineString", "coordinates": [ [ -8.671616, 37.108744 ], [ -8.607801, 37.153087 ] ] } },
{ "type": "Feature", "properties": { "services_sum": 3.0008335648791333, "total_departures_sum": 62, "route_short_name_sum": null, "services_unique": null, "total_departures_unique": null, "route_short_name_unique": "Linha de Aveiro, Linha de Leixoes" }, "geometry": { "type": "LineString", "coordinates": [ [ -8.647355, 41.039233 ], [ -8.65143, 41.050808 ], [ -8.649591, 41.067854 ], [ -8.647336, 41.08156 ], [ -8.631937, 41.099548 ] ] } },
{ "type": "Feature", "properties": { "services_sum": 4.0011114198388444, "total_departures_sum": 50, "route_short_name_sum": null, "services_unique": null, "total_departures_unique": null, "route_short_name_unique": "Linha de Aveiro" }, "geometry": { "type": "LineString", "coordinates": [ [ -8.647355, 41.039233 ], [ -8.631937, 41.099548 ] ] } },
{ "type": "Feature", "properties": { "services_sum": 5.0013892747985551, "total_departures_sum": 23, "route_short_name_sum": null, "services_unique": null, "total_departures_unique": null, "route_short_name_unique": "IC, IR, AP" }, "geometry": { "type": "LineString", "coordinates": [ [ -8.644485, 41.006195 ], [ -8.620228, 41.130042 ] ] } },
{ "type": "Feature", "properties": { "services_sum": 2.0005557099194222, "total_departures_sum": 14, "route_short_name_sum": null, "services_unique": null, "total_departures_unique": null, "route_short_name_unique": "IC, IR" }, "geometry": { "type": "LineString", "coordinates": [ [ -8.644485, 41.006195 ], [ -8.616855, 40.864496 ] ] } },
{ "type": "Feature", "properties": { "services_sum": 2.0005557099194222, "total_departures_sum": 23, "route_short_name_sum": null, "services_unique": null, "total_departures_unique": null, "route_short_name_unique": "R" }, "geometry": { "type": "LineString", "coordinates": [ [ -8.643451, 41.002346 ], [ -8.630368, 40.988993 ], [ -8.62507, 40.982173 ], [ -8.605522, 40.983848 ], [ -8.593681, 40.983857 ], [ -8.584378, 40.972219 ], [ -8.571141, 40.960936 ], [ -8.551126, 40.955354 ], [ -8.537453, 40.939531 ], [ -8.530904, 40.926533 ], [ -8.535631, 40.924196 ], [ -8.516226, 40.919607 ], [ -8.501197, 40.909077 ], [ -8.495302, 40.89856 ], [ -8.49498, 40.879094 ], [ -8.494202, 40.868077 ], [ -8.489605, 40.85128 ], [ -8.481837, 40.839857 ] ] } },
{ "type": "Feature", "properties": { "services_sum": 2.0005557099194222, "total_departures_sum": 13, "route_short_name_sum": null, "services_unique": null, "total_departures_unique": null, "route_short_name_unique": "R" }, "geometry": { "type": "LineString", "coordinates": [ [ -8.639841, 40.64528 ], [ -8.618086, 40.641487 ], [ -8.591564, 40.639813 ], [ -8.568048, 40.631281 ], [ -8.548099, 40.622233 ], [ -8.531796, 40.609432 ], [ -8.524593, 40.60116 ], [ -8.514447, 40.594175 ], [ -8.497828, 40.587093 ], [ -8.487777, 40.579333 ], [ -8.466597, 40.574913 ], [ -8.448443, 40.577358 ], [ -8.460257, 40.605373 ], [ -8.453555, 40.613347 ], [ -8.450053, 40.624165 ], [ -8.4528, 40.635228 ], [ -8.458322, 40.653279 ], [ -8.452918, 40.672389 ] ] } },
{ "type": "Feature", "properties": { "services_sum": 3.0008335648791333, "total_departures_sum": 12, "route_short_name_sum": null, "services_unique": null, "total_departures_unique": null, "route_short_name_unique": "IC, IR" }, "geometry": { "type": "LineString", "coordinates": [ [ -8.575636, 40.751209 ], [ -8.639841, 40.64528 ], [ -8.453875, 40.376285 ] ] } },
{ "type": "Feature", "properties": { "services_sum": 6.0016671297582667, "total_departures_sum": 19, "route_short_name_sum": null, "services_unique": null, "total_departures_unique": null, "route_short_name_unique": "IC, AP" }, "geometry": { "type": "LineString", "coordinates": [ [ -8.639841, 40.64528 ], [ -8.440468, 40.224364 ] ] } },
{ "type": "Feature", "properties": { "services_sum": 4.0011114198388444, "total_departures_sum": 80, "route_short_name_sum": null, "services_unique": null, "total_departures_unique": null, "route_short_name_unique": "Linha de Aveiro, Linha de Leixoes" }, "geometry": { "type": "LineString", "coordinates": [ [ -8.637802, 41.111956 ], [ -8.631937, 41.099548 ] ] } },
{ "type": "Feature", "properties": { "services_sum": 2.0005557099194222, "total_departures_sum": 36, "route_short_name_sum": null, "services_unique": null, "total_departures_unique": null, "route_short_name_unique": "Linha de Aveiro" }, "geometry": { "type": "LineString", "coordinates": [ [ -8.637802, 41.111956 ], [ -8.620228, 41.130042 ] ] } },
{ "type": "Feature", "properties": { "services_sum": 4.0011114198388444, "total_departures_sum": 13, "route_short_name_sum": null, "services_unique": null, "total_departures_unique": null, "route_short_name_unique": "IC, IR" }, "geometry": { "type": "LineString", "coordinates": [ [ -8.634473, 40.165366 ], [ -8.440468, 40.224364 ] ] } },
{ "type": "Feature", "properties": { "services_sum": 3.0008335648791333, "total_departures_sum": 32, "route_short_name_sum": null, "services_unique": null, "total_departures_unique": null, "route_short_name_unique": "Linha de Aveiro" }, "geometry": { "type": "LineString", "coordinates": [ [ -8.631937, 41.099548 ], [ -8.620228, 41.130042 ] ] } },
{ "type": "Feature", "properties": { "services_sum": 2.0005557099194222, "total_departures_sum": 11, "route_short_name_sum": null, "services_unique": null, "total_departures_unique": null, "route_short_name_unique": "IC" }, "geometry": { "type": "LineString", "coordinates": [ [ -8.63056, 39.91774 ], [ -8.549498, 39.717054 ] ] } },
{ "type": "Feature", "properties": { "services_sum": 3.0008335648791333, "total_departures_sum": 9, "route_short_name_sum": null, "services_unique": null, "total_departures_unique": null, "route_short_name_unique": "IC, AP" }, "geometry": { "type": "LineString", "coordinates": [ [ -8.63056, 39.91774 ], [ -8.47418, 39.461597 ] ] } },
{ "type": "Feature", "properties": { "services_sum": 4.0011114198388444, "total_departures_sum": 16, "route_short_name_sum": null, "services_unique": null, "total_departures_unique": null, "route_short_name_unique": "IC, AP" }, "geometry": { "type": "LineString", "coordinates": [ [ -8.63056, 39.91774 ], [ -8.440468, 40.224364 ] ] } },
{ "type": "Feature", "properties": { "services_sum": 9.0025006946373995, "total_departures_sum": 31, "route_short_name_sum": null, "services_unique": null, "total_departures_unique": null, "route_short_name_unique": "IC, IR, AP" }, "geometry": { "type": "LineString", "coordinates": [ [ -8.620228, 41.130042 ], [ -8.585514, 41.149622 ] ] } },
{ "type": "Feature", "properties": { "services_sum": 12.003334259516533, "total_departures_sum": 226, "route_short_name_sum": null, "services_unique": null, "total_departures_unique": null, "route_short_name_unique": "Linha de Guimaraes, IR, Linha de Braga, Linha do Marco, Linha de Aveiro" }, "geometry": { "type": "LineString", "coordinates": [ [ -8.609592, 41.145666 ], [ -8.585514, 41.149622 ] ] } },
{ "type": "Feature", "properties": { "services_sum": 11.003056404556823, "total_departures_sum": 236, "route_short_name_sum": null, "services_unique": null, "total_departures_unique": null, "route_short_name_unique": "Linha de Guimaraes, R, Linha de Braga, Linha do Marco, Linha de Leixoes" }, "geometry": { "type": "LineString", "coordinates": [ [ -8.585514, 41.149622 ], [ -8.57565, 41.168396 ] ] } },
{ "type": "Feature", "properties": { "services_sum": 7.0019449847179782, "total_departures_sum": 38, "route_short_name_sum": null, "services_unique": null, "total_departures_unique": null, "route_short_name_unique": "IR" }, "geometry": { "type": "LineString", "coordinates": [ [ -8.585514, 41.149622 ], [ -8.554252, 41.217349 ] ] } },
{ "type": "Feature", "properties": { "services_sum": 8.0022228396776889, "total_departures_sum": 189, "route_short_name_sum": null, "services_unique": null, "total_departures_unique": null, "route_short_name_unique": "Linha de Guimaraes, Linha de Braga, Linha do Marco" }, "geometry": { "type": "LineString", "coordinates": [ [ -8.57565, 41.168396 ], [ -8.557312, 41.184418 ], [ -8.556505, 41.200564 ], [ -8.554252, 41.217349 ] ] } },
{ "type": "Feature", "properties": { "services_sum": 4.0011114198388444, "total_departures_sum": 19, "route_short_name_sum": null, "services_unique": null, "total_departures_unique": null, "route_short_name_unique": "R, IR" }, "geometry": { "type": "LineString", "coordinates": [ [ -8.554252, 41.217349 ], [ -8.547626, 41.337411 ] ] } },
{ "type": "Feature", "properties": { "services_sum": 5.0013892747985551, "total_departures_sum": 99, "route_short_name_sum": null, "services_unique": null, "total_departures_unique": null, "route_short_name_unique": "Linha de Guimaraes, R, Linha de Braga" }, "geometry": { "type": "LineString", "coordinates": [ [ -8.547626, 41.337411 ], [ -8.526658, 41.3511 ] ] } },
{ "type": "Feature", "properties": { "services_sum": 6.0016671297582667, "total_departures_sum": 27, "route_short_name_sum": null, "services_unique": null, "total_departures_unique": null, "route_short_name_unique": "R, IC, IR, AP" }, "geometry": { "type": "LineString", "coordinates": [ [ -8.54431, 41.454744 ], [ -8.529737, 41.404553 ] ] } },
{ "type": "Feature", "properties": { "services_sum": 4.0011114198388444, "total_departures_sum": 93, "route_short_name_sum": null, "services_unique": null, "total_departures_unique": null, "route_short_name_unique": "Linha do Marco" }, "geometry": { "type": "LineString", "coordinates": [ [ -8.501441, 41.196992 ], [ -8.487195, 41.188026 ] ] } },
{ "type": "Feature", "properties": { "services_sum": 1.0002778549597111, "total_departures_sum": 3, "route_short_name_sum": null, "services_unique": null, "total_departures_unique": null, "route_short_name_unique": "AP" }, "geometry": { "type": "LineString", "coordinates": [ [ -8.337657, 37.727755 ], [ -8.481355, 37.495705 ], [ -8.255074, 37.16349 ] ] } },
{ "type": "Feature", "properties": { "services_sum": 4.0011114198388444, "total_departures_sum": 64, "route_short_name_sum": null, "services_unique": null, "total_departures_unique": null, "route_short_name_unique": "R" }, "geometry": { "type": "LineString", "coordinates": [ [ -8.47418, 39.461597 ], [ -8.46903, 39.52886 ] ] } },
{ "type": "Feature", "properties": { "services_sum": 2.0005557099194222, "total_departures_sum": 11, "route_short_name_sum": null, "services_unique": null, "total_departures_unique": null, "route_short_name_unique": "R" }, "geometry": { "type": "LineString", "coordinates": [ [ -8.47418, 39.461597 ], [ -8.436004, 39.461883 ], [ -8.396007, 39.461117 ], [ -8.374975, 39.462629 ], [ -8.347928, 39.467203 ], [ -8.29839, 39.449099 ], [ -8.248428, 39.460651 ], [ -8.193767, 39.439684 ], [ -8.187846, 39.473546 ], [ -8.085872, 39.467953 ], [ -8.045253, 39.472344 ], [ -8.00187, 39.48186 ], [ -7.959065, 39.491942 ], [ -7.835042, 39.526075 ], [ -7.715777, 39.613822 ], [ -7.672902, 39.655031 ], [ -7.683434, 39.715392 ], [ -7.62401, 39.756016 ], [ -7.591497, 39.769542 ], [ -7.562819, 39.787947 ], [ -7.490912, 39.818106 ] ] } },
{ "type": "Feature", "properties": { "services_sum": 3.0008335648791333, "total_departures_sum": 31, "route_short_name_sum": null, "services_unique": null, "total_departures_unique": null, "route_short_name_unique": "R, IR" }, "geometry": { "type": "LineString", "coordinates": [ [ -8.453875, 40.376285 ], [ -8.42954, 40.336114 ] ] } },
{ "type": "Feature", "properties": { "services_sum": 8.0022228396776889, "total_departures_sum": 115, "route_short_name_sum": null, "services_unique": null, "total_departures_unique": null, "route_short_name_unique": "IR, Linha do Marco" }, "geometry": { "type": "LineString", "coordinates": [ [ -8.32388, 41.204124 ], [ -8.29453, 41.218094 ] ] } },
{ "type": "Feature", "properties": { "services_sum": 3.0008335648791333, "total_departures_sum": 74, "route_short_name_sum": null, "services_unique": null, "total_departures_unique": null, "route_short_name_unique": "Linha do Marco" }, "geometry": { "type": "LineString", "coordinates": [ [ -8.258727, 41.248767 ], [ -8.226824, 41.252435 ] ] } },
{ "type": "Feature", "properties": { "services_sum": 6.0016671297582667, "total_departures_sum": 50, "route_short_name_sum": null, "services_unique": null, "total_departures_unique": null, "route_short_name_unique": "R, IC, AP" }, "geometry": { "type": "LineString", "coordinates": [ [ -8.255074, 37.16349 ], [ -8.233185, 37.128837 ] ] } },
{ "type": "Feature", "properties": { "services_sum": 2.0005557099194222, "total_departures_sum": 31, "route_short_name_sum": null, "services_unique": null, "total_departures_unique": null, "route_short_name_unique": "IR, Linha do Marco" }, "geometry": { "type": "LineString", "coordinates": [ [ -8.226824, 41.252435 ], [ -8.18461, 41.245847 ] ] } },
{ "type": "Feature", "properties": { "services_sum": 6.0016671297582667, "total_departures_sum": 92, "route_short_name_sum": null, "services_unique": null, "total_departures_unique": null, "route_short_name_unique": "IR, Linha do Marco" }, "geometry": { "type": "LineString", "coordinates": [ [ -8.155653, 41.216742 ], [ -8.136459, 41.180557 ] ] } },
{ "type": "Feature", "properties": { "services_sum": 4.0011114198388444, "total_departures_sum": 27, "route_short_name_sum": null, "services_unique": null, "total_departures_unique": null, "route_short_name_unique": "R, IR" }, "geometry": { "type": "LineString", "coordinates": [ [ -8.069127, 41.094616 ], [ -8.006622, 41.10645 ] ] } },
{ "type": "Feature", "properties": { "services_sum": 2.0005557099194222, "total_departures_sum": 14, "route_short_name_sum": null, "services_unique": null, "total_departures_unique": null, "route_short_name_unique": "R" }, "geometry": { "type": "LineString", "coordinates": [ [ -7.93993, 37.018672 ], [ -7.921398, 37.014101 ], [ -7.840106, 37.03041 ], [ -7.749825, 37.053546 ], [ -7.751468, 37.060167 ], [ -7.732069, 37.073554 ], [ -7.700221, 37.088982 ], [ -7.655782, 37.12086 ], [ -7.649051, 37.133058 ], [ -7.605801, 37.144421 ], [ -7.538629, 37.176389 ], [ -7.484539, 37.197148 ], [ -7.449151, 37.189984 ], [ -7.421588, 37.199837 ] ] } },
{ "type": "Feature", "properties": { "services_sum": 2.0005557099194222, "total_departures_sum": 8, "route_short_name_sum": null, "services_unique": null, "total_departures_unique": null, "route_short_name_unique": "IC" }, "geometry": { "type": "LineString", "coordinates": [ [ -7.850099, 40.530118 ], [ -7.760263, 40.586489 ] ] } },
{ "type": "Feature", "properties": { "services_sum": 3.0008335648791333, "total_departures_sum": 12, "route_short_name_sum": null, "services_unique": null, "total_departures_unique": null, "route_short_name_unique": "IC, R" }, "geometry": { "type": "LineString", "coordinates": [ [ -7.496116, 40.277481 ], [ -7.370709107, 40.306031 ], [ -7.3362705, 40.33330266 ], [ -7.287301395, 40.38875756 ], [ -7.268354684, 40.43489707 ], [ -7.238927273, 40.51155311 ], [ -7.239816, 40.552532 ] ] } },
{ "type": "Feature", "properties": { "services_sum": 4.0011114198388444, "total_departures_sum": 28, "route_short_name_sum": null, "services_unique": null, "total_departures_unique": null, "route_short_name_unique": "R, IR" }, "geometry": { "type": "LineString", "coordinates": [ [ -9.313149, 38.793035 ], [ -9.301083, 38.826801 ] ] } },
{ "type": "Feature", "properties": { "services_sum": 4.0011114198388444, "total_departures_sum": 28, "route_short_name_sum": null, "services_unique": null, "total_departures_unique": null, "route_short_name_unique": "R, IR" }, "geometry": { "type": "LineString", "coordinates": [ [ -9.291764, 38.897449 ], [ -9.256521, 38.92898 ] ] } },
{ "type": "Feature", "properties": { "services_sum": 4.0011114198388444, "total_departures_sum": 28, "route_short_name_sum": null, "services_unique": null, "total_departures_unique": null, "route_short_name_unique": "R, IR" }, "geometry": { "type": "LineString", "coordinates": [ [ -9.25553, 39.093481 ], [ -9.21555, 39.139956 ], [ -9.177217, 39.191569 ], [ -9.153353, 39.2654 ] ] } },
{ "type": "Feature", "properties": { "services_sum": 4.0011114198388444, "total_departures_sum": 28, "route_short_name_sum": null, "services_unique": null, "total_departures_unique": null, "route_short_name_unique": "R, IR" }, "geometry": { "type": "LineString", "coordinates": [ [ -9.154754, 39.368289 ], [ -9.140619, 39.407702 ] ] } },
{ "type": "Feature", "properties": { "services_sum": 3.0008335648791333, "total_departures_sum": 25, "route_short_name_sum": null, "services_unique": null, "total_departures_unique": null, "route_short_name_unique": "R" }, "geometry": { "type": "LineString", "coordinates": [ [ -9.301083, 38.826801 ], [ -9.29549, 38.867051 ], [ -9.291764, 38.897449 ] ] } },
{ "type": "Feature", "properties": { "services_sum": 3.0008335648791333, "total_departures_sum": 25, "route_short_name_sum": null, "services_unique": null, "total_departures_unique": null, "route_short_name_unique": "R" }, "geometry": { "type": "LineString", "coordinates": [ [ -9.256521, 38.92898 ], [ -9.232706, 38.949983 ], [ -9.199544, 38.96893 ], [ -9.197579, 38.988235 ], [ -9.183118, 39.006564 ], [ -9.179138, 39.023467 ], [ -9.184273, 39.044036 ], [ -9.210308, 39.074452 ], [ -9.25553, 39.093481 ] ] } },
{ "type": "Feature", "properties": { "services_sum": 3.0008335648791333, "total_departures_sum": 25, "route_short_name_sum": null, "services_unique": null, "total_departures_unique": null, "route_short_name_unique": "R" }, "geometry": { "type": "LineString", "coordinates": [ [ -9.154754, 39.368289 ], [ -9.170503, 39.348461 ], [ -9.18112, 39.326044 ], [ -9.165529, 39.299636 ], [ -9.153353, 39.2654 ] ] } },
{ "type": "Feature", "properties": { "services_sum": 1.0002778549597111, "total_departures_sum": 3, "route_short_name_sum": null, "services_unique": null, "total_departures_unique": null, "route_short_name_unique": "IR" }, "geometry": { "type": "LineString", "coordinates": [ [ -9.301083, 38.826801 ], [ -9.291764, 38.897449 ] ] } },
{ "type": "Feature", "properties": { "services_sum": 1.0002778549597111, "total_departures_sum": 3, "route_short_name_sum": null, "services_unique": null, "total_departures_unique": null, "route_short_name_unique": "IR" }, "geometry": { "type": "LineString", "coordinates": [ [ -9.256521, 38.92898 ], [ -9.197579, 38.988235 ], [ -9.184273, 39.044036 ], [ -9.25553, 39.093481 ] ] } },
{ "type": "Feature", "properties": { "services_sum": 1.0002778549597111, "total_departures_sum": 3, "route_short_name_sum": null, "services_unique": null, "total_departures_unique": null, "route_short_name_unique": "IR" }, "geometry": { "type": "LineString", "coordinates": [ [ -9.154754, 39.368289 ], [ -9.153353, 39.2654 ] ] } },
{ "type": "Feature", "properties": { "services_sum": 2.0005557099194222, "total_departures_sum": 5, "route_short_name_sum": null, "services_unique": null, "total_departures_unique": null, "route_short_name_unique": "R, IR" }, "geometry": { "type": "LineString", "coordinates": [ [ -9.296683, 38.764014 ], [ -9.165675, 38.740433 ] ] } },
{ "type": "Feature", "properties": { "services_sum": 2.0005557099194222, "total_departures_sum": 5, "route_short_name_sum": null, "services_unique": null, "total_departures_unique": null, "route_short_name_unique": "R, IR" }, "geometry": { "type": "LineString", "coordinates": [ [ -9.1476, 38.74485 ], [ -9.120748, 38.71584 ] ] } },
{ "type": "Feature", "properties": { "services_sum": 2.0005557099194222, "total_departures_sum": 72, "route_short_name_sum": null, "services_unique": null, "total_departures_unique": null, "route_short_name_unique": "Linha de Sintra" }, "geometry": { "type": "LineString", "coordinates": [ [ -9.20132, 38.74452 ], [ -9.165675, 38.740433 ] ] } },
{ "type": "Feature", "properties": { "services_sum": 2.0005557099194222, "total_departures_sum": 72, "route_short_name_sum": null, "services_unique": null, "total_departures_unique": null, "route_short_name_unique": "Linha de Sintra" }, "geometry": { "type": "LineString", "coordinates": [ [ -9.1476, 38.74485 ], [ -9.135353, 38.745743 ], [ -9.102924, 38.746603 ] ] } },
{ "type": "Feature", "properties": { "services_sum": 1.0002778549597111, "total_departures_sum": 5, "route_short_name_sum": null, "services_unique": null, "total_departures_unique": null, "route_short_name_unique": "IC" }, "geometry": { "type": "LineString", "coordinates": [ [ -9.165675, 38.740433 ], [ -9.179598, 38.66604 ], [ -8.91298, 38.629981 ] ] } },
{ "type": "Feature", "properties": { "services_sum": 1.0002778549597111, "total_departures_sum": 5, "route_short_name_sum": null, "services_unique": null, "total_departures_unique": null, "route_short_name_unique": "IC" }, "geometry": { "type": "LineString", "coordinates": [ [ -8.337657, 37.727755 ], [ -8.414482, 37.690077 ], [ -8.481355, 37.495705 ], [ -8.290597, 37.255484 ], [ -8.255074, 37.16349 ] ] } },
{ "type": "Feature", "properties": { "services_sum": 3.0008335648791333, "total_departures_sum": 10, "route_short_name_sum": null, "services_unique": null, "total_departures_unique": null, "route_short_name_unique": "IC, AP" }, "geometry": { "type": "LineString", "coordinates": [ [ -9.1476, 38.74485 ], [ -9.09812, 38.767786 ] ] } },
{ "type": "Feature", "properties": { "services_sum": 3.0008335648791333, "total_departures_sum": 10, "route_short_name_sum": null, "services_unique": null, "total_departures_unique": null, "route_short_name_unique": "IC, AP" }, "geometry": { "type": "LineString", "coordinates": [ [ -8.233185, 37.128837 ], [ -8.058616, 37.104553 ], [ -7.93993, 37.018672 ] ] } },
{ "type": "Feature", "properties": { "services_sum": 2.0005557099194222, "total_departures_sum": 2, "route_short_name_sum": null, "services_unique": null, "total_departures_unique": null, "route_short_name_unique": "IR" }, "geometry": { "type": "LineString", "coordinates": [ [ -9.140619, 39.407702 ], [ -9.135027, 39.501954 ], [ -9.017867, 39.584705 ], [ -8.945994, 39.687412 ] ] } },
{ "type": "Feature", "properties": { "services_sum": 2.0005557099194222, "total_departures_sum": 2, "route_short_name_sum": null, "services_unique": null, "total_departures_unique": null, "route_short_name_unique": "IR" }, "geometry": { "type": "LineString", "coordinates": [ [ -8.828034, 39.756605 ], [ -8.845784, 39.861961 ], [ -8.831271, 39.906829 ], [ -8.802, 39.956201 ], [ -8.813732, 40.012286 ], [ -8.703769, 40.139734 ], [ -8.634473, 40.165366 ] ] } },
{ "type": "Feature", "properties": { "services_sum": 2.0005557099194222, "total_departures_sum": 32, "route_short_name_sum": null, "services_unique": null, "total_departures_unique": null, "route_short_name_unique": "Linha da Azambuja" }, "geometry": { "type": "LineString", "coordinates": [ [ -9.120748, 38.71584 ], [ -9.102924, 38.746603 ] ] } },
{ "type": "Feature", "properties": { "services_sum": 2.0005557099194222, "total_departures_sum": 32, "route_short_name_sum": null, "services_unique": null, "total_departures_unique": null, "route_short_name_unique": "Linha da Azambuja" }, "geometry": { "type": "LineString", "coordinates": [ [ -9.09812, 38.767786 ], [ -9.099293, 38.776158 ], [ -9.099744, 38.795236 ], [ -9.095013, 38.806251 ], [ -9.081554, 38.838345 ], [ -9.06431, 38.859255 ] ] } },
{ "type": "Feature", "properties": { "services_sum": 2.0005557099194222, "total_departures_sum": 32, "route_short_name_sum": null, "services_unique": null, "total_departures_unique": null, "route_short_name_unique": "Linha da Azambuja" }, "geometry": { "type": "LineString", "coordinates": [ [ -9.034573, 38.889243 ], [ -9.011613, 38.923268 ], [ -8.986486, 38.9547 ], [ -8.964987, 38.988653 ], [ -8.954623, 39.004348 ], [ -8.928696, 39.036206 ], [ -8.902895, 39.050512 ], [ -8.867753, 39.067628 ] ] } },
{ "type": "Feature", "properties": { "services_sum": 2.0005557099194222, "total_departures_sum": 45, "route_short_name_sum": null, "services_unique": null, "total_departures_unique": null, "route_short_name_unique": "R" }, "geometry": { "type": "LineString", "coordinates": [ [ -9.09812, 38.767786 ], [ -9.06431, 38.859255 ] ] } },
{ "type": "Feature", "properties": { "services_sum": 2.0005557099194222, "total_departures_sum": 45, "route_short_name_sum": null, "services_unique": null, "total_departures_unique": null, "route_short_name_unique": "R" }, "geometry": { "type": "LineString", "coordinates": [ [ -9.034573, 38.889243 ], [ -8.986486, 38.9547 ], [ -8.867753, 39.067628 ], [ -8.829948, 39.085841 ], [ -8.794143, 39.098985 ], [ -8.778726, 39.11299 ], [ -8.759176, 39.144254 ], [ -8.723897, 39.186727 ], [ -8.675246, 39.241918 ], [ -8.630012, 39.313766 ], [ -8.554832, 39.367985 ], [ -8.50491, 39.431893 ], [ -8.47418, 39.461597 ] ] } },
{ "type": "Feature", "properties": { "services_sum": 2.0005557099194222, "total_departures_sum": 45, "route_short_name_sum": null, "services_unique": null, "total_departures_unique": null, "route_short_name_unique": "R" }, "geometry": { "type": "LineString", "coordinates": [ [ -8.46903, 39.52886 ], [ -8.472004, 39.542208 ], [ -8.462431, 39.548113 ], [ -8.429929, 39.547885 ], [ -8.400552, 39.550565 ], [ -8.395076, 39.570676 ], [ -8.4132, 39.598404 ] ] } },
{ "type": "Feature", "properties": { "services_sum": 1.0002778549597111, "total_departures_sum": 4, "route_short_name_sum": null, "services_unique": null, "total_departures_unique": null, "route_short_name_unique": "AP" }, "geometry": { "type": "LineString", "coordinates": [ [ -9.09812, 38.767786 ], [ -8.675246, 39.241918 ] ] } },
{ "type": "Feature", "properties": { "services_sum": 1.0002778549597111, "total_departures_sum": 4, "route_short_name_sum": null, "services_unique": null, "total_departures_unique": null, "route_short_name_unique": "AP" }, "geometry": { "type": "LineString", "coordinates": [ [ -8.644485, 41.006195 ], [ -8.639841, 40.64528 ] ] } },
{ "type": "Feature", "properties": { "services_sum": 4.0011114198388444, "total_departures_sum": 8, "route_short_name_sum": null, "services_unique": null, "total_departures_unique": null, "route_short_name_unique": "AP" }, "geometry": { "type": "LineString", "coordinates": [ [ -9.09812, 38.767786 ], [ -8.440468, 40.224364 ] ] } },
{ "type": "Feature", "properties": { "services_sum": 4.0011114198388444, "total_departures_sum": 8, "route_short_name_sum": null, "services_unique": null, "total_departures_unique": null, "route_short_name_unique": "AP" }, "geometry": { "type": "LineString", "coordinates": [ [ -8.639841, 40.64528 ], [ -8.620228, 41.130042 ] ] } },
{ "type": "Feature", "properties": { "services_sum": 1.0002778549597111, "total_departures_sum": 7, "route_short_name_sum": null, "services_unique": null, "total_departures_unique": null, "route_short_name_unique": "IC" }, "geometry": { "type": "LineString", "coordinates": [ [ -8.825599, 41.877686 ], [ -8.866795, 41.816207 ], [ -8.830407, 41.696031 ], [ -8.700862, 41.646334 ], [ -8.608976, 41.536628 ] ] } },
{ "type": "Feature", "properties": { "services_sum": 1.0002778549597111, "total_departures_sum": 7, "route_short_name_sum": null, "services_unique": null, "total_departures_unique": null, "route_short_name_unique": "IC" }, "geometry": { "type": "LineString", "coordinates": [ [ -8.639841, 40.64528 ], [ -8.616855, 40.864496 ] ] } },
{ "type": "Feature", "properties": { "services_sum": 1.0002778549597111, "total_departures_sum": 7, "route_short_name_sum": null, "services_unique": null, "total_departures_unique": null, "route_short_name_unique": "IC" }, "geometry": { "type": "LineString", "coordinates": [ [ -8.585514, 41.149622 ], [ -8.547626, 41.337411 ] ] } },
{ "type": "Feature", "properties": { "services_sum": 1.0002778549597111, "total_departures_sum": 7, "route_short_name_sum": null, "services_unique": null, "total_departures_unique": null, "route_short_name_unique": "IC" }, "geometry": { "type": "LineString", "coordinates": [ [ -8.549498, 39.717054 ], [ -8.47418, 39.461597 ] ] } },
{ "type": "Feature", "properties": { "services_sum": 2.0005557099194222, "total_departures_sum": 17, "route_short_name_sum": null, "services_unique": null, "total_departures_unique": null, "route_short_name_unique": "R" }, "geometry": { "type": "LineString", "coordinates": [ [ -8.862221, 41.778211 ], [ -8.863667, 41.751881 ], [ -8.854579, 41.718647 ], [ -8.830407, 41.696031 ] ] } },
{ "type": "Feature", "properties": { "services_sum": 2.0005557099194222, "total_departures_sum": 17, "route_short_name_sum": null, "services_unique": null, "total_departures_unique": null, "route_short_name_unique": "R" }, "geometry": { "type": "LineString", "coordinates": [ [ -8.860661, 41.852146 ], [ -8.836682, 41.873049 ], [ -8.825599, 41.877686 ], [ -8.810129, 41.901114 ], [ -8.780143, 41.915975 ], [ -8.763118, 41.91996 ], [ -8.743428, 41.946261 ], [ -8.688467, 41.984073 ], [ -8.657492, 42.002054 ], [ -8.639301, 42.024982 ] ] } },
{ "type": "Feature", "properties": { "services_sum": 3.0008335648791333, "total_departures_sum": 16, "route_short_name_sum": null, "services_unique": null, "total_departures_unique": null, "route_short_name_unique": "IR" }, "geometry": { "type": "LineString", "coordinates": [ [ -8.862221, 41.778211 ], [ -8.830407, 41.696031 ] ] } },
{ "type": "Feature", "properties": { "services_sum": 3.0008335648791333, "total_departures_sum": 16, "route_short_name_sum": null, "services_unique": null, "total_departures_unique": null, "route_short_name_unique": "IR" }, "geometry": { "type": "LineString", "coordinates": [ [ -8.860661, 41.852146 ], [ -8.825599, 41.877686 ] ] } },
{ "type": "Feature", "properties": { "services_sum": 3.0008335648791333, "total_departures_sum": 16, "route_short_name_sum": null, "services_unique": null, "total_departures_unique": null, "route_short_name_unique": "IR" }, "geometry": { "type": "LineString", "coordinates": [ [ -8.634906, 41.608823 ], [ -8.608976, 41.536628 ] ] } },
{ "type": "Feature", "properties": { "services_sum": 2.0005557099194222, "total_departures_sum": 6, "route_short_name_sum": null, "services_unique": null, "total_departures_unique": null, "route_short_name_unique": "U" }, "geometry": { "type": "LineString", "coordinates": [ [ -8.843364, 40.148766 ], [ -8.822389, 40.145955 ], [ -8.810635, 40.140982 ], [ -8.783323, 40.127042 ], [ -8.76298, 40.119147 ], [ -8.745465, 40.129868 ], [ -8.703769, 40.139734 ], [ -8.677145, 40.139984 ], [ -8.655785, 40.160057 ], [ -8.634473, 40.165366 ] ] } },
{ "type": "Feature", "properties": { "services_sum": 2.0005557099194222, "total_departures_sum": 6, "route_short_name_sum": null, "services_unique": null, "total_departures_unique": null, "route_short_name_unique": "U" }, "geometry": { "type": "LineString", "coordinates": [ [ -8.584275, 40.186307 ], [ -8.544961, 40.192353 ], [ -8.526305, 40.192943 ], [ -8.501267, 40.205781 ], [ -8.484952, 40.204815 ], [ -8.471038, 40.209081 ] ] } },
{ "type": "Feature", "properties": { "services_sum": 1.0002778549597111, "total_departures_sum": 7, "route_short_name_sum": null, "services_unique": null, "total_departures_unique": null, "route_short_name_unique": "IR" }, "geometry": { "type": "LineString", "coordinates": [ [ -8.843364, 40.148766 ], [ -8.634473, 40.165366 ] ] } },
{ "type": "Feature", "properties": { "services_sum": 1.0002778549597111, "total_departures_sum": 7, "route_short_name_sum": null, "services_unique": null, "total_departures_unique": null, "route_short_name_unique": "IR" }, "geometry": { "type": "LineString", "coordinates": [ [ -8.616855, 40.864496 ], [ -8.575636, 40.751209 ] ] } },
{ "type": "Feature", "properties": { "services_sum": 1.0002778549597111, "total_departures_sum": 7, "route_short_name_sum": null, "services_unique": null, "total_departures_unique": null, "route_short_name_unique": "IR" }, "geometry": { "type": "LineString", "coordinates": [ [ -8.440468, 40.224364 ], [ -8.42954, 40.336114 ] ] } },
{ "type": "Feature", "properties": { "services_sum": 4.0011114198388444, "total_departures_sum": 23, "route_short_name_sum": null, "services_unique": null, "total_departures_unique": null, "route_short_name_unique": "IC, IR" }, "geometry": { "type": "LineString", "coordinates": [ [ -8.825599, 41.877686 ], [ -8.743428, 41.946261 ], [ -8.639301, 42.024982 ] ] } },
{ "type": "Feature", "properties": { "services_sum": 4.0011114198388444, "total_departures_sum": 23, "route_short_name_sum": null, "services_unique": null, "total_departures_unique": null, "route_short_name_unique": "IC, IR" }, "geometry": { "type": "LineString", "coordinates": [ [ -8.608976, 41.536628 ], [ -8.54431, 41.454744 ] ] } },
{ "type": "Feature", "properties": { "services_sum": 4.0011114198388444, "total_departures_sum": 23, "route_short_name_sum": null, "services_unique": null, "total_departures_unique": null, "route_short_name_unique": "IC, IR" }, "geometry": { "type": "LineString", "coordinates": [ [ -8.547626, 41.337411 ], [ -8.529737, 41.404553 ] ] } },
{ "type": "Feature", "properties": { "services_sum": 3.0008335648791333, "total_departures_sum": 28, "route_short_name_sum": null, "services_unique": null, "total_departures_unique": null, "route_short_name_unique": "R" }, "geometry": { "type": "LineString", "coordinates": [ [ -8.799277, 41.684085 ], [ -8.780905, 41.679835 ], [ -8.739143, 41.648435 ] ] } },
{ "type": "Feature", "properties": { "services_sum": 3.0008335648791333, "total_departures_sum": 28, "route_short_name_sum": null, "services_unique": null, "total_departures_unique": null, "route_short_name_unique": "R" }, "geometry": { "type": "LineString", "coordinates": [ [ -8.634906, 41.608823 ], [ -8.633883, 41.584379 ], [ -8.627633, 41.565778 ], [ -8.608976, 41.536628 ], [ -8.58174, 41.507966 ], [ -8.563831, 41.486525 ], [ -8.54431, 41.454744 ] ] } },
{ "type": "Feature", "properties": { "services_sum": 2.0005557099194222, "total_departures_sum": 19, "route_short_name_sum": null, "services_unique": null, "total_departures_unique": null, "route_short_name_unique": "R" }, "geometry": { "type": "LineString", "coordinates": [ [ -8.634473, 40.165366 ], [ -8.639302, 40.113586 ], [ -8.637739, 40.060011 ], [ -8.635076, 40.015981 ], [ -8.632787, 39.967185 ], [ -8.63056, 39.91774 ], [ -8.654928, 39.855065 ], [ -8.600303, 39.837771 ], [ -8.585756, 39.797526 ], [ -8.549498, 39.717054 ], [ -8.506924, 39.681805 ], [ -8.49343, 39.653869 ], [ -8.494837, 39.616321 ], [ -8.474052, 39.579993 ], [ -8.46903, 39.52886 ] ] } },
{ "type": "Feature", "properties": { "services_sum": 2.0005557099194222, "total_departures_sum": 19, "route_short_name_sum": null, "services_unique": null, "total_departures_unique": null, "route_short_name_unique": "R" }, "geometry": { "type": "LineString", "coordinates": [ [ -8.584275, 40.186307 ], [ -8.501267, 40.205781 ], [ -8.471038, 40.209081 ] ] } },
{ "type": "Feature", "properties": { "services_sum": 7.0019449847179782, "total_departures_sum": 112, "route_short_name_sum": null, "services_unique": null, "total_departures_unique": null, "route_short_name_unique": "Linha de Aveiro, Linha de Leixoes" }, "geometry": { "type": "LineString", "coordinates": [ [ -8.647355, 41.039233 ], [ -8.644485, 41.006195 ] ] } },
{ "type": "Feature", "properties": { "services_sum": 7.0019449847179782, "total_departures_sum": 112, "route_short_name_sum": null, "services_unique": null, "total_departures_unique": null, "route_short_name_unique": "Linha de Aveiro, Linha de Leixoes" }, "geometry": { "type": "LineString", "coordinates": [ [ -8.620228, 41.130042 ], [ -8.607398, 41.133494 ], [ -8.585514, 41.149622 ] ] } },
{ "type": "Feature", "properties": { "services_sum": 2.0005557099194222, "total_departures_sum": 44, "route_short_name_sum": null, "services_unique": null, "total_departures_unique": null, "route_short_name_unique": "Linha de Leixoes" }, "geometry": { "type": "LineString", "coordinates": [ [ -8.644485, 41.006195 ], [ -8.640971, 40.991268 ], [ -8.63722, 40.976935 ], [ -8.63551, 40.963073 ], [ -8.62619, 40.925255 ], [ -8.616855, 40.864496 ] ] } },
{ "type": "Feature", "properties": { "services_sum": 2.0005557099194222, "total_departures_sum": 44, "route_short_name_sum": null, "services_unique": null, "total_departures_unique": null, "route_short_name_unique": "Linha de Leixoes" }, "geometry": { "type": "LineString", "coordinates": [ [ -8.637802, 41.111956 ], [ -8.63338, 41.12454 ], [ -8.620228, 41.130042 ] ] } },
{ "type": "Feature", "properties": { "services_sum": 2.0005557099194222, "total_departures_sum": 44, "route_short_name_sum": null, "services_unique": null, "total_departures_unique": null, "route_short_name_unique": "Linha de Leixoes" }, "geometry": { "type": "LineString", "coordinates": [ [ -8.629593, 41.208622 ], [ -8.630343, 41.196551 ], [ -8.613096, 41.190359 ], [ -8.598269, 41.185137 ], [ -8.578925, 41.197276 ], [ -8.57565, 41.168396 ] ] } },
{ "type": "Feature", "properties": { "services_sum": 5.0013892747985551, "total_departures_sum": 68, "route_short_name_sum": null, "services_unique": null, "total_departures_unique": null, "route_short_name_unique": "Linha de Aveiro" }, "geometry": { "type": "LineString", "coordinates": [ [ -8.644485, 41.006195 ], [ -8.63551, 40.963073 ] ] } },
{ "type": "Feature", "properties": { "services_sum": 5.0013892747985551, "total_departures_sum": 68, "route_short_name_sum": null, "services_unique": null, "total_departures_unique": null, "route_short_name_unique": "Linha de Aveiro" }, "geometry": { "type": "LineString", "coordinates": [ [ -8.639841, 40.64528 ], [ -8.59661, 40.685815 ] ] } },
{ "type": "Feature", "properties": { "services_sum": 5.0013892747985551, "total_departures_sum": 68, "route_short_name_sum": null, "services_unique": null, "total_departures_unique": null, "route_short_name_unique": "Linha de Aveiro" }, "geometry": { "type": "LineString", "coordinates": [ [ -8.584501, 40.807137 ], [ -8.575636, 40.751209 ] ] } },
{ "type": "Feature", "properties": { "services_sum": 2.0005557099194222, "total_departures_sum": 5, "route_short_name_sum": null, "services_unique": null, "total_departures_unique": null, "route_short_name_unique": "IC" }, "geometry": { "type": "LineString", "coordinates": [ [ -8.644485, 41.006195 ], [ -8.575636, 40.751209 ] ] } },
{ "type": "Feature", "properties": { "services_sum": 2.0005557099194222, "total_departures_sum": 5, "route_short_name_sum": null, "services_unique": null, "total_departures_unique": null, "route_short_name_unique": "IC" }, "geometry": { "type": "LineString", "coordinates": [ [ -8.47418, 39.461597 ], [ -8.193767, 39.439684 ], [ -7.672902, 39.655031 ], [ -7.490912, 39.818106 ], [ -7.496576, 40.141072 ], [ -7.496116, 40.277481 ] ] } },
{ "type": "Feature", "properties": { "services_sum": 2.0005557099194222, "total_departures_sum": 5, "route_short_name_sum": null, "services_unique": null, "total_departures_unique": null, "route_short_name_unique": "IC" }, "geometry": { "type": "LineString", "coordinates": [ [ -8.453875, 40.376285 ], [ -8.440468, 40.224364 ] ] } },
{ "type": "Feature", "properties": { "services_sum": 2.0005557099194222, "total_departures_sum": 24, "route_short_name_sum": null, "services_unique": null, "total_departures_unique": null, "route_short_name_unique": "R" }, "geometry": { "type": "LineString", "coordinates": [ [ -8.639841, 40.64528 ], [ -8.6127605, 40.5909993 ], [ -8.550602, 40.544487 ], [ -8.49931, 40.510692 ], [ -8.4803345, 40.481098 ], [ -8.459521, 40.450742 ], [ -8.455891, 40.425745 ], [ -8.456726, 40.416257 ], [ -8.453875, 40.376285 ] ] } },
{ "type": "Feature", "properties": { "services_sum": 2.0005557099194222, "total_departures_sum": 24, "route_short_name_sum": null, "services_unique": null, "total_departures_unique": null, "route_short_name_unique": "R" }, "geometry": { "type": "LineString", "coordinates": [ [ -8.440468, 40.224364 ], [ -8.45054, 40.250335 ], [ -8.441588, 40.262537 ], [ -8.425925, 40.28564 ], [ -8.42954, 40.336114 ] ] } },
{ "type": "Feature", "properties": { "services_sum": 3.0008335648791333, "total_departures_sum": 46, "route_short_name_sum": null, "services_unique": null, "total_departures_unique": null, "route_short_name_unique": "Linha de Aveiro" }, "geometry": { "type": "LineString", "coordinates": [ [ -8.63551, 40.963073 ], [ -8.63063, 40.941571 ], [ -8.616855, 40.864496 ], [ -8.601914, 40.834893 ], [ -8.584501, 40.807137 ] ] } },
{ "type": "Feature", "properties": { "services_sum": 3.0008335648791333, "total_departures_sum": 46, "route_short_name_sum": null, "services_unique": null, "total_departures_unique": null, "route_short_name_unique": "Linha de Aveiro" }, "geometry": { "type": "LineString", "coordinates": [ [ -8.575636, 40.751209 ], [ -8.566333, 40.733522 ], [ -8.564127, 40.717163 ], [ -8.59661, 40.685815 ] ] } },
{ "type": "Feature", "properties": { "services_sum": 2.0005557099194222, "total_departures_sum": 22, "route_short_name_sum": null, "services_unique": null, "total_departures_unique": null, "route_short_name_unique": "Linha de Aveiro" }, "geometry": { "type": "LineString", "coordinates": [ [ -8.63551, 40.963073 ], [ -8.616855, 40.864496 ], [ -8.584501, 40.807137 ] ] } },
{ "type": "Feature", "properties": { "services_sum": 2.0005557099194222, "total_departures_sum": 22, "route_short_name_sum": null, "services_unique": null, "total_departures_unique": null, "route_short_name_unique": "Linha de Aveiro" }, "geometry": { "type": "LineString", "coordinates": [ [ -8.59661, 40.685815 ], [ -8.575636, 40.751209 ] ] } },
{ "type": "Feature", "properties": { "services_sum": 1.0002778549597111, "total_departures_sum": 4, "route_short_name_sum": null, "services_unique": null, "total_departures_unique": null, "route_short_name_unique": "IC" }, "geometry": { "type": "LineString", "coordinates": [ [ -8.634473, 40.165366 ], [ -8.63056, 39.91774 ] ] } },
{ "type": "Feature", "properties": { "services_sum": 1.0002778549597111, "total_departures_sum": 4, "route_short_name_sum": null, "services_unique": null, "total_departures_unique": null, "route_short_name_unique": "IC" }, "geometry": { "type": "LineString", "coordinates": [ [ -8.549498, 39.717054 ], [ -8.49343, 39.653869 ], [ -8.47418, 39.461597 ] ] } },
{ "type": "Feature", "properties": { "services_sum": 1.0002778549597111, "total_departures_sum": 4, "route_short_name_sum": null, "services_unique": null, "total_departures_unique": null, "route_short_name_unique": "IC" }, "geometry": { "type": "LineString", "coordinates": [ [ -8.158677, 38.498328 ], [ -8.096422, 38.4079 ], [ -8.035433, 38.294492 ], [ -8.000772, 38.23313 ], [ -7.895128, 38.163769 ], [ -7.858406, 38.018382 ] ] } },
{ "type": "Feature", "properties": { "services_sum": 1.0002778549597111, "total_departures_sum": 4, "route_short_name_sum": null, "services_unique": null, "total_departures_unique": null, "route_short_name_unique": "IC" }, "geometry": { "type": "LineString", "coordinates": [ [ -8.124422, 40.390471 ], [ -8.003401, 40.436215 ], [ -7.850099, 40.530118 ], [ -8.124422, 40.390471 ] ] } },
{ "type": "Feature", "properties": { "services_sum": 1.0002778549597111, "total_departures_sum": 4, "route_short_name_sum": null, "services_unique": null, "total_departures_unique": null, "route_short_name_unique": "IC" }, "geometry": { "type": "LineString", "coordinates": [ [ -8.124422, 40.390471 ], [ -8.440468, 40.224364 ], [ -8.242916, 40.392049 ], [ -8.124422, 40.390471 ] ] } },
{ "type": "Feature", "properties": { "services_sum": 1.0002778549597111, "total_departures_sum": 4, "route_short_name_sum": null, "services_unique": null, "total_departures_unique": null, "route_short_name_unique": "IC" }, "geometry": { "type": "LineString", "coordinates": [ [ -7.382368, 40.665172 ], [ -7.256178, 40.726949 ], [ -7.239816, 40.552532 ], [ -7.382368, 40.665172 ] ] } },
{ "type": "Feature", "properties": { "services_sum": 1.0002778549597111, "total_departures_sum": 4, "route_short_name_sum": null, "services_unique": null, "total_departures_unique": null, "route_short_name_unique": "IC" }, "geometry": { "type": "LineString", "coordinates": [ [ -7.382368, 40.665172 ], [ -7.760263, 40.586489 ], [ -7.524762, 40.612036 ], [ -7.382368, 40.665172 ] ] } },
{ "type": "Feature", "properties": { "services_sum": 4.0011114198388444, "total_departures_sum": 25, "route_short_name_sum": null, "services_unique": null, "total_departures_unique": null, "route_short_name_unique": "R, U" }, "geometry": { "type": "LineString", "coordinates": [ [ -8.634473, 40.165366 ], [ -8.606849, 40.17933 ], [ -8.584275, 40.186307 ] ] } },
{ "type": "Feature", "properties": { "services_sum": 4.0011114198388444, "total_departures_sum": 25, "route_short_name_sum": null, "services_unique": null, "total_departures_unique": null, "route_short_name_unique": "R, U" }, "geometry": { "type": "LineString", "coordinates": [ [ -8.471038, 40.209081 ], [ -8.456596, 40.214543 ], [ -8.440468, 40.224364 ] ] } },
{ "type": "Feature", "properties": { "services_sum": 3.0008335648791333, "total_departures_sum": 40, "route_short_name_sum": null, "services_unique": null, "total_departures_unique": null, "route_short_name_unique": "R" }, "geometry": { "type": "LineString", "coordinates": [ [ -8.607801, 37.153087 ], [ -8.537529, 37.144562 ], [ -8.515139, 37.139611 ], [ -8.483573, 37.142959 ], [ -8.437656, 37.17567 ], [ -8.386375, 37.164029 ], [ -8.347588, 37.169991 ], [ -8.30479, 37.168024 ], [ -8.255074, 37.16349 ] ] } },
{ "type": "Feature", "properties": { "services_sum": 3.0008335648791333, "total_departures_sum": 40, "route_short_name_sum": null, "services_unique": null, "total_departures_unique": null, "route_short_name_unique": "R" }, "geometry": { "type": "LineString", "coordinates": [ [ -8.233185, 37.128837 ], [ -8.153103, 37.123068 ], [ -8.058616, 37.104553 ], [ -8.024077, 37.095096 ], [ -7.9865, 37.081967 ], [ -7.93993, 37.018672 ] ] } },
{ "type": "Feature", "properties": { "services_sum": 1.0002778549597111, "total_departures_sum": 1, "route_short_name_sum": null, "services_unique": null, "total_departures_unique": null, "route_short_name_unique": "AP" }, "geometry": { "type": "LineString", "coordinates": [ [ -8.585514, 41.149622 ], [ -8.529737, 41.404553 ] ] } },
{ "type": "Feature", "properties": { "services_sum": 1.0002778549597111, "total_departures_sum": 1, "route_short_name_sum": null, "services_unique": null, "total_departures_unique": null, "route_short_name_unique": "AP" }, "geometry": { "type": "LineString", "coordinates": [ [ -8.54431, 41.454744 ], [ -8.434642, 41.547874 ] ] } },
{ "type": "Feature", "properties": { "services_sum": 1.0002778549597111, "total_departures_sum": 3, "route_short_name_sum": null, "services_unique": null, "total_departures_unique": null, "route_short_name_unique": "R" }, "geometry": { "type": "LineString", "coordinates": [ [ -8.57565, 41.168396 ], [ -8.554252, 41.217349 ] ] } },
{ "type": "Feature", "properties": { "services_sum": 1.0002778549597111, "total_departures_sum": 3, "route_short_name_sum": null, "services_unique": null, "total_departures_unique": null, "route_short_name_unique": "R" }, "geometry": { "type": "LineString", "coordinates": [ [ -8.529737, 41.404553 ], [ -8.526658, 41.3511 ] ] } },
{ "type": "Feature", "properties": { "services_sum": 1.0002778549597111, "total_departures_sum": 3, "route_short_name_sum": null, "services_unique": null, "total_departures_unique": null, "route_short_name_unique": "R" }, "geometry": { "type": "LineString", "coordinates": [ [ -7.496116, 40.277481 ], [ -7.512767, 40.238247 ], [ -7.518263, 40.200148 ], [ -7.496576, 40.141072 ], [ -7.472572, 40.132079 ], [ -7.44773, 40.133677 ], [ -7.410812, 40.149551 ], [ -7.424829, 40.114782 ], [ -7.462826, 40.095186 ], [ -7.462075, 40.063185 ], [ -7.454252, 40.02639 ], [ -7.440818, 39.988505 ], [ -7.436177, 39.919476 ], [ -7.490912, 39.818106 ] ] } },
{ "type": "Feature", "properties": { "services_sum": 2.0005557099194222, "total_departures_sum": 69, "route_short_name_sum": null, "services_unique": null, "total_departures_unique": null, "route_short_name_unique": "Linha de Braga" }, "geometry": { "type": "LineString", "coordinates": [ [ -8.558154, 41.258058 ], [ -8.556695, 41.243532 ], [ -8.551783, 41.228692 ] ] } },
{ "type": "Feature", "properties": { "services_sum": 2.0005557099194222, "total_departures_sum": 69, "route_short_name_sum": null, "services_unique": null, "total_departures_unique": null, "route_short_name_unique": "Linha de Braga" }, "geometry": { "type": "LineString", "coordinates": [ [ -8.55453, 41.277518 ], [ -8.547626, 41.337411 ] ] } },
{ "type": "Feature", "properties": { "services_sum": 2.0005557099194222, "total_departures_sum": 69, "route_short_name_sum": null, "services_unique": null, "total_departures_unique": null, "route_short_name_unique": "Linha de Braga" }, "geometry": { "type": "LineString", "coordinates": [ [ -8.526658, 41.3511 ], [ -8.519631, 41.378218 ], [ -8.526247, 41.389633 ], [ -8.529737, 41.404553 ], [ -8.521448, 41.427715 ], [ -8.53772, 41.436725 ], [ -8.54431, 41.454744 ], [ -8.529178, 41.480822 ], [ -8.510734, 41.48877 ], [ -8.497693, 41.496556 ], [ -8.483078, 41.508966 ], [ -8.468178, 41.520433 ], [ -8.457616, 41.527164 ], [ -8.440553, 41.531473 ], [ -8.434642, 41.547874 ] ] } },
{ "type": "Feature", "properties": { "services_sum": 4.0011114198388444, "total_departures_sum": 96, "route_short_name_sum": null, "services_unique": null, "total_departures_unique": null, "route_short_name_unique": "Linha de Guimaraes, Linha de Braga" }, "geometry": { "type": "LineString", "coordinates": [ [ -8.558154, 41.258058 ], [ -8.55453, 41.277518 ] ] } },
{ "type": "Feature", "properties": { "services_sum": 4.0011114198388444, "total_departures_sum": 96, "route_short_name_sum": null, "services_unique": null, "total_departures_unique": null, "route_short_name_unique": "Linha de Guimaraes, Linha de Braga" }, "geometry": { "type": "LineString", "coordinates": [ [ -8.554252, 41.217349 ], [ -8.551783, 41.228692 ] ] } },
{ "type": "Feature", "properties": { "services_sum": 2.0005557099194222, "total_departures_sum": 27, "route_short_name_sum": null, "services_unique": null, "total_departures_unique": null, "route_short_name_unique": "Linha de Guimaraes" }, "geometry": { "type": "LineString", "coordinates": [ [ -8.558154, 41.258058 ], [ -8.551783, 41.228692 ] ] } },
{ "type": "Feature", "properties": { "services_sum": 2.0005557099194222, "total_departures_sum": 27, "route_short_name_sum": null, "services_unique": null, "total_departures_unique": null, "route_short_name_unique": "Linha de Guimaraes" }, "geometry": { "type": "LineString", "coordinates": [ [ -8.55453, 41.277518 ], [ -8.548562, 41.300518 ], [ -8.547626, 41.337411 ] ] } },
{ "type": "Feature", "properties": { "services_sum": 2.0005557099194222, "total_departures_sum": 27, "route_short_name_sum": null, "services_unique": null, "total_departures_unique": null, "route_short_name_unique": "Linha de Guimaraes" }, "geometry": { "type": "LineString", "coordinates": [ [ -8.526658, 41.3511 ], [ -8.474432, 41.352307 ], [ -8.434793, 41.363996 ], [ -8.401931, 41.35965 ], [ -8.387125, 41.365118 ], [ -8.362271, 41.366646 ], [ -8.338249, 41.375982 ], [ -8.324351, 41.377421 ], [ -8.3134, 41.381133 ], [ -8.320148, 41.405703 ], [ -8.3009, 41.424238 ], [ -8.294142, 41.435373 ] ] } },
{ "type": "Feature", "properties": { "services_sum": 3.0008335648791333, "total_departures_sum": 73, "route_short_name_sum": null, "services_unique": null, "total_departures_unique": null, "route_short_name_unique": "Linha do Marco" }, "geometry": { "type": "LineString", "coordinates": [ [ -8.554252, 41.217349 ], [ -8.534696, 41.220333 ], [ -8.501441, 41.196992 ] ] } },
{ "type": "Feature", "properties": { "services_sum": 3.0008335648791333, "total_departures_sum": 73, "route_short_name_sum": null, "services_unique": null, "total_departures_unique": null, "route_short_name_unique": "Linha do Marco" }, "geometry": { "type": "LineString", "coordinates": [ [ -8.487195, 41.188026 ], [ -8.467475, 41.169489 ], [ -8.437955, 41.163772 ], [ -8.418665, 41.16126 ], [ -8.398506, 41.153493 ], [ -8.372769, 41.160128 ], [ -8.353765, 41.172221 ], [ -8.341793, 41.182231 ], [ -8.337417, 41.193971 ], [ -8.32388, 41.204124 ] ] } },
{ "type": "Feature", "properties": { "services_sum": 1.0002778549597111, "total_departures_sum": 20, "route_short_name_sum": null, "services_unique": null, "total_departures_unique": null, "route_short_name_unique": "Linha do Marco" }, "geometry": { "type": "LineString", "coordinates": [ [ -8.554252, 41.217349 ], [ -8.501441, 41.196992 ] ] } },
{ "type": "Feature", "properties": { "services_sum": 1.0002778549597111, "total_departures_sum": 20, "route_short_name_sum": null, "services_unique": null, "total_departures_unique": null, "route_short_name_unique": "Linha do Marco" }, "geometry": { "type": "LineString", "coordinates": [ [ -8.487195, 41.188026 ], [ -8.398506, 41.153493 ], [ -8.353765, 41.172221 ], [ -8.32388, 41.204124 ] ] } },
{ "type": "Feature", "properties": { "services_sum": 4.0011114198388444, "total_departures_sum": 22, "route_short_name_sum": null, "services_unique": null, "total_departures_unique": null, "route_short_name_unique": "IR" }, "geometry": { "type": "LineString", "coordinates": [ [ -8.554252, 41.217349 ], [ -8.32388, 41.204124 ] ] } },
{ "type": "Feature", "properties": { "services_sum": 4.0011114198388444, "total_departures_sum": 22, "route_short_name_sum": null, "services_unique": null, "total_departures_unique": null, "route_short_name_unique": "IR" }, "geometry": { "type": "LineString", "coordinates": [ [ -8.29453, 41.218094 ], [ -8.226824, 41.252435 ] ] } },
{ "type": "Feature", "properties": { "services_sum": 4.0011114198388444, "total_departures_sum": 22, "route_short_name_sum": null, "services_unique": null, "total_departures_unique": null, "route_short_name_unique": "IR" }, "geometry": { "type": "LineString", "coordinates": [ [ -8.136459, 41.180557 ], [ -8.069127, 41.094616 ] ] } },
{ "type": "Feature", "properties": { "services_sum": 2.0005557099194222, "total_departures_sum": 47, "route_short_name_sum": null, "services_unique": null, "total_departures_unique": null, "route_short_name_unique": "Linha do Marco" }, "geometry": { "type": "LineString", "coordinates": [ [ -8.29453, 41.218094 ], [ -8.276784, 41.235375 ], [ -8.258727, 41.248767 ] ] } },
{ "type": "Feature", "properties": { "services_sum": 2.0005557099194222, "total_departures_sum": 47, "route_short_name_sum": null, "services_unique": null, "total_departures_unique": null, "route_short_name_unique": "Linha do Marco" }, "geometry": { "type": "LineString", "coordinates": [ [ -8.226824, 41.252435 ], [ -8.198543, 41.257549 ], [ -8.18461, 41.245847 ], [ -8.17469, 41.230378 ], [ -8.155653, 41.216742 ] ] } },
{ "type": "Feature", "properties": { "services_sum": 1.0002778549597111, "total_departures_sum": 27, "route_short_name_sum": null, "services_unique": null, "total_departures_unique": null, "route_short_name_unique": "Linha do Marco" }, "geometry": { "type": "LineString", "coordinates": [ [ -8.29453, 41.218094 ], [ -8.258727, 41.248767 ] ] } },
{ "type": "Feature", "properties": { "services_sum": 1.0002778549597111, "total_departures_sum": 27, "route_short_name_sum": null, "services_unique": null, "total_departures_unique": null, "route_short_name_unique": "Linha do Marco" }, "geometry": { "type": "LineString", "coordinates": [ [ -8.18461, 41.245847 ], [ -8.155653, 41.216742 ] ] } },
{ "type": "Feature", "properties": { "services_sum": 3.0008335648791333, "total_departures_sum": 18, "route_short_name_sum": null, "services_unique": null, "total_departures_unique": null, "route_short_name_unique": "IR" }, "geometry": { "type": "LineString", "coordinates": [ [ -8.226824, 41.252435 ], [ -8.155653, 41.216742 ] ] } },
{ "type": "Feature", "properties": { "services_sum": 3.0008335648791333, "total_departures_sum": 18, "route_short_name_sum": null, "services_unique": null, "total_departures_unique": null, "route_short_name_unique": "IR" }, "geometry": { "type": "LineString", "coordinates": [ [ -8.006622, 41.10645 ], [ -7.950097, 41.124538 ], [ -7.864992, 41.160698 ], [ -7.783341, 41.158549 ] ] } },
{ "type": "Feature", "properties": { "services_sum": 1.0002778549597111, "total_departures_sum": 4, "route_short_name_sum": null, "services_unique": null, "total_departures_unique": null, "route_short_name_unique": "IR" }, "geometry": { "type": "LineString", "coordinates": [ [ -8.18461, 41.245847 ], [ -8.136459, 41.180557 ] ] } },
{ "type": "Feature", "properties": { "services_sum": 1.0002778549597111, "total_departures_sum": 4, "route_short_name_sum": null, "services_unique": null, "total_departures_unique": null, "route_short_name_unique": "IR" }, "geometry": { "type": "LineString", "coordinates": [ [ -8.069127, 41.094616 ], [ -7.950097, 41.124538 ], [ -7.783341, 41.158549 ], [ -7.54476, 41.190287 ] ] } },
{ "type": "Feature", "properties": { "services_sum": 1.0002778549597111, "total_departures_sum": 4, "route_short_name_sum": null, "services_unique": null, "total_departures_unique": null, "route_short_name_unique": "IR" }, "geometry": { "type": "LineString", "coordinates": [ [ -7.419973, 41.207354 ], [ -7.331304, 41.144624 ], [ -7.261579, 41.141451 ] ] } },
{ "type": "Feature", "properties": { "services_sum": 1.0002778549597111, "total_departures_sum": 9, "route_short_name_sum": null, "services_unique": null, "total_departures_unique": null, "route_short_name_unique": "R" }, "geometry": { "type": "LineString", "coordinates": [ [ -8.136459, 41.180557 ], [ -8.120754, 41.14218 ], [ -8.089943, 41.103462 ], [ -8.069127, 41.094616 ] ] } },
{ "type": "Feature", "properties": { "services_sum": 1.0002778549597111, "total_departures_sum": 9, "route_short_name_sum": null, "services_unique": null, "total_departures_unique": null, "route_short_name_unique": "R" }, "geometry": { "type": "LineString", "coordinates": [ [ -8.006622, 41.10645 ], [ -7.971898, 41.117595 ], [ -7.950097, 41.124538 ], [ -7.909651, 41.121549 ], [ -7.887497, 41.140881 ], [ -7.864992, 41.160698 ], [ -7.826361, 41.152745 ], [ -7.797256, 41.166386 ], [ -7.783341, 41.158549 ] ] } },
{ "type": "Feature", "properties": { "services_sum": 2.0005557099194222, "total_departures_sum": 13, "route_short_name_sum": null, "services_unique": null, "total_departures_unique": null, "route_short_name_unique": "IR" }, "geometry": { "type": "LineString", "coordinates": [ [ -7.783341, 41.158549 ], [ -7.6879, 41.152599 ], [ -7.609987, 41.161653 ], [ -7.54476, 41.190287 ] ] } },
{ "type": "Feature", "properties": { "services_sum": 2.0005557099194222, "total_departures_sum": 13, "route_short_name_sum": null, "services_unique": null, "total_departures_unique": null, "route_short_name_unique": "IR" }, "geometry": { "type": "LineString", "coordinates": [ [ -7.419973, 41.207354 ], [ -7.377397, 41.176255 ], [ -7.331304, 41.144624 ], [ -7.315471, 41.143429 ], [ -7.261579, 41.141451 ] ] } },
{ "type": "Feature", "properties": { "services_sum": 3.0008335648791333, "total_departures_sum": 17, "route_short_name_sum": null, "services_unique": null, "total_departures_unique": null, "route_short_name_unique": "IR" }, "geometry": { "type": "LineString", "coordinates": [ [ -7.54476, 41.190287 ], [ -7.419973, 41.207354 ] ] } },
{ "type": "Feature", "properties": { "services_sum": 3.0008335648791333, "total_departures_sum": 17, "route_short_name_sum": null, "services_unique": null, "total_departures_unique": null, "route_short_name_unique": "IR" }, "geometry": { "type": "LineString", "coordinates": [ [ -7.261579, 41.141451 ], [ -7.210485, 41.134731 ], [ -7.123378, 41.130403 ] ] } },
{ "type": "Feature", "properties": { "services_sum": 2.0005557099194222, "total_departures_sum": 97, "route_short_name_sum": null, "services_unique": null, "total_departures_unique": null, "route_short_name_unique": "Linha de Cascais" }, "geometry": { "type": "LineString", "coordinates": [ [ -9.418564, 38.700762 ], [ -9.406633, 38.703679 ], [ -9.398336, 38.702284 ], [ -9.386179, 38.701016 ], [ -9.370434, 38.696124 ], [ -9.356355, 38.689857 ], [ -9.337191, 38.686946 ], [ -9.319014, 38.688613 ], [ -9.311547, 38.68679 ], [ -9.28876, 38.696672 ], [ -9.274441, 38.698888 ], [ -9.252189, 38.69992 ], [ -9.229237, 38.698345 ], [ -9.196767, 38.695876 ], [ -9.172074, 38.70194 ], [ -9.155324, 38.706252 ], [ -9.144381, 38.705907 ] ] } },
{ "type": "Feature", "properties": { "services_sum": 4.0011114198388444, "total_departures_sum": 102, "route_short_name_sum": null, "services_unique": null, "total_departures_unique": null, "route_short_name_unique": "Linha de Sintra" }, "geometry": { "type": "LineString", "coordinates": [ [ -9.379503, 38.801465 ], [ -9.370453, 38.802494 ], [ -9.338369, 38.798368 ], [ -9.328742, 38.790853 ], [ -9.320603, 38.783862 ], [ -9.296683, 38.764014 ] ] } },
{ "type": "Feature", "properties": { "services_sum": 2.0005557099194222, "total_departures_sum": 22, "route_short_name_sum": null, "services_unique": null, "total_departures_unique": null, "route_short_name_unique": "Linha de Sintra" }, "geometry": { "type": "LineString", "coordinates": [ [ -9.313149, 38.793035 ], [ -9.296683, 38.764014 ] ] } },
{ "type": "Feature", "properties": { "services_sum": 6.0016671297582667, "total_departures_sum": 124, "route_short_name_sum": null, "services_unique": null, "total_departures_unique": null, "route_short_name_unique": "Linha de Sintra" }, "geometry": { "type": "LineString", "coordinates": [ [ -9.296683, 38.764014 ], [ -9.2806, 38.750647 ], [ -9.263756, 38.757067 ], [ -9.254494, 38.758425 ], [ -9.234521, 38.759131 ], [ -9.223969, 38.751226 ], [ -9.213991, 38.747148 ], [ -9.20132, 38.74452 ] ] } },
{ "type": "Feature", "properties": { "services_sum": 4.0011114198388444, "total_departures_sum": 52, "route_short_name_sum": null, "services_unique": null, "total_departures_unique": null, "route_short_name_unique": "Linha de Sintra" }, "geometry": { "type": "LineString", "coordinates": [ [ -9.20132, 38.74452 ], [ -9.168181, 38.736103 ], [ -9.145902, 38.71476 ] ] } },
{ "type": "Feature", "properties": { "services_sum": 2.0005557099194222, "total_departures_sum": 72, "route_short_name_sum": null, "services_unique": null, "total_departures_unique": null, "route_short_name_unique": "Linha de Sintra" }, "geometry": { "type": "LineString", "coordinates": [ [ -9.20132, 38.74452 ], [ -9.165675, 38.740433 ], [ -9.1476, 38.74485 ], [ -9.135353, 38.745743 ], [ -9.102924, 38.746603 ] ] } },
{ "type": "Feature", "properties": { "services_sum": 4.0011114198388444, "total_departures_sum": 104, "route_short_name_sum": null, "services_unique": null, "total_departures_unique": null, "route_short_name_unique": "Linha da Azambuja, Linha de Sintra" }, "geometry": { "type": "LineString", "coordinates": [ [ -9.102924, 38.746603 ], [ -9.09812, 38.767786 ] ] } },
{ "type": "Feature", "properties": { "services_sum": 2.0005557099194222, "total_departures_sum": 26, "route_short_name_sum": null, "services_unique": null, "total_departures_unique": null, "route_short_name_unique": "Linha do Sado" }, "geometry": { "type": "LineString", "coordinates": [ [ -9.080153, 38.653656 ], [ -9.071594, 38.659875 ], [ -9.059446, 38.662091 ], [ -9.045498, 38.659969 ], [ -9.028574, 38.652334 ], [ -8.997857, 38.645271 ], [ -8.956804, 38.638367 ], [ -8.91298, 38.629981 ], [ -8.891374, 38.610011 ], [ -8.872821568, 38.5718791 ], [ -8.884939, 38.530729 ], [ -8.886497, 38.525648 ], [ -8.849731, 38.511928 ] ] } },
{ "type": "Feature", "properties": { "services_sum": 2.0005557099194222, "total_departures_sum": 32, "route_short_name_sum": null, "services_unique": null, "total_departures_unique": null, "route_short_name_unique": "Linha da Azambuja" }, "geometry": { "type": "LineString", "coordinates": [ [ -9.120748, 38.71584 ], [ -9.102924, 38.746603 ] ] } },
{ "type": "Feature", "properties": { "services_sum": 2.0005557099194222, "total_departures_sum": 32, "route_short_name_sum": null, "services_unique": null, "total_departures_unique": null, "route_short_name_unique": "Linha da Azambuja" }, "geometry": { "type": "LineString", "coordinates": [ [ -9.09812, 38.767786 ], [ -9.099293, 38.776158 ], [ -9.099744, 38.795236 ], [ -9.095013, 38.806251 ], [ -9.081554, 38.838345 ], [ -9.06431, 38.859255 ], [ -9.034573, 38.889243 ], [ -9.011613, 38.923268 ], [ -8.986486, 38.9547 ], [ -8.964987, 38.988653 ], [ -8.954623, 39.004348 ], [ -8.928696, 39.036206 ], [ -8.902895, 39.050512 ], [ -8.867753, 39.067628 ] ] } }
]
}
