{
"type": "FeatureCollection",
"name": "CP_0500_shapes",
"crs": { "type": "name", "properties": { "name": "urn:ogc:def:crs:OGC:1.3:CRS84" } },
"features": [
{ "type": "Feature", "properties": { "shape_id": "shape-14", "route_id": "25-94_61101-94_31039", "route_short_name": "Linha de Sintra", "route_long_name": "", "total_departures": 28, "median_headways": 3599.0, "mean_headways": 3599.0, "st_dev_headways": 0.0, "stop_count": 28, "services": 1.0002778549597111 }, "geometry": { "type": "LineString", "coordinates": [ [ -9.379503, 38.801465 ], [ -9.370453, 38.802494 ], [ -9.338369, 38.798368 ], [ -9.328742, 38.790853 ], [ -9.320603, 38.783862 ], [ -9.296683, 38.764014 ], [ -9.2806, 38.750647 ], [ -9.263756, 38.757067 ], [ -9.254494, 38.758425 ], [ -9.234521, 38.759131 ], [ -9.223969, 38.751226 ], [ -9.213991, 38.747148 ], [ -9.20132, 38.74452 ], [ -9.165675, 38.740433 ], [ -9.1476, 38.74485 ], [ -9.135353, 38.745743 ], [ -9.102924, 38.746603 ], [ -9.09812, 38.767786 ] ] } },
{ "type": "Feature", "properties": { "shape_id": "shape-17", "route_id": "25-94_61101-94_59006", "route_short_name": "Linha de Sintra", "route_long_name": "", "total_departures": 20, "median_headways": 3599.0, "mean_headways": 3599.0, "st_dev_headways": 0.0, "stop_count": 20, "services": 1.0002778549597111 }, "geometry": { "type": "LineString", "coordinates": [ [ -9.379503, 38.801465 ], [ -9.370453, 38.802494 ], [ -9.338369, 38.798368 ], [ -9.328742, 38.790853 ], [ -9.320603, 38.783862 ], [ -9.296683, 38.764014 ], [ -9.2806, 38.750647 ], [ -9.263756, 38.757067 ], [ -9.254494, 38.758425 ], [ -9.234521, 38.759131 ], [ -9.223969, 38.751226 ], [ -9.213991, 38.747148 ], [ -9.20132, 38.74452 ], [ -9.168181, 38.736103 ], [ -9.145902, 38.71476 ] ] } },
{ "type": "Feature", "properties": { "shape_id": "shape-19", "route_id": "25-94_69260-94_69005", "route_short_name": "Linha de Cascais", "route_long_name": "", "total_departures": 13, "median_headways": 3599.0, "mean_headways": 3599.0, "st_dev_headways": 0.0, "stop_count": 13, "services": 1.0002778549597111 }, "geometry": { "type": "LineString", "coordinates": [ [ -9.418564, 38.700762 ], [ -9.406633, 38.703679 ], [ -9.398336, 38.702284 ], [ -9.386179, 38.701016 ], [ -9.370434, 38.696124 ], [ -9.356355, 38.689857 ], [ -9.337191, 38.686946 ], [ -9.319014, 38.688613 ], [ -9.311547, 38.68679 ], [ -9.28876, 38.696672 ], [ -9.274441, 38.698888 ], [ -9.252189, 38.69992 ], [ -9.229237, 38.698345 ], [ -9.196767, 38.695876 ], [ -9.172074, 38.70194 ], [ -9.155324, 38.706252 ], [ -9.144381, 38.705907 ] ] } },
{ "type": "Feature", "properties": { "shape_id": "shape-20", "route_id": "25-94_69005-94_69260", "route_short_name": "Linha de Cascais", "route_long_name": "", "total_departures": 12, "median_headways": 3599.0, "mean_headways": 3599.0, "st_dev_headways": 0.0, "stop_count": 12, "services": 1.0002778549597111 }, "geometry": { "type": "LineString", "coordinates": [ [ -9.144381, 38.705907 ], [ -9.155324, 38.706252 ], [ -9.172074, 38.70194 ], [ -9.196767, 38.695876 ], [ -9.229237, 38.698345 ], [ -9.252189, 38.69992 ], [ -9.274441, 38.698888 ], [ -9.28876, 38.696672 ], [ -9.311547, 38.68679 ], [ -9.319014, 38.688613 ], [ -9.337191, 38.686946 ], [ -9.356355, 38.689857 ], [ -9.370434, 38.696124 ], [ -9.386179, 38.701016 ], [ -9.398336, 38.702284 ], [ -9.406633, 38.703679 ], [ -9.418564, 38.700762 ] ] } },
{ "type": "Feature", "properties": { "shape_id": "shape-9", "route_id": "25-94_91058-94_95000", "route_short_name": "Linha do Sado", "route_long_name": "", "total_departures": 5, "median_headways": 3599.0, "mean_headways": 3599.0, "st_dev_headways": 0.0, "stop_count": 5, "services": 1.0002778549597111 }, "geometry": { "type": "LineString", "coordinates": [ [ -8.849731, 38.511928 ], [ -8.886497, 38.525648 ], [ -8.884939, 38.530729 ], [ -8.872821568, 38.5718791 ], [ -8.891374, 38.610011 ], [ -8.91298, 38.629981 ], [ -8.956804, 38.638367 ], [ -8.997857, 38.645271 ], [ -9.028574, 38.652334 ], [ -9.045498, 38.659969 ], [ -9.059446, 38.662091 ], [ -9.071594, 38.659875 ], [ -9.080153, 38.653656 ] ] } }
]
}
