{
"type": "FeatureCollection",
"name": "CP_2300_shapes_aggregated",
"crs": { "type": "name", "properties": { "name": "urn:ogc:def:crs:OGC:1.3:CRS84" } },
"features": [
{ "type": "Feature", "properties": { "services_sum": 4.0011114198388444, "total_departures_sum": 132, "route_short_name_sum": null, "services_unique": null, "total_departures_unique": null, "route_short_name_unique": "Linha de Sintra" }, "geometry": { "type": "LineString", "coordinates": [ [ -9.379503, 38.801465 ], [ -9.370453, 38.802494 ], [ -9.338369, 38.798368 ], [ -9.328742, 38.790853 ], [ -9.320603, 38.783862 ], [ -9.296683, 38.764014 ], [ -9.2806, 38.750647 ], [ -9.263756, 38.757067 ], [ -9.254494, 38.758425 ], [ -9.234521, 38.759131 ], [ -9.223969, 38.751226 ], [ -9.213991, 38.747148 ], [ -9.20132, 38.74452 ] ] } },
{ "type": "Feature", "properties": { "services_sum": 2.0005557099194222, "total_departures_sum": 40, "route_short_name_sum": null, "services_unique": null, "total_departures_unique": null, "route_short_name_unique": "Linha de Cascais" }, "geometry": { "type": "LineString", "coordinates": [ [ -9.319014, 38.688613 ], [ -9.311547, 38.68679 ], [ -9.28876, 38.696672 ], [ -9.274441, 38.698888 ], [ -9.252189, 38.69992 ], [ -9.229237, 38.698345 ], [ -9.196767, 38.695876 ], [ -9.172074, 38.70194 ], [ -9.155324, 38.706252 ], [ -9.144381, 38.705907 ] ] } },
{ "type": "Feature", "properties": { "services_sum": 2.0005557099194222, "total_departures_sum": 60, "route_short_name_sum": null, "services_unique": null, "total_departures_unique": null, "route_short_name_unique": "Linha de Sintra" }, "geometry": { "type": "LineString", "coordinates": [ [ -9.20132, 38.74452 ], [ -9.168181, 38.736103 ], [ -9.145902, 38.71476 ] ] } },
{ "type": "Feature", "properties": { "services_sum": 2.0005557099194222, "total_departures_sum": 72, "route_short_name_sum": null, "services_unique": null, "total_departures_unique": null, "route_short_name_unique": "Linha de Sintra" }, "geometry": { "type": "LineString", "coordinates": [ [ -9.20132, 38.74452 ], [ -9.165675, 38.740433 ], [ -9.1476, 38.74485 ], [ -9.135353, 38.745743 ], [ -9.102924, 38.746603 ] ] } },
{ "type": "Feature", "properties": { "services_sum": 6.0016671297582667, "total_departures_sum": 36, "route_short_name_sum": null, "services_unique": null, "total_departures_unique": null, "route_short_name_unique": "R, IC" }, "geometry": { "type": "LineString", "coordinates": [ [ -9.120748, 38.71584 ], [ -9.09812, 38.767786 ] ] } },
{ "type": "Feature", "properties": { "services_sum": 4.0011114198388444, "total_departures_sum": 104, "route_short_name_sum": null, "services_unique": null, "total_departures_unique": null, "route_short_name_unique": "Linha da Azambuja, Linha de Sintra" }, "geometry": { "type": "LineString", "coordinates": [ [ -9.102924, 38.746603 ], [ -9.09812, 38.767786 ] ] } },
{ "type": "Feature", "properties": { "services_sum": 4.0011114198388444, "total_departures_sum": 14, "route_short_name_sum": null, "services_unique": null, "total_departures_unique": null, "route_short_name_unique": "IC" }, "geometry": { "type": "LineString", "coordinates": [ [ -9.09812, 38.767786 ], [ -8.986486, 38.9547 ], [ -8.675246, 39.241918 ], [ -8.47418, 39.461597 ] ] } },
{ "type": "Feature", "properties": { "services_sum": 3.0008335648791333, "total_departures_sum": 22, "route_short_name_sum": null, "services_unique": null, "total_departures_unique": null, "route_short_name_unique": "Linha do Sado" }, "geometry": { "type": "LineString", "coordinates": [ [ -9.080153, 38.653656 ], [ -9.071594, 38.659875 ], [ -9.059446, 38.662091 ], [ -9.045498, 38.659969 ], [ -9.028574, 38.652334 ], [ -8.997857, 38.645271 ], [ -8.956804, 38.638367 ], [ -8.91298, 38.629981 ], [ -8.891374, 38.610011 ], [ -8.872821568, 38.5718791 ], [ -8.884939, 38.530729 ] ] } },
{ "type": "Feature", "properties": { "services_sum": 4.0011114198388444, "total_departures_sum": 54, "route_short_name_sum": null, "services_unique": null, "total_departures_unique": null, "route_short_name_unique": "R, Linha da Azambuja" }, "geometry": { "type": "LineString", "coordinates": [ [ -9.06431, 38.859255 ], [ -9.034573, 38.889243 ] ] } },
{ "type": "Feature", "properties": { "services_sum": 1.0002778549597111, "total_departures_sum": 8, "route_short_name_sum": null, "services_unique": null, "total_departures_unique": null, "route_short_name_unique": "Linha do Sado" }, "geometry": { "type": "LineString", "coordinates": [ [ -8.884939, 38.530729 ], [ -8.886497, 38.525648 ], [ -8.849731, 38.511928 ] ] } },
{ "type": "Feature", "properties": { "services_sum": 2.0005557099194222, "total_departures_sum": 15, "route_short_name_sum": null, "services_unique": null, "total_departures_unique": null, "route_short_name_unique": "U" }, "geometry": { "type": "LineString", "coordinates": [ [ -8.843364, 40.148766 ], [ -8.822389, 40.145955 ], [ -8.810635, 40.140982 ], [ -8.783323, 40.127042 ], [ -8.76298, 40.119147 ], [ -8.745465, 40.129868 ], [ -8.703769, 40.139734 ], [ -8.677145, 40.139984 ], [ -8.655785, 40.160057 ], [ -8.634473, 40.165366 ], [ -8.606849, 40.17933 ], [ -8.584275, 40.186307 ], [ -8.544961, 40.192353 ], [ -8.526305, 40.192943 ], [ -8.501267, 40.205781 ], [ -8.484952, 40.204815 ], [ -8.471038, 40.209081 ], [ -8.456596, 40.214543 ], [ -8.440468, 40.224364 ] ] } },
{ "type": "Feature", "properties": { "services_sum": 2.0005557099194222, "total_departures_sum": 43, "route_short_name_sum": null, "services_unique": null, "total_departures_unique": null, "route_short_name_unique": "Linha de Aveiro" }, "geometry": { "type": "LineString", "coordinates": [ [ -8.647355, 41.039233 ], [ -8.65143, 41.050808 ], [ -8.649591, 41.067854 ], [ -8.647336, 41.08156 ], [ -8.631937, 41.099548 ], [ -8.637802, 41.111956 ], [ -8.63338, 41.12454 ], [ -8.620228, 41.130042 ], [ -8.607398, 41.133494 ], [ -8.585514, 41.149622 ] ] } },
{ "type": "Feature", "properties": { "services_sum": 3.0008335648791333, "total_departures_sum": 53, "route_short_name_sum": null, "services_unique": null, "total_departures_unique": null, "route_short_name_unique": "Linha de Aveiro" }, "geometry": { "type": "LineString", "coordinates": [ [ -8.647355, 41.039233 ], [ -8.644485, 41.006195 ], [ -8.640971, 40.991268 ], [ -8.63722, 40.976935 ], [ -8.63551, 40.963073 ], [ -8.63063, 40.941571 ], [ -8.62619, 40.925255 ], [ -8.616855, 40.864496 ], [ -8.601914, 40.834893 ], [ -8.584501, 40.807137 ], [ -8.575636, 40.751209 ], [ -8.566333, 40.733522 ], [ -8.564127, 40.717163 ], [ -8.59661, 40.685815 ], [ -8.639841, 40.64528 ] ] } },
{ "type": "Feature", "properties": { "services_sum": 1.0002778549597111, "total_departures_sum": 2, "route_short_name_sum": null, "services_unique": null, "total_departures_unique": null, "route_short_name_unique": "R" }, "geometry": { "type": "LineString", "coordinates": [ [ -8.639841, 40.64528 ], [ -8.6127605, 40.5909993 ], [ -8.550602, 40.544487 ], [ -8.49931, 40.510692 ], [ -8.4803345, 40.481098 ], [ -8.459521, 40.450742 ], [ -8.455891, 40.425745 ], [ -8.456726, 40.416257 ], [ -8.453875, 40.376285 ], [ -8.42954, 40.336114 ], [ -8.425925, 40.28564 ], [ -8.441588, 40.262537 ], [ -8.45054, 40.250335 ], [ -8.440468, 40.224364 ] ] } },
{ "type": "Feature", "properties": { "services_sum": 1.0002778549597111, "total_departures_sum": 7, "route_short_name_sum": null, "services_unique": null, "total_departures_unique": null, "route_short_name_unique": "Linha de Leixoes" }, "geometry": { "type": "LineString", "coordinates": [ [ -8.629593, 41.208622 ], [ -8.630343, 41.196551 ], [ -8.613096, 41.190359 ], [ -8.598269, 41.185137 ], [ -8.578925, 41.197276 ], [ -8.57565, 41.168396 ] ] } },
{ "type": "Feature", "properties": { "services_sum": 9.0025006946373995, "total_departures_sum": 132, "route_short_name_sum": null, "services_unique": null, "total_departures_unique": null, "route_short_name_unique": "Linha de Guimaraes, R, Linha de Braga, Linha do Marco, Linha de Aveiro" }, "geometry": { "type": "LineString", "coordinates": [ [ -8.609592, 41.145666 ], [ -8.585514, 41.149622 ] ] } },
{ "type": "Feature", "properties": { "services_sum": 9.0025006946373995, "total_departures_sum": 106, "route_short_name_sum": null, "services_unique": null, "total_departures_unique": null, "route_short_name_unique": "Linha de Guimaraes, R, Linha de Braga, Linha do Marco, Linha de Leixoes" }, "geometry": { "type": "LineString", "coordinates": [ [ -8.585514, 41.149622 ], [ -8.57565, 41.168396 ] ] } },
{ "type": "Feature", "properties": { "services_sum": 7.0019449847179782, "total_departures_sum": 89, "route_short_name_sum": null, "services_unique": null, "total_departures_unique": null, "route_short_name_unique": "Linha de Guimaraes, R, Linha de Braga, Linha do Marco" }, "geometry": { "type": "LineString", "coordinates": [ [ -8.57565, 41.168396 ], [ -8.557312, 41.184418 ] ] } },
{ "type": "Feature", "properties": { "services_sum": 3.0008335648791333, "total_departures_sum": 41, "route_short_name_sum": null, "services_unique": null, "total_departures_unique": null, "route_short_name_unique": "Linha de Guimaraes, Linha de Braga" }, "geometry": { "type": "LineString", "coordinates": [ [ -8.558154, 41.258058 ], [ -8.551783, 41.228692 ] ] } },
{ "type": "Feature", "properties": { "services_sum": 6.0016671297582667, "total_departures_sum": 78, "route_short_name_sum": null, "services_unique": null, "total_departures_unique": null, "route_short_name_unique": "Linha de Guimaraes, Linha de Braga, Linha do Marco" }, "geometry": { "type": "LineString", "coordinates": [ [ -8.557312, 41.184418 ], [ -8.556505, 41.200564 ], [ -8.554252, 41.217349 ] ] } },
{ "type": "Feature", "properties": { "services_sum": 5.0013892747985551, "total_departures_sum": 68, "route_short_name_sum": null, "services_unique": null, "total_departures_unique": null, "route_short_name_unique": "Linha de Guimaraes, R, Linha de Braga" }, "geometry": { "type": "LineString", "coordinates": [ [ -8.547626, 41.337411 ], [ -8.526658, 41.3511 ] ] } },
{ "type": "Feature", "properties": { "services_sum": 3.0008335648791333, "total_departures_sum": 23, "route_short_name_sum": null, "services_unique": null, "total_departures_unique": null, "route_short_name_unique": "R, IC, Linha de Braga" }, "geometry": { "type": "LineString", "coordinates": [ [ -8.54431, 41.454744 ], [ -8.529737, 41.404553 ] ] } },
{ "type": "Feature", "properties": { "services_sum": 2.0005557099194222, "total_departures_sum": 20, "route_short_name_sum": null, "services_unique": null, "total_departures_unique": null, "route_short_name_unique": "R, Linha de Braga" }, "geometry": { "type": "LineString", "coordinates": [ [ -8.529737, 41.404553 ], [ -8.526658, 41.3511 ] ] } },
{ "type": "Feature", "properties": { "services_sum": 1.0002778549597111, "total_departures_sum": 7, "route_short_name_sum": null, "services_unique": null, "total_departures_unique": null, "route_short_name_unique": "IC" }, "geometry": { "type": "LineString", "coordinates": [ [ -8.47418, 39.461597 ], [ -8.193767, 39.439684 ], [ -7.672902, 39.655031 ], [ -7.490912, 39.818106 ], [ -7.496576, 40.141072 ], [ -7.496116, 40.277481 ], [ -7.370709107, 40.306031 ], [ -7.3362705, 40.33330266 ], [ -7.287301395, 40.38875756 ], [ -7.268354684, 40.43489707 ], [ -7.238927273, 40.51155311 ], [ -7.239816, 40.552532 ] ] } },
{ "type": "Feature", "properties": { "services_sum": 1.0002778549597111, "total_departures_sum": 3, "route_short_name_sum": null, "services_unique": null, "total_departures_unique": null, "route_short_name_unique": "R" }, "geometry": { "type": "LineString", "coordinates": [ [ -7.93993, 37.018672 ], [ -7.921398, 37.014101 ], [ -7.840106, 37.03041 ], [ -7.749825, 37.053546 ], [ -7.751468, 37.060167 ], [ -7.732069, 37.073554 ], [ -7.700221, 37.088982 ], [ -7.655782, 37.12086 ], [ -7.649051, 37.133058 ], [ -7.605801, 37.144421 ], [ -7.538629, 37.176389 ], [ -7.421588, 37.199837 ] ] } },
{ "type": "Feature", "properties": { "services_sum": 2.0005557099194222, "total_departures_sum": 10, "route_short_name_sum": null, "services_unique": null, "total_departures_unique": null, "route_short_name_unique": "IC" }, "geometry": { "type": "LineString", "coordinates": [ [ -7.850099, 40.530118 ], [ -7.760263, 40.586489 ] ] } },
{ "type": "Feature", "properties": { "services_sum": 2.0005557099194222, "total_departures_sum": 32, "route_short_name_sum": null, "services_unique": null, "total_departures_unique": null, "route_short_name_unique": "Linha da Azambuja" }, "geometry": { "type": "LineString", "coordinates": [ [ -9.120748, 38.71584 ], [ -9.102924, 38.746603 ] ] } },
{ "type": "Feature", "properties": { "services_sum": 2.0005557099194222, "total_departures_sum": 32, "route_short_name_sum": null, "services_unique": null, "total_departures_unique": null, "route_short_name_unique": "Linha da Azambuja" }, "geometry": { "type": "LineString", "coordinates": [ [ -9.09812, 38.767786 ], [ -9.099293, 38.776158 ], [ -9.099744, 38.795236 ], [ -9.095013, 38.806251 ], [ -9.081554, 38.838345 ], [ -9.06431, 38.859255 ] ] } },
{ "type": "Feature", "properties": { "services_sum": 2.0005557099194222, "total_departures_sum": 32, "route_short_name_sum": null, "services_unique": null, "total_departures_unique": null, "route_short_name_unique": "Linha da Azambuja" }, "geometry": { "type": "LineString", "coordinates": [ [ -9.034573, 38.889243 ], [ -9.011613, 38.923268 ], [ -8.986486, 38.9547 ], [ -8.964987, 38.988653 ], [ -8.954623, 39.004348 ], [ -8.928696, 39.036206 ], [ -8.902895, 39.050512 ], [ -8.867753, 39.067628 ] ] } },
{ "type": "Feature", "properties": { "services_sum": 2.0005557099194222, "total_departures_sum": 22, "route_short_name_sum": null, "services_unique": null, "total_departures_unique": null, "route_short_name_unique": "R" }, "geometry": { "type": "LineString", "coordinates": [ [ -9.09812, 38.767786 ], [ -9.06431, 38.859255 ] ] } },
{ "type": "Feature", "properties": { "services_sum": 2.0005557099194222, "total_departures_sum": 22, "route_short_name_sum": null, "services_unique": null, "total_departures_unique": null, "route_short_name_unique": "R" }, "geometry": { "type": "LineString", "coordinates": [ [ -9.034573, 38.889243 ], [ -8.986486, 38.9547 ], [ -8.867753, 39.067628 ], [ -8.829948, 39.085841 ], [ -8.794143, 39.098985 ], [ -8.778726, 39.11299 ], [ -8.759176, 39.144254 ], [ -8.723897, 39.186727 ], [ -8.675246, 39.241918 ], [ -8.630012, 39.313766 ], [ -8.554832, 39.367985 ], [ -8.50491, 39.431893 ], [ -8.47418, 39.461597 ], [ -8.46903, 39.52886 ], [ -8.472004, 39.542208 ], [ -8.462431, 39.548113 ], [ -8.429929, 39.547885 ], [ -8.400552, 39.550565 ], [ -8.395076, 39.570676 ], [ -8.4132, 39.598404 ] ] } },
{ "type": "Feature", "properties": { "services_sum": 1.0002778549597111, "total_departures_sum": 10, "route_short_name_sum": null, "services_unique": null, "total_departures_unique": null, "route_short_name_unique": "R" }, "geometry": { "type": "LineString", "coordinates": [ [ -8.830407, 41.696031 ], [ -8.799277, 41.684085 ], [ -8.780905, 41.679835 ], [ -8.739143, 41.648435 ], [ -8.720439, 41.64664 ], [ -8.700862, 41.646334 ], [ -8.666161, 41.638902 ], [ -8.634906, 41.608823 ], [ -8.633883, 41.584379 ], [ -8.627633, 41.565778 ], [ -8.608976, 41.536628 ], [ -8.58174, 41.507966 ], [ -8.563831, 41.486525 ], [ -8.54431, 41.454744 ] ] } },
{ "type": "Feature", "properties": { "services_sum": 1.0002778549597111, "total_departures_sum": 10, "route_short_name_sum": null, "services_unique": null, "total_departures_unique": null, "route_short_name_unique": "R" }, "geometry": { "type": "LineString", "coordinates": [ [ -8.57565, 41.168396 ], [ -8.554252, 41.217349 ], [ -8.547626, 41.337411 ] ] } },
{ "type": "Feature", "properties": { "services_sum": 3.0008335648791333, "total_departures_sum": 7, "route_short_name_sum": null, "services_unique": null, "total_departures_unique": null, "route_short_name_unique": "IC" }, "geometry": { "type": "LineString", "coordinates": [ [ -8.644485, 41.006195 ], [ -8.620228, 41.130042 ], [ -8.585514, 41.149622 ] ] } },
{ "type": "Feature", "properties": { "services_sum": 3.0008335648791333, "total_departures_sum": 7, "route_short_name_sum": null, "services_unique": null, "total_departures_unique": null, "route_short_name_unique": "IC" }, "geometry": { "type": "LineString", "coordinates": [ [ -8.63056, 39.91774 ], [ -8.440468, 40.224364 ] ] } },
{ "type": "Feature", "properties": { "services_sum": 2.0005557099194222, "total_departures_sum": 4, "route_short_name_sum": null, "services_unique": null, "total_departures_unique": null, "route_short_name_unique": "IC" }, "geometry": { "type": "LineString", "coordinates": [ [ -8.644485, 41.006195 ], [ -8.616855, 40.864496 ], [ -8.639841, 40.64528 ], [ -8.440468, 40.224364 ] ] } },
{ "type": "Feature", "properties": { "services_sum": 2.0005557099194222, "total_departures_sum": 4, "route_short_name_sum": null, "services_unique": null, "total_departures_unique": null, "route_short_name_unique": "IC" }, "geometry": { "type": "LineString", "coordinates": [ [ -8.63056, 39.91774 ], [ -8.549498, 39.717054 ], [ -8.47418, 39.461597 ] ] } },
{ "type": "Feature", "properties": { "services_sum": 1.0002778549597111, "total_departures_sum": 3, "route_short_name_sum": null, "services_unique": null, "total_departures_unique": null, "route_short_name_unique": "IC" }, "geometry": { "type": "LineString", "coordinates": [ [ -8.644485, 41.006195 ], [ -8.575636, 40.751209 ], [ -8.639841, 40.64528 ], [ -8.453875, 40.376285 ], [ -8.440468, 40.224364 ] ] } },
{ "type": "Feature", "properties": { "services_sum": 1.0002778549597111, "total_departures_sum": 3, "route_short_name_sum": null, "services_unique": null, "total_departures_unique": null, "route_short_name_unique": "IC" }, "geometry": { "type": "LineString", "coordinates": [ [ -8.63056, 39.91774 ], [ -8.47418, 39.461597 ] ] } },
{ "type": "Feature", "properties": { "services_sum": 1.0002778549597111, "total_departures_sum": 3, "route_short_name_sum": null, "services_unique": null, "total_departures_unique": null, "route_short_name_unique": "IC" }, "geometry": { "type": "LineString", "coordinates": [ [ -8.585514, 41.149622 ], [ -8.529737, 41.404553 ] ] } },
{ "type": "Feature", "properties": { "services_sum": 1.0002778549597111, "total_departures_sum": 3, "route_short_name_sum": null, "services_unique": null, "total_departures_unique": null, "route_short_name_unique": "IC" }, "geometry": { "type": "LineString", "coordinates": [ [ -8.54431, 41.454744 ], [ -8.434642, 41.547874 ] ] } },
{ "type": "Feature", "properties": { "services_sum": 1.0002778549597111, "total_departures_sum": 17, "route_short_name_sum": null, "services_unique": null, "total_departures_unique": null, "route_short_name_unique": "Linha de Braga" }, "geometry": { "type": "LineString", "coordinates": [ [ -8.558154, 41.258058 ], [ -8.556695, 41.243532 ], [ -8.551783, 41.228692 ] ] } },
{ "type": "Feature", "properties": { "services_sum": 1.0002778549597111, "total_departures_sum": 17, "route_short_name_sum": null, "services_unique": null, "total_departures_unique": null, "route_short_name_unique": "Linha de Braga" }, "geometry": { "type": "LineString", "coordinates": [ [ -8.54431, 41.454744 ], [ -8.53772, 41.436725 ], [ -8.521448, 41.427715 ], [ -8.529737, 41.404553 ], [ -8.526247, 41.389633 ], [ -8.519631, 41.378218 ], [ -8.526658, 41.3511 ] ] } },
{ "type": "Feature", "properties": { "services_sum": 4.0011114198388444, "total_departures_sum": 58, "route_short_name_sum": null, "services_unique": null, "total_departures_unique": null, "route_short_name_unique": "Linha de Guimaraes, Linha de Braga" }, "geometry": { "type": "LineString", "coordinates": [ [ -8.558154, 41.258058 ], [ -8.55453, 41.277518 ] ] } },
{ "type": "Feature", "properties": { "services_sum": 4.0011114198388444, "total_departures_sum": 58, "route_short_name_sum": null, "services_unique": null, "total_departures_unique": null, "route_short_name_unique": "Linha de Guimaraes, Linha de Braga" }, "geometry": { "type": "LineString", "coordinates": [ [ -8.554252, 41.217349 ], [ -8.551783, 41.228692 ] ] } },
{ "type": "Feature", "properties": { "services_sum": 1.0002778549597111, "total_departures_sum": 11, "route_short_name_sum": null, "services_unique": null, "total_departures_unique": null, "route_short_name_unique": "R" }, "geometry": { "type": "LineString", "coordinates": [ [ -8.557312, 41.184418 ], [ -8.554252, 41.217349 ], [ -8.501441, 41.196992 ] ] } },
{ "type": "Feature", "properties": { "services_sum": 1.0002778549597111, "total_departures_sum": 11, "route_short_name_sum": null, "services_unique": null, "total_departures_unique": null, "route_short_name_unique": "R" }, "geometry": { "type": "LineString", "coordinates": [ [ -8.487195, 41.188026 ], [ -8.398506, 41.153493 ], [ -8.353765, 41.172221 ], [ -8.32388, 41.204124 ] ] } },
{ "type": "Feature", "properties": { "services_sum": 1.0002778549597111, "total_departures_sum": 11, "route_short_name_sum": null, "services_unique": null, "total_departures_unique": null, "route_short_name_unique": "R" }, "geometry": { "type": "LineString", "coordinates": [ [ -8.29453, 41.218094 ], [ -8.226824, 41.252435 ], [ -8.18461, 41.245847 ], [ -8.155653, 41.216742 ] ] } },
{ "type": "Feature", "properties": { "services_sum": 1.0002778549597111, "total_departures_sum": 11, "route_short_name_sum": null, "services_unique": null, "total_departures_unique": null, "route_short_name_unique": "R" }, "geometry": { "type": "LineString", "coordinates": [ [ -8.136459, 41.180557 ], [ -8.120754, 41.14218 ], [ -8.089943, 41.103462 ], [ -8.069127, 41.094616 ], [ -8.006622, 41.10645 ], [ -7.971898, 41.117595 ], [ -7.950097, 41.124538 ], [ -7.909651, 41.121549 ], [ -7.887497, 41.140881 ], [ -7.864992, 41.160698 ], [ -7.826361, 41.152745 ], [ -7.797256, 41.166386 ], [ -7.783341, 41.158549 ] ] } },
{ "type": "Feature", "properties": { "services_sum": 2.0005557099194222, "total_departures_sum": 31, "route_short_name_sum": null, "services_unique": null, "total_departures_unique": null, "route_short_name_unique": "Linha de Guimaraes" }, "geometry": { "type": "LineString", "coordinates": [ [ -8.55453, 41.277518 ], [ -8.548562, 41.300518 ], [ -8.547626, 41.337411 ] ] } },
{ "type": "Feature", "properties": { "services_sum": 2.0005557099194222, "total_departures_sum": 31, "route_short_name_sum": null, "services_unique": null, "total_departures_unique": null, "route_short_name_unique": "Linha de Guimaraes" }, "geometry": { "type": "LineString", "coordinates": [ [ -8.526658, 41.3511 ], [ -8.474432, 41.352307 ], [ -8.434793, 41.363996 ], [ -8.401931, 41.35965 ], [ -8.387125, 41.365118 ], [ -8.362271, 41.366646 ], [ -8.338249, 41.375982 ], [ -8.324351, 41.377421 ], [ -8.3134, 41.381133 ], [ -8.320148, 41.405703 ], [ -8.3009, 41.424238 ], [ -8.294142, 41.435373 ] ] } },
{ "type": "Feature", "properties": { "services_sum": 2.0005557099194222, "total_departures_sum": 27, "route_short_name_sum": null, "services_unique": null, "total_departures_unique": null, "route_short_name_unique": "Linha de Braga" }, "geometry": { "type": "LineString", "coordinates": [ [ -8.55453, 41.277518 ], [ -8.547626, 41.337411 ] ] } },
{ "type": "Feature", "properties": { "services_sum": 2.0005557099194222, "total_departures_sum": 27, "route_short_name_sum": null, "services_unique": null, "total_departures_unique": null, "route_short_name_unique": "Linha de Braga" }, "geometry": { "type": "LineString", "coordinates": [ [ -8.54431, 41.454744 ], [ -8.529178, 41.480822 ], [ -8.510734, 41.48877 ], [ -8.497693, 41.496556 ], [ -8.483078, 41.508966 ], [ -8.468178, 41.520433 ], [ -8.457616, 41.527164 ], [ -8.440553, 41.531473 ], [ -8.434642, 41.547874 ] ] } },
{ "type": "Feature", "properties": { "services_sum": 2.0005557099194222, "total_departures_sum": 20, "route_short_name_sum": null, "services_unique": null, "total_departures_unique": null, "route_short_name_unique": "Linha do Marco" }, "geometry": { "type": "LineString", "coordinates": [ [ -8.554252, 41.217349 ], [ -8.534696, 41.220333 ], [ -8.501441, 41.196992 ] ] } },
{ "type": "Feature", "properties": { "services_sum": 2.0005557099194222, "total_departures_sum": 20, "route_short_name_sum": null, "services_unique": null, "total_departures_unique": null, "route_short_name_unique": "Linha do Marco" }, "geometry": { "type": "LineString", "coordinates": [ [ -8.487195, 41.188026 ], [ -8.467475, 41.169489 ], [ -8.437955, 41.163772 ], [ -8.418665, 41.16126 ], [ -8.398506, 41.153493 ], [ -8.372769, 41.160128 ], [ -8.353765, 41.172221 ], [ -8.341793, 41.182231 ], [ -8.337417, 41.193971 ], [ -8.32388, 41.204124 ] ] } },
{ "type": "Feature", "properties": { "services_sum": 2.0005557099194222, "total_departures_sum": 20, "route_short_name_sum": null, "services_unique": null, "total_departures_unique": null, "route_short_name_unique": "Linha do Marco" }, "geometry": { "type": "LineString", "coordinates": [ [ -8.29453, 41.218094 ], [ -8.276784, 41.235375 ], [ -8.258727, 41.248767 ], [ -8.226824, 41.252435 ], [ -8.198543, 41.257549 ], [ -8.18461, 41.245847 ], [ -8.17469, 41.230378 ], [ -8.155653, 41.216742 ] ] } },
{ "type": "Feature", "properties": { "services_sum": 3.0008335648791333, "total_departures_sum": 31, "route_short_name_sum": null, "services_unique": null, "total_departures_unique": null, "route_short_name_unique": "R, Linha do Marco" }, "geometry": { "type": "LineString", "coordinates": [ [ -8.501441, 41.196992 ], [ -8.487195, 41.188026 ] ] } },
{ "type": "Feature", "properties": { "services_sum": 3.0008335648791333, "total_departures_sum": 31, "route_short_name_sum": null, "services_unique": null, "total_departures_unique": null, "route_short_name_unique": "R, Linha do Marco" }, "geometry": { "type": "LineString", "coordinates": [ [ -8.32388, 41.204124 ], [ -8.29453, 41.218094 ] ] } },
{ "type": "Feature", "properties": { "services_sum": 3.0008335648791333, "total_departures_sum": 31, "route_short_name_sum": null, "services_unique": null, "total_departures_unique": null, "route_short_name_unique": "R, Linha do Marco" }, "geometry": { "type": "LineString", "coordinates": [ [ -8.155653, 41.216742 ], [ -8.136459, 41.180557 ] ] } },
{ "type": "Feature", "properties": { "services_sum": 1.0002778549597111, "total_departures_sum": 5, "route_short_name_sum": null, "services_unique": null, "total_departures_unique": null, "route_short_name_unique": "IC" }, "geometry": { "type": "LineString", "coordinates": [ [ -8.124422, 40.390471 ], [ -8.003401, 40.436215 ], [ -7.850099, 40.530118 ], [ -8.124422, 40.390471 ] ] } },
{ "type": "Feature", "properties": { "services_sum": 1.0002778549597111, "total_departures_sum": 5, "route_short_name_sum": null, "services_unique": null, "total_departures_unique": null, "route_short_name_unique": "IC" }, "geometry": { "type": "LineString", "coordinates": [ [ -8.124422, 40.390471 ], [ -8.440468, 40.224364 ], [ -8.242916, 40.392049 ], [ -8.124422, 40.390471 ] ] } },
{ "type": "Feature", "properties": { "services_sum": 1.0002778549597111, "total_departures_sum": 5, "route_short_name_sum": null, "services_unique": null, "total_departures_unique": null, "route_short_name_unique": "IC" }, "geometry": { "type": "LineString", "coordinates": [ [ -7.382368, 40.665172 ], [ -7.256178, 40.726949 ], [ -7.239816, 40.552532 ], [ -7.382368, 40.665172 ] ] } },
{ "type": "Feature", "properties": { "services_sum": 1.0002778549597111, "total_departures_sum": 5, "route_short_name_sum": null, "services_unique": null, "total_departures_unique": null, "route_short_name_unique": "IC" }, "geometry": { "type": "LineString", "coordinates": [ [ -7.382368, 40.665172 ], [ -7.760263, 40.586489 ], [ -7.524762, 40.612036 ], [ -7.382368, 40.665172 ] ] } },
{ "type": "Feature", "properties": { "services_sum": 2.0005557099194222, "total_departures_sum": 68, "route_short_name_sum": null, "services_unique": null, "total_departures_unique": null, "route_short_name_unique": "Linha de Cascais" }, "geometry": { "type": "LineString", "coordinates": [ [ -9.418564, 38.700762 ], [ -9.406633, 38.703679 ], [ -9.398336, 38.702284 ], [ -9.386179, 38.701016 ], [ -9.370434, 38.696124 ], [ -9.356355, 38.689857 ], [ -9.337191, 38.686946 ], [ -9.319014, 38.688613 ], [ -9.311547, 38.68679 ], [ -9.28876, 38.696672 ], [ -9.274441, 38.698888 ], [ -9.252189, 38.69992 ], [ -9.229237, 38.698345 ], [ -9.196767, 38.695876 ], [ -9.172074, 38.70194 ], [ -9.155324, 38.706252 ], [ -9.144381, 38.705907 ] ] } },
{ "type": "Feature", "properties": { "services_sum": 4.0011114198388444, "total_departures_sum": 132, "route_short_name_sum": null, "services_unique": null, "total_departures_unique": null, "route_short_name_unique": "Linha de Sintra" }, "geometry": { "type": "LineString", "coordinates": [ [ -9.379503, 38.801465 ], [ -9.370453, 38.802494 ], [ -9.338369, 38.798368 ], [ -9.328742, 38.790853 ], [ -9.320603, 38.783862 ], [ -9.296683, 38.764014 ], [ -9.2806, 38.750647 ], [ -9.263756, 38.757067 ], [ -9.254494, 38.758425 ], [ -9.234521, 38.759131 ], [ -9.223969, 38.751226 ], [ -9.213991, 38.747148 ], [ -9.20132, 38.74452 ] ] } },
{ "type": "Feature", "properties": { "services_sum": 2.0005557099194222, "total_departures_sum": 60, "route_short_name_sum": null, "services_unique": null, "total_departures_unique": null, "route_short_name_unique": "Linha de Sintra" }, "geometry": { "type": "LineString", "coordinates": [ [ -9.20132, 38.74452 ], [ -9.168181, 38.736103 ], [ -9.145902, 38.71476 ] ] } },
{ "type": "Feature", "properties": { "services_sum": 2.0005557099194222, "total_departures_sum": 72, "route_short_name_sum": null, "services_unique": null, "total_departures_unique": null, "route_short_name_unique": "Linha de Sintra" }, "geometry": { "type": "LineString", "coordinates": [ [ -9.20132, 38.74452 ], [ -9.165675, 38.740433 ], [ -9.1476, 38.74485 ], [ -9.135353, 38.745743 ], [ -9.102924, 38.746603 ] ] } },
{ "type": "Feature", "properties": { "services_sum": 4.0011114198388444, "total_departures_sum": 104, "route_short_name_sum": null, "services_unique": null, "total_departures_unique": null, "route_short_name_unique": "Linha da Azambuja, Linha de Sintra" }, "geometry": { "type": "LineString", "coordinates": [ [ -9.102924, 38.746603 ], [ -9.09812, 38.767786 ] ] } },
{ "type": "Feature", "properties": { "services_sum": 3.0008335648791333, "total_departures_sum": 22, "route_short_name_sum": null, "services_unique": null, "total_departures_unique": null, "route_short_name_unique": "Linha do Sado" }, "geometry": { "type": "LineString", "coordinates": [ [ -9.080153, 38.653656 ], [ -9.071594, 38.659875 ], [ -9.059446, 38.662091 ], [ -9.045498, 38.659969 ], [ -9.028574, 38.652334 ], [ -8.997857, 38.645271 ], [ -8.956804, 38.638367 ], [ -8.91298, 38.629981 ], [ -8.891374, 38.610011 ], [ -8.872821568, 38.5718791 ], [ -8.884939, 38.530729 ] ] } },
{ "type": "Feature", "properties": { "services_sum": 1.0002778549597111, "total_departures_sum": 8, "route_short_name_sum": null, "services_unique": null, "total_departures_unique": null, "route_short_name_unique": "Linha do Sado" }, "geometry": { "type": "LineString", "coordinates": [ [ -8.884939, 38.530729 ], [ -8.886497, 38.525648 ], [ -8.849731, 38.511928 ] ] } },
{ "type": "Feature", "properties": { "services_sum": 2.0005557099194222, "total_departures_sum": 32, "route_short_name_sum": null, "services_unique": null, "total_departures_unique": null, "route_short_name_unique": "Linha da Azambuja" }, "geometry": { "type": "LineString", "coordinates": [ [ -9.120748, 38.71584 ], [ -9.102924, 38.746603 ] ] } },
{ "type": "Feature", "properties": { "services_sum": 2.0005557099194222, "total_departures_sum": 32, "route_short_name_sum": null, "services_unique": null, "total_departures_unique": null, "route_short_name_unique": "Linha da Azambuja" }, "geometry": { "type": "LineString", "coordinates": [ [ -9.09812, 38.767786 ], [ -9.099293, 38.776158 ], [ -9.099744, 38.795236 ], [ -9.095013, 38.806251 ], [ -9.081554, 38.838345 ], [ -9.06431, 38.859255 ], [ -9.034573, 38.889243 ], [ -9.011613, 38.923268 ], [ -8.986486, 38.9547 ], [ -8.964987, 38.988653 ], [ -8.954623, 39.004348 ], [ -8.928696, 39.036206 ], [ -8.902895, 39.050512 ], [ -8.867753, 39.067628 ] ] } }
]
}
