{
"type": "FeatureCollection",
"name": "TTSL_2000_shapes",
"crs": { "type": "name", "properties": { "name": "urn:ogc:def:crs:OGC:1.3:CRS84" } },
"features": [
{ "type": "Feature", "properties": { "shape_id": "009A9E-1", "route_id": "3_0", "route_short_name": "TTSL", "route_long_name": "Seixal - Cais do Sodré", "total_departures": 4, "median_headways": 3599.0, "mean_headways": 3599.0, "st_dev_headways": 0.0, "stop_count": 4, "services": 1.0002778549597111 }, "geometry": { "type": "LineString", "coordinates": [ [ -9.0958, 38.6476 ], [ -9.0978, 38.6565 ], [ -9.1455, 38.705 ] ] } },
{ "type": "Feature", "properties": { "shape_id": "009A9E-2", "route_id": "3_0", "route_short_name": "TTSL", "route_long_name": "Seixal - Cais do Sodré", "total_departures": 4, "median_headways": 3599.0, "mean_headways": 3599.0, "st_dev_headways": 0.0, "stop_count": 4, "services": 1.0002778549597111 }, "geometry": { "type": "LineString", "coordinates": [ [ -9.1455, 38.705 ], [ -9.0978, 38.6565 ], [ -9.0958, 38.6476 ] ] } },
{ "type": "Feature", "properties": { "shape_id": "5185C4-1", "route_id": "7_0", "route_short_name": "TTSL", "route_long_name": "Barreiro - Terreiro do Paço", "total_departures": 5, "median_headways": 3599.0, "mean_headways": 3149.0, "st_dev_headways": 899.5, "stop_count": 4, "services": 1.1432200698634487 }, "geometry": { "type": "LineString", "coordinates": [ [ -9.0784, 38.6518 ], [ -9.0845, 38.6504 ], [ -9.095, 38.655 ], [ -9.1336, 38.707 ] ] } },
{ "type": "Feature", "properties": { "shape_id": "5185C4-2", "route_id": "7_0", "route_short_name": "TTSL", "route_long_name": "Barreiro - Terreiro do Paço", "total_departures": 5, "median_headways": 3599.0, "mean_headways": 3149.0, "st_dev_headways": 899.5, "stop_count": 4, "services": 1.1432200698634487 }, "geometry": { "type": "LineString", "coordinates": [ [ -9.1336, 38.707 ], [ -9.095, 38.655 ], [ -9.0845, 38.6504 ], [ -9.0784, 38.6518 ] ] } },
{ "type": "Feature", "properties": { "shape_id": "E6126C-1", "route_id": "1_0", "route_short_name": "TTSL", "route_long_name": "Montijo - Cais do Sodré", "total_departures": 4, "median_headways": 3599.0, "mean_headways": 3599.0, "st_dev_headways": 0.0, "stop_count": 4, "services": 1.0002778549597111 }, "geometry": { "type": "LineString", "coordinates": [ [ -9.006, 38.7002 ], [ -9.05, 38.686 ], [ -9.1455, 38.705 ] ] } },
{ "type": "Feature", "properties": { "shape_id": "E6126C-2", "route_id": "1_0", "route_short_name": "TTSL", "route_long_name": "Montijo - Cais do Sodré", "total_departures": 4, "median_headways": 3599.0, "mean_headways": 3599.0, "st_dev_headways": 0.0, "stop_count": 4, "services": 1.0002778549597111 }, "geometry": { "type": "LineString", "coordinates": [ [ -9.1455, 38.705 ], [ -9.05, 38.686 ], [ -9.006, 38.7002 ] ] } },
{ "type": "Feature", "properties": { "shape_id": "ED7402-1", "route_id": "9_0", "route_short_name": "TTSL", "route_long_name": "Trafaria - Porto Brandão - Belém", "total_departures": 3, "median_headways": 3599.0, "mean_headways": 3599.0, "st_dev_headways": 0.0, "stop_count": 3, "services": 1.0002778549597111 }, "geometry": { "type": "LineString", "coordinates": [ [ -9.1985, 38.6949 ], [ -9.2067, 38.6779 ], [ -9.209, 38.679 ], [ -9.229, 38.676 ], [ -9.231, 38.6742 ] ] } },
{ "type": "Feature", "properties": { "shape_id": "FAB900-1", "route_id": "5_0", "route_short_name": "TTSL", "route_long_name": "Cacilhas - Cais do Sodré", "total_departures": 10, "median_headways": 1500.0, "mean_headways": 1500.0, "st_dev_headways": 346.41, "stop_count": 4, "services": 2.4 }, "geometry": { "type": "LineString", "coordinates": [ [ -9.148, 38.688 ], [ -9.1455, 38.705 ] ] } },
{ "type": "Feature", "properties": { "shape_id": "FAB900-2", "route_id": "5_0", "route_short_name": "TTSL", "route_long_name": "Cacilhas - Cais do Sodré", "total_departures": 10, "median_headways": 1500.0, "mean_headways": 1500.0, "st_dev_headways": 346.41, "stop_count": 4, "services": 2.4 }, "geometry": { "type": "LineString", "coordinates": [ [ -9.1455, 38.705 ], [ -9.148, 38.688 ] ] } }
]
}
