{
"type": "FeatureCollection",
"name": "MTS_0200_shapes",
"crs": { "type": "name", "properties": { "name": "urn:ogc:def:crs:OGC:1.3:CRS84" } },
"features": [
{ "type": "Feature", "properties": { "shape_id": "shp_3_0_0", "route_id": "3_0", "route_short_name": "3", "route_long_name": "Cacilhas - Universidade", "total_departures": 5, "median_headways": 3599.0, "mean_headways": 3599.0, "st_dev_headways": 0.0, "stop_count": 5, "services": 1.0002778549597111 }, "geometry": { "type": "LineString", "coordinates": [ [ -9.207174, 38.663639 ], [ -9.206854, 38.663641 ], [ -9.206834, 38.663642 ], [ -9.206515, 38.663646 ], [ -9.206361, 38.663648 ], [ -9.205505, 38.663655 ], [ -9.205163, 38.663662 ], [ -9.205111, 38.663664 ], [ -9.205064, 38.663667 ], [ -9.205019, 38.66367 ], [ -9.204978, 38.663674 ], [ -9.204962, 38.663676 ], [ -9.204935, 38.663679 ], [ -9.204918, 38.663681 ], [ -9.204904, 38.663683 ], [ -9.204869, 38.663687 ], [ -9.204857, 38.663689 ], [ -9.204797, 38.663698 ], [ -9.204773, 38.663703 ], [ -9.204735, 38.663709 ], [ -9.204717, 38.663713 ], [ -9.204686, 38.663719 ], [ -9.204297, 38.6638 ], [ -9.204267, 38.663807 ], [ -9.204211, 38.663819 ], [ -9.204066, 38.663851 ], [ -9.204026, 38.66386 ], [ -9.202691, 38.664149 ], [ -9.202617, 38.664163 ], [ -9.202522, 38.664182 ], [ -9.202196, 38.664243 ], [ -9.201155, 38.664412 ], [ -9.200757, 38.664475 ], [ -9.200652, 38.664492 ], [ -9.200291, 38.66455 ], [ -9.199953, 38.664613 ], [ -9.199407, 38.664702 ], [ -9.19894, 38.664773 ], [ -9.198379, 38.664863 ], [ -9.198158, 38.664896 ], [ -9.197998, 38.664917 ], [ -9.197827, 38.664936 ], [ -9.197663, 38.664946 ], [ -9.197505, 38.664951 ], [ -9.197382, 38.664955 ], [ -9.197333, 38.664957 ], [ -9.196921, 38.664972 ], [ -9.196778, 38.664977 ], [ -9.196589, 38.664988 ], [ -9.196419, 38.66502 ], [ -9.19622, 38.665072 ], [ -9.196048, 38.665133 ], [ -9.19588, 38.665215 ], [ -9.195693, 38.665303 ], [ -9.195571, 38.665363 ], [ -9.195457, 38.665412 ], [ -9.195271, 38.665459 ], [ -9.195102, 38.665489 ], [ -9.194889, 38.665502 ], [ -9.194339, 38.665531 ], [ -9.193994, 38.66555 ], [ -9.19353, 38.665575 ], [ -9.193452, 38.665575 ], [ -9.193388, 38.665564 ], [ -9.193326, 38.66555 ], [ -9.193264, 38.665524 ], [ -9.193213, 38.665499 ], [ -9.193149, 38.665447 ], [ -9.193093, 38.665372 ], [ -9.192454, 38.664391 ], [ -9.192379, 38.664287 ], [ -9.192315, 38.664213 ], [ -9.192237, 38.664153 ], [ -9.19217, 38.664117 ], [ -9.192092, 38.664086 ], [ -9.191929, 38.664058 ], [ -9.191794, 38.664058 ], [ -9.191577, 38.664075 ], [ -9.191408, 38.664086 ], [ -9.191255, 38.664079 ], [ -9.191156, 38.664075 ], [ -9.191091, 38.664067 ], [ -9.190692, 38.664015 ], [ -9.190349, 38.663967 ], [ -9.190011, 38.663922 ], [ -9.188789, 38.663755 ], [ -9.188655, 38.663741 ], [ -9.1884, 38.663722 ], [ -9.188151, 38.663711 ], [ -9.187837, 38.663705 ], [ -9.187545, 38.66372 ], [ -9.187328, 38.663749 ], [ -9.187129, 38.663803 ], [ -9.186974, 38.663856 ], [ -9.186654, 38.663994 ], [ -9.186249, 38.664184 ], [ -9.186167, 38.66422 ], [ -9.186101, 38.664246 ], [ -9.186004, 38.664276 ], [ -9.185946, 38.664288 ], [ -9.185904, 38.664291 ], [ -9.185869, 38.664295 ], [ -9.185819, 38.664296 ], [ -9.18575, 38.664292 ], [ -9.185692, 38.664282 ], [ -9.185641, 38.664271 ], [ -9.185589, 38.664259 ], [ -9.185284, 38.664201 ], [ -9.184957, 38.664126 ], [ -9.184849, 38.664109 ], [ -9.184777, 38.664103 ], [ -9.18468, 38.664113 ], [ -9.184624, 38.664126 ], [ -9.184542, 38.664167 ], [ -9.184364, 38.664265 ], [ -9.183948, 38.664515 ], [ -9.183801, 38.664595 ], [ -9.183637, 38.66467 ], [ -9.182848, 38.665012 ], [ -9.182569, 38.665137 ], [ -9.182299, 38.665269 ], [ -9.182146, 38.665345 ], [ -9.181944, 38.665435 ], [ -9.180823, 38.665921 ], [ -9.180732, 38.665956 ], [ -9.180627, 38.66599 ], [ -9.180515, 38.666017 ], [ -9.180344, 38.666089 ], [ -9.179997, 38.666239 ], [ -9.179653, 38.666386 ], [ -9.179241, 38.66656 ], [ -9.17801, 38.667086 ], [ -9.177532, 38.667294 ], [ -9.17717, 38.667447 ], [ -9.176915, 38.667577 ], [ -9.176789, 38.667659 ], [ -9.176591, 38.667829 ], [ -9.176454, 38.667969 ], [ -9.176325, 38.668082 ], [ -9.176253, 38.668126 ], [ -9.176183, 38.668159 ], [ -9.176119, 38.668176 ], [ -9.176044, 38.668178 ], [ -9.175966, 38.66817 ], [ -9.175861, 38.668151 ], [ -9.175738, 38.668122 ], [ -9.175641, 38.668101 ], [ -9.175526, 38.668076 ], [ -9.17544, 38.668062 ], [ -9.175341, 38.668062 ], [ -9.175297, 38.668063 ], [ -9.175266, 38.668067 ], [ -9.175216, 38.668072 ], [ -9.175099, 38.66809 ], [ -9.174398, 38.668229 ], [ -9.170485, 38.668917 ], [ -9.170438, 38.668925 ], [ -9.170153, 38.668964 ], [ -9.169824, 38.669034 ], [ -9.169739, 38.669054 ], [ -9.169675, 38.669073 ], [ -9.169605, 38.669099 ], [ -9.169542, 38.669129 ], [ -9.169456, 38.669175 ], [ -9.169268, 38.669288 ], [ -9.168661, 38.669653 ], [ -9.168519, 38.669744 ], [ -9.168247, 38.669938 ], [ -9.167847, 38.670253 ], [ -9.167804, 38.670291 ], [ -9.16777, 38.670327 ], [ -9.167721, 38.670375 ], [ -9.167686, 38.67044 ], [ -9.16766, 38.670519 ], [ -9.167595, 38.670908 ], [ -9.167571, 38.671016 ], [ -9.167542, 38.671108 ], [ -9.167502, 38.671185 ], [ -9.167451, 38.671244 ], [ -9.166888, 38.671886 ], [ -9.166747, 38.672046 ], [ -9.166635, 38.672172 ], [ -9.166613, 38.672211 ], [ -9.166597, 38.672253 ], [ -9.166581, 38.672322 ], [ -9.166657, 38.672623 ], [ -9.166676, 38.672754 ], [ -9.166686, 38.672873 ], [ -9.166686, 38.673023 ], [ -9.166678, 38.673191 ], [ -9.166659, 38.673336 ], [ -9.166635, 38.67347 ], [ -9.166611, 38.67357 ], [ -9.166568, 38.673715 ], [ -9.166472, 38.673975 ], [ -9.166343, 38.674245 ], [ -9.166247, 38.674391 ], [ -9.166143, 38.674544 ], [ -9.165272, 38.675836 ], [ -9.16522, 38.675909 ], [ -9.165165, 38.675984 ], [ -9.165146, 38.676006 ], [ -9.165121, 38.676036 ], [ -9.165095, 38.676068 ], [ -9.165067, 38.676104 ], [ -9.164977, 38.676197 ], [ -9.164895, 38.676265 ], [ -9.164828, 38.676319 ], [ -9.164801, 38.67634 ], [ -9.164767, 38.676367 ], [ -9.164653, 38.676444 ], [ -9.164587, 38.676485 ], [ -9.164303, 38.676655 ], [ -9.164019, 38.676825 ], [ -9.163926, 38.676879 ], [ -9.163838, 38.676924 ], [ -9.16378, 38.676951 ], [ -9.162711, 38.677407 ], [ -9.16185, 38.677774 ], [ -9.160613, 38.678293 ], [ -9.159298, 38.678825 ], [ -9.15927, 38.678835 ], [ -9.159034, 38.678933 ], [ -9.158135, 38.679295 ], [ -9.157989, 38.679354 ], [ -9.157906, 38.679388 ], [ -9.157626, 38.679501 ], [ -9.157296, 38.679636 ], [ -9.157225, 38.679665 ], [ -9.156372, 38.680027 ], [ -9.156073, 38.680197 ], [ -9.15604, 38.680216 ], [ -9.155692, 38.680414 ], [ -9.155647, 38.680439 ], [ -9.154189, 38.681268 ], [ -9.153595, 38.681609 ], [ -9.15323, 38.681829 ], [ -9.153034, 38.681951 ], [ -9.152846, 38.682072 ], [ -9.152635, 38.682244 ], [ -9.152565, 38.682299 ], [ -9.152535, 38.682321 ], [ -9.152293, 38.682509 ], [ -9.15205, 38.682696 ], [ -9.152017, 38.682722 ], [ -9.152008, 38.682729 ], [ -9.151964, 38.682763 ], [ -9.151511, 38.683087 ], [ -9.151261, 38.683284 ], [ -9.151063, 38.683439 ], [ -9.150498, 38.683872 ], [ -9.150197, 38.68408 ], [ -9.149968, 38.684221 ], [ -9.149713, 38.684367 ], [ -9.149395, 38.684516 ], [ -9.149222, 38.684608 ], [ -9.148881, 38.684731 ], [ -9.14853, 38.68483 ], [ -9.148351, 38.684871 ], [ -9.147986, 38.684934 ], [ -9.147276, 38.685007 ], [ -9.147184, 38.685015 ], [ -9.147112, 38.685023 ], [ -9.147052, 38.685028 ], [ -9.147016, 38.685032 ], [ -9.146988, 38.685035 ], [ -9.146897, 38.685072 ], [ -9.146832, 38.68512 ], [ -9.146792, 38.685191 ], [ -9.146775, 38.685248 ], [ -9.146762, 38.68533 ], [ -9.146758, 38.685353 ], [ -9.146749, 38.68547 ], [ -9.146748, 38.685493 ], [ -9.146754, 38.685648 ], [ -9.146781, 38.685769 ], [ -9.146825, 38.685893 ], [ -9.146891, 38.686027 ], [ -9.146955, 38.686115 ], [ -9.147269, 38.686613 ], [ -9.147302, 38.686663 ], [ -9.147325, 38.686706 ], [ -9.147338, 38.68674 ], [ -9.147346, 38.686774 ], [ -9.147348, 38.686809 ], [ -9.147354, 38.686884 ], [ -9.147361, 38.686968 ], [ -9.147381, 38.68722 ], [ -9.147405, 38.68755 ], [ -9.147416, 38.687701 ], [ -9.147419, 38.687739 ] ] } },
{ "type": "Feature", "properties": { "shape_id": "shp_3_0_1", "route_id": "3_0", "route_short_name": "3", "route_long_name": "Cacilhas - Universidade", "total_departures": 5, "median_headways": 3599.0, "mean_headways": 3599.0, "st_dev_headways": 0.0, "stop_count": 5, "services": 1.0002778549597111 }, "geometry": { "type": "LineString", "coordinates": [ [ -9.207173, 38.663606 ], [ -9.206854, 38.663609 ], [ -9.206834, 38.663609 ], [ -9.20668, 38.663611 ], [ -9.206198, 38.663614 ], [ -9.205505, 38.663622 ], [ -9.205162, 38.663627 ], [ -9.205108, 38.663629 ], [ -9.205061, 38.663632 ], [ -9.205014, 38.663636 ], [ -9.204955, 38.663642 ], [ -9.204918, 38.663646 ], [ -9.204898, 38.663648 ], [ -9.204877, 38.663651 ], [ -9.204864, 38.663653 ], [ -9.204849, 38.663655 ], [ -9.204813, 38.66366 ], [ -9.204787, 38.663664 ], [ -9.204763, 38.663669 ], [ -9.204724, 38.663676 ], [ -9.204707, 38.663679 ], [ -9.204677, 38.663685 ], [ -9.204284, 38.663769 ], [ -9.204254, 38.663776 ], [ -9.204199, 38.663788 ], [ -9.204055, 38.663821 ], [ -9.20401, 38.663831 ], [ -9.202681, 38.664119 ], [ -9.202608, 38.664133 ], [ -9.202513, 38.664152 ], [ -9.202187, 38.664213 ], [ -9.20114, 38.664379 ], [ -9.200749, 38.664442 ], [ -9.200643, 38.66446 ], [ -9.200282, 38.664519 ], [ -9.199945, 38.664582 ], [ -9.199399, 38.66467 ], [ -9.198931, 38.664741 ], [ -9.198371, 38.664831 ], [ -9.198151, 38.664864 ], [ -9.197992, 38.664885 ], [ -9.197822, 38.664904 ], [ -9.197661, 38.664914 ], [ -9.197503, 38.664919 ], [ -9.19738, 38.664922 ], [ -9.197327, 38.664924 ], [ -9.196923, 38.664937 ], [ -9.19677, 38.664941 ], [ -9.196582, 38.664951 ], [ -9.196405, 38.664983 ], [ -9.196202, 38.665037 ], [ -9.196025, 38.665099 ], [ -9.195854, 38.665182 ], [ -9.195668, 38.66527 ], [ -9.195546, 38.66533 ], [ -9.195438, 38.665376 ], [ -9.195258, 38.665423 ], [ -9.195094, 38.665451 ], [ -9.194885, 38.665464 ], [ -9.194336, 38.665493 ], [ -9.193991, 38.665512 ], [ -9.193528, 38.665537 ], [ -9.193457, 38.665537 ], [ -9.1934, 38.665527 ], [ -9.193345, 38.665514 ], [ -9.193289, 38.665491 ], [ -9.193244, 38.66547 ], [ -9.193188, 38.665424 ], [ -9.193133, 38.665357 ], [ -9.192421, 38.664267 ], [ -9.192352, 38.664189 ], [ -9.192268, 38.664123 ], [ -9.192195, 38.664084 ], [ -9.192109, 38.66405 ], [ -9.192023, 38.664035 ], [ -9.191934, 38.66402 ], [ -9.191796, 38.664027 ], [ -9.191574, 38.664044 ], [ -9.191403, 38.66405 ], [ -9.191275, 38.66405 ], [ -9.191192, 38.664045 ], [ -9.191114, 38.66404 ], [ -9.190699, 38.663983 ], [ -9.190357, 38.663936 ], [ -9.190017, 38.663891 ], [ -9.188797, 38.663717 ], [ -9.188661, 38.663702 ], [ -9.188404, 38.663683 ], [ -9.188153, 38.663672 ], [ -9.187836, 38.663666 ], [ -9.187539, 38.663681 ], [ -9.187315, 38.663711 ], [ -9.187111, 38.663767 ], [ -9.186952, 38.663821 ], [ -9.18663, 38.66396 ], [ -9.186234, 38.664155 ], [ -9.186137, 38.664198 ], [ -9.186066, 38.664223 ], [ -9.185992, 38.664243 ], [ -9.1859, 38.664258 ], [ -9.185867, 38.66426 ], [ -9.185855, 38.66426 ], [ -9.185812, 38.664261 ], [ -9.185743, 38.664257 ], [ -9.185667, 38.664245 ], [ -9.185609, 38.664231 ], [ -9.185297, 38.664164 ], [ -9.184967, 38.66409 ], [ -9.18488, 38.664076 ], [ -9.184799, 38.664066 ], [ -9.184718, 38.664068 ], [ -9.184627, 38.664086 ], [ -9.184534, 38.664134 ], [ -9.184344, 38.664237 ], [ -9.184026, 38.664426 ], [ -9.183903, 38.664504 ], [ -9.183795, 38.66456 ], [ -9.183648, 38.664629 ], [ -9.183331, 38.664768 ], [ -9.182583, 38.665088 ], [ -9.182148, 38.665279 ], [ -9.18187, 38.665394 ], [ -9.18077, 38.665869 ], [ -9.180483, 38.665995 ], [ -9.180326, 38.666061 ], [ -9.179967, 38.666216 ], [ -9.179634, 38.666359 ], [ -9.179405, 38.666455 ], [ -9.179222, 38.666533 ], [ -9.177991, 38.667059 ], [ -9.177513, 38.667267 ], [ -9.17715, 38.667421 ], [ -9.176892, 38.667552 ], [ -9.176762, 38.667636 ], [ -9.17656, 38.667809 ], [ -9.176423, 38.667949 ], [ -9.176298, 38.668059 ], [ -9.17623, 38.6681 ], [ -9.176166, 38.668131 ], [ -9.176112, 38.668145 ], [ -9.176046, 38.668147 ], [ -9.175973, 38.668139 ], [ -9.175872, 38.668121 ], [ -9.175749, 38.668092 ], [ -9.175652, 38.668071 ], [ -9.175535, 38.668045 ], [ -9.175444, 38.668031 ], [ -9.17534, 38.668031 ], [ -9.175295, 38.668032 ], [ -9.175242, 38.668036 ], [ -9.175192, 38.668042 ], [ -9.17515, 38.668049 ], [ -9.17509, 38.66806 ], [ -9.174389, 38.668197 ], [ -9.170477, 38.668885 ], [ -9.170429, 38.668894 ], [ -9.170144, 38.668936 ], [ -9.169816, 38.669001 ], [ -9.169722, 38.669022 ], [ -9.169648, 38.669044 ], [ -9.169586, 38.669067 ], [ -9.169519, 38.6691 ], [ -9.169459, 38.669127 ], [ -9.169246, 38.669261 ], [ -9.169018, 38.669397 ], [ -9.168653, 38.669615 ], [ -9.168489, 38.669718 ], [ -9.168219, 38.669911 ], [ -9.167794, 38.670246 ], [ -9.167754, 38.670281 ], [ -9.167729, 38.670308 ], [ -9.167684, 38.670361 ], [ -9.167647, 38.670429 ], [ -9.167619, 38.670513 ], [ -9.167554, 38.670904 ], [ -9.167531, 38.671009 ], [ -9.167502, 38.671098 ], [ -9.167467, 38.671175 ], [ -9.167417, 38.671226 ], [ -9.166855, 38.671869 ], [ -9.166714, 38.672028 ], [ -9.166599, 38.672157 ], [ -9.16658, 38.672191 ], [ -9.16656, 38.672243 ], [ -9.166534, 38.672318 ], [ -9.166539, 38.672372 ], [ -9.166603, 38.672631 ], [ -9.166608, 38.672758 ], [ -9.166607, 38.67288 ], [ -9.166594, 38.673021 ], [ -9.166585, 38.673186 ], [ -9.166567, 38.673327 ], [ -9.166543, 38.673458 ], [ -9.16652, 38.673556 ], [ -9.166491, 38.673699 ], [ -9.166421, 38.67392 ], [ -9.166332, 38.674147 ], [ -9.166206, 38.674383 ], [ -9.166116, 38.674533 ], [ -9.165182, 38.675886 ], [ -9.165156, 38.67592 ], [ -9.165129, 38.675952 ], [ -9.165105, 38.675979 ], [ -9.165078, 38.676008 ], [ -9.165051, 38.676037 ], [ -9.165004, 38.676086 ], [ -9.164947, 38.676137 ], [ -9.164889, 38.676187 ], [ -9.164835, 38.676233 ], [ -9.164774, 38.676274 ], [ -9.164739, 38.676298 ], [ -9.164705, 38.676321 ], [ -9.164625, 38.676371 ], [ -9.164532, 38.676428 ], [ -9.164248, 38.676599 ], [ -9.163963, 38.676769 ], [ -9.163775, 38.676882 ], [ -9.163613, 38.676973 ], [ -9.163543, 38.677009 ], [ -9.163418, 38.677068 ], [ -9.162696, 38.677376 ], [ -9.161831, 38.677744 ], [ -9.160593, 38.678264 ], [ -9.15931, 38.678783 ], [ -9.159216, 38.678821 ], [ -9.159015, 38.678903 ], [ -9.158117, 38.679266 ], [ -9.157953, 38.679332 ], [ -9.157887, 38.679358 ], [ -9.157606, 38.679473 ], [ -9.157277, 38.679606 ], [ -9.157208, 38.679634 ], [ -9.156353, 38.680003 ], [ -9.156051, 38.680175 ], [ -9.156018, 38.680194 ], [ -9.155673, 38.680392 ], [ -9.155626, 38.680419 ], [ -9.154173, 38.681247 ], [ -9.15357, 38.681597 ], [ -9.153192, 38.681814 ], [ -9.152999, 38.68193 ], [ -9.152809, 38.682055 ], [ -9.152606, 38.68222 ], [ -9.152536, 38.682274 ], [ -9.152506, 38.682298 ], [ -9.152264, 38.682485 ], [ -9.152021, 38.682672 ], [ -9.151989, 38.682697 ], [ -9.151978, 38.682706 ], [ -9.151934, 38.68274 ], [ -9.151483, 38.683066 ], [ -9.151234, 38.683261 ], [ -9.151036, 38.683417 ], [ -9.150471, 38.68385 ], [ -9.150172, 38.684056 ], [ -9.149944, 38.684196 ], [ -9.149692, 38.684341 ], [ -9.149376, 38.684489 ], [ -9.149074, 38.68462 ], [ -9.148814, 38.684707 ], [ -9.148556, 38.684781 ], [ -9.148267, 38.684843 ], [ -9.148001, 38.684887 ], [ -9.147584, 38.684933 ], [ -9.14726, 38.684966 ], [ -9.147176, 38.684973 ], [ -9.147107, 38.684981 ], [ -9.147094, 38.684982 ], [ -9.147052, 38.684988 ], [ -9.147014, 38.684996 ], [ -9.146973, 38.685005 ], [ -9.146873, 38.685046 ], [ -9.146797, 38.685101 ], [ -9.146752, 38.685181 ], [ -9.146735, 38.685243 ], [ -9.146729, 38.685317 ], [ -9.146726, 38.685346 ], [ -9.146717, 38.685467 ], [ -9.146714, 38.685531 ], [ -9.146716, 38.68564 ], [ -9.146732, 38.685757 ], [ -9.146762, 38.685866 ], [ -9.146816, 38.685977 ], [ -9.147058, 38.68635 ], [ -9.147096, 38.686412 ], [ -9.147228, 38.686621 ], [ -9.147256, 38.686665 ], [ -9.147276, 38.686706 ], [ -9.147292, 38.686747 ], [ -9.147303, 38.686785 ], [ -9.147308, 38.686827 ], [ -9.147312, 38.686883 ], [ -9.147319, 38.686969 ], [ -9.147338, 38.687222 ], [ -9.147362, 38.687551 ], [ -9.147373, 38.687702 ], [ -9.147375, 38.687742 ] ] } }
]
}
