{
"type": "FeatureCollection",
"name": "CP_0200_shapes_aggregated",
"crs": { "type": "name", "properties": { "name": "urn:ogc:def:crs:OGC:1.3:CRS84" } },
"features": [
{ "type": "Feature", "properties": { "services_sum": 1.0002778549597111, "total_departures_sum": 10, "route_short_name_sum": null, "services_unique": null, "total_departures_unique": null, "route_short_name_unique": "Linha de Cascais" }, "geometry": { "type": "LineString", "coordinates": [ [ -9.319014, 38.688613 ], [ -9.311547, 38.68679 ], [ -9.28876, 38.696672 ], [ -9.274441, 38.698888 ], [ -9.252189, 38.69992 ], [ -9.229237, 38.698345 ], [ -9.196767, 38.695876 ], [ -9.172074, 38.70194 ], [ -9.155324, 38.706252 ], [ -9.144381, 38.705907 ] ] } },
{ "type": "Feature", "properties": { "services_sum": 2.0005557099194222, "total_departures_sum": 9, "route_short_name_sum": null, "services_unique": null, "total_departures_unique": null, "route_short_name_unique": "R" }, "geometry": { "type": "LineString", "coordinates": [ [ -9.120748, 38.71584 ], [ -9.102924, 38.746603 ], [ -9.09812, 38.767786 ], [ -9.099293, 38.776158 ], [ -9.099744, 38.795236 ], [ -9.095013, 38.806251 ], [ -9.081554, 38.838345 ], [ -9.06431, 38.859255 ], [ -9.034573, 38.889243 ], [ -9.011613, 38.923268 ], [ -8.986486, 38.9547 ], [ -8.964987, 38.988653 ], [ -8.954623, 39.004348 ], [ -8.928696, 39.036206 ], [ -8.902895, 39.050512 ], [ -8.867753, 39.067628 ], [ -8.829948, 39.085841 ], [ -8.794143, 39.098985 ], [ -8.778726, 39.11299 ], [ -8.759176, 39.144254 ], [ -8.723897, 39.186727 ], [ -8.675246, 39.241918 ], [ -8.630012, 39.313766 ], [ -8.554832, 39.367985 ], [ -8.50491, 39.431893 ], [ -8.47418, 39.461597 ] ] } },
{ "type": "Feature", "properties": { "services_sum": 1.0002778549597111, "total_departures_sum": 8, "route_short_name_sum": null, "services_unique": null, "total_departures_unique": null, "route_short_name_unique": "R" }, "geometry": { "type": "LineString", "coordinates": [ [ -8.585514, 41.149622 ], [ -8.607398, 41.133494 ], [ -8.620228, 41.130042 ], [ -8.63338, 41.12454 ], [ -8.637802, 41.111956 ], [ -8.631937, 41.099548 ], [ -8.647336, 41.08156 ], [ -8.649591, 41.067854 ], [ -8.65143, 41.050808 ], [ -8.647355, 41.039233 ], [ -8.644485, 41.006195 ], [ -8.63722, 40.976935 ], [ -8.63551, 40.963073 ], [ -8.616855, 40.864496 ], [ -8.584501, 40.807137 ], [ -8.575636, 40.751209 ], [ -8.59661, 40.685815 ], [ -8.639841, 40.64528 ], [ -8.49931, 40.510692 ], [ -8.459521, 40.450742 ], [ -8.453875, 40.376285 ], [ -8.42954, 40.336114 ], [ -8.440468, 40.224364 ], [ -8.634473, 40.165366 ], [ -8.637739, 40.060011 ], [ -8.63056, 39.91774 ], [ -8.549498, 39.717054 ], [ -8.49343, 39.653869 ], [ -8.46903, 39.52886 ], [ -8.47418, 39.461597 ] ] } },
{ "type": "Feature", "properties": { "services_sum": 2.0005557099194222, "total_departures_sum": 9, "route_short_name_sum": null, "services_unique": null, "total_departures_unique": null, "route_short_name_unique": "Linha de Cascais" }, "geometry": { "type": "LineString", "coordinates": [ [ -9.418564, 38.700762 ], [ -9.406633, 38.703679 ], [ -9.398336, 38.702284 ], [ -9.386179, 38.701016 ], [ -9.370434, 38.696124 ], [ -9.356355, 38.689857 ], [ -9.337191, 38.686946 ], [ -9.319014, 38.688613 ], [ -9.311547, 38.68679 ], [ -9.28876, 38.696672 ], [ -9.274441, 38.698888 ], [ -9.252189, 38.69992 ], [ -9.229237, 38.698345 ], [ -9.196767, 38.695876 ], [ -9.172074, 38.70194 ], [ -9.155324, 38.706252 ], [ -9.144381, 38.705907 ] ] } }
]
}
