{
"type": "FeatureCollection",
"name": "CP_0100_shapes",
"crs": { "type": "name", "properties": { "name": "urn:ogc:def:crs:OGC:1.3:CRS84" } },
"features": [
{ "type": "Feature", "properties": { "shape_id": "shape-102", "route_id": "25-94_69179-94_69005", "route_short_name": "Linha de Cascais", "route_long_name": "", "total_departures": 14, "median_headways": 3599.0, "mean_headways": 3599.0, "st_dev_headways": 0.0, "stop_count": 14, "services": 1.0002778549597111 }, "geometry": { "type": "LineString", "coordinates": [ [ -9.319014, 38.688613 ], [ -9.311547, 38.68679 ], [ -9.28876, 38.696672 ], [ -9.274441, 38.698888 ], [ -9.252189, 38.69992 ], [ -9.229237, 38.698345 ], [ -9.196767, 38.695876 ], [ -9.172074, 38.70194 ], [ -9.155324, 38.706252 ], [ -9.144381, 38.705907 ] ] } },
{ "type": "Feature", "properties": { "shape_id": "shape-103", "route_id": "25-94_69005-94_69179", "route_short_name": "Linha de Cascais", "route_long_name": "", "total_departures": 20, "median_headways": 3599.0, "mean_headways": 3599.0, "st_dev_headways": 0.0, "stop_count": 20, "services": 1.0002778549597111 }, "geometry": { "type": "LineString", "coordinates": [ [ -9.144381, 38.705907 ], [ -9.155324, 38.706252 ], [ -9.172074, 38.70194 ], [ -9.196767, 38.695876 ], [ -9.229237, 38.698345 ], [ -9.252189, 38.69992 ], [ -9.274441, 38.698888 ], [ -9.28876, 38.696672 ], [ -9.311547, 38.68679 ], [ -9.319014, 38.688613 ] ] } },
{ "type": "Feature", "properties": { "shape_id": "shape-110", "route_id": "24-94_2006-94_30007", "route_short_name": "R", "route_long_name": "", "total_departures": 15, "median_headways": 3599.0, "mean_headways": 3599.0, "st_dev_headways": 0.0, "stop_count": 15, "services": 1.0002778549597111 }, "geometry": { "type": "LineString", "coordinates": [ [ -8.585514, 41.149622 ], [ -8.607398, 41.133494 ], [ -8.620228, 41.130042 ], [ -8.63338, 41.12454 ], [ -8.637802, 41.111956 ], [ -8.631937, 41.099548 ], [ -8.647336, 41.08156 ], [ -8.649591, 41.067854 ], [ -8.65143, 41.050808 ], [ -8.647355, 41.039233 ], [ -8.644485, 41.006195 ], [ -8.63722, 40.976935 ], [ -8.63551, 40.963073 ], [ -8.616855, 40.864496 ], [ -8.584501, 40.807137 ], [ -8.575636, 40.751209 ], [ -8.59661, 40.685815 ], [ -8.639841, 40.64528 ], [ -8.49931, 40.510692 ], [ -8.459521, 40.450742 ], [ -8.453875, 40.376285 ], [ -8.42954, 40.336114 ], [ -8.440468, 40.224364 ], [ -8.634473, 40.165366 ], [ -8.637739, 40.060011 ], [ -8.63056, 39.91774 ], [ -8.549498, 39.717054 ], [ -8.49343, 39.653869 ], [ -8.46903, 39.52886 ], [ -8.47418, 39.461597 ], [ -8.50491, 39.431893 ], [ -8.554832, 39.367985 ], [ -8.630012, 39.313766 ], [ -8.675246, 39.241918 ], [ -8.723897, 39.186727 ], [ -8.759176, 39.144254 ], [ -8.778726, 39.11299 ], [ -8.794143, 39.098985 ], [ -8.829948, 39.085841 ], [ -8.867753, 39.067628 ], [ -8.902895, 39.050512 ], [ -8.928696, 39.036206 ], [ -8.954623, 39.004348 ], [ -8.964987, 38.988653 ], [ -8.986486, 38.9547 ], [ -9.011613, 38.923268 ], [ -9.034573, 38.889243 ], [ -9.06431, 38.859255 ], [ -9.081554, 38.838345 ], [ -9.095013, 38.806251 ], [ -9.099744, 38.795236 ], [ -9.099293, 38.776158 ], [ -9.09812, 38.767786 ], [ -9.102924, 38.746603 ], [ -9.120748, 38.71584 ] ] } },
{ "type": "Feature", "properties": { "shape_id": "shape-136", "route_id": "24-94_30007-94_34009", "route_short_name": "R", "route_long_name": "", "total_departures": 12, "median_headways": 3599.0, "mean_headways": 3599.0, "st_dev_headways": 0.0, "stop_count": 12, "services": 1.0002778549597111 }, "geometry": { "type": "LineString", "coordinates": [ [ -9.120748, 38.71584 ], [ -9.102924, 38.746603 ], [ -9.09812, 38.767786 ], [ -9.099293, 38.776158 ], [ -9.099744, 38.795236 ], [ -9.095013, 38.806251 ], [ -9.081554, 38.838345 ], [ -9.06431, 38.859255 ], [ -9.034573, 38.889243 ], [ -9.011613, 38.923268 ], [ -8.986486, 38.9547 ], [ -8.964987, 38.988653 ], [ -8.954623, 39.004348 ], [ -8.928696, 39.036206 ], [ -8.902895, 39.050512 ], [ -8.867753, 39.067628 ], [ -8.829948, 39.085841 ], [ -8.794143, 39.098985 ], [ -8.778726, 39.11299 ], [ -8.759176, 39.144254 ], [ -8.723897, 39.186727 ], [ -8.675246, 39.241918 ], [ -8.630012, 39.313766 ], [ -8.554832, 39.367985 ], [ -8.50491, 39.431893 ], [ -8.47418, 39.461597 ] ] } },
{ "type": "Feature", "properties": { "shape_id": "shape-16", "route_id": "25-94_1008-94_29157", "route_short_name": "Linha de Braga", "route_long_name": "", "total_departures": 18, "median_headways": 3599.0, "mean_headways": 3599.0, "st_dev_headways": 0.0, "stop_count": 18, "services": 1.0002778549597111 }, "geometry": { "type": "LineString", "coordinates": [ [ -8.609592, 41.145666 ], [ -8.585514, 41.149622 ], [ -8.57565, 41.168396 ], [ -8.557312, 41.184418 ], [ -8.556505, 41.200564 ], [ -8.554252, 41.217349 ], [ -8.551783, 41.228692 ], [ -8.558154, 41.258058 ], [ -8.55453, 41.277518 ], [ -8.547626, 41.337411 ], [ -8.526658, 41.3511 ], [ -8.529737, 41.404553 ], [ -8.54431, 41.454744 ], [ -8.529178, 41.480822 ], [ -8.510734, 41.48877 ], [ -8.497693, 41.496556 ], [ -8.483078, 41.508966 ], [ -8.468178, 41.520433 ], [ -8.457616, 41.527164 ], [ -8.440553, 41.531473 ], [ -8.434642, 41.547874 ] ] } },
{ "type": "Feature", "properties": { "shape_id": "shape-173", "route_id": "22-94_30007-94_2006", "route_short_name": "IC", "route_long_name": "", "total_departures": 2, "median_headways": 3599.0, "mean_headways": 3599.0, "st_dev_headways": 0.0, "stop_count": 2, "services": 1.0002778549597111 }, "geometry": { "type": "LineString", "coordinates": [ [ -9.120748, 38.71584 ], [ -9.09812, 38.767786 ], [ -8.986486, 38.9547 ], [ -8.675246, 39.241918 ], [ -8.47418, 39.461597 ], [ -8.549498, 39.717054 ], [ -8.63056, 39.91774 ], [ -8.440468, 40.224364 ], [ -8.639841, 40.64528 ], [ -8.616855, 40.864496 ], [ -8.644485, 41.006195 ], [ -8.620228, 41.130042 ], [ -8.585514, 41.149622 ] ] } },
{ "type": "Feature", "properties": { "shape_id": "shape-31", "route_id": "25-94_1008-94_9001", "route_short_name": "Linha do Marco", "route_long_name": "", "total_departures": 12, "median_headways": 3599.0, "mean_headways": 3599.0, "st_dev_headways": 0.0, "stop_count": 12, "services": 1.0002778549597111 }, "geometry": { "type": "LineString", "coordinates": [ [ -8.609592, 41.145666 ], [ -8.585514, 41.149622 ], [ -8.57565, 41.168396 ], [ -8.557312, 41.184418 ], [ -8.556505, 41.200564 ], [ -8.554252, 41.217349 ], [ -8.501441, 41.196992 ], [ -8.487195, 41.188026 ], [ -8.398506, 41.153493 ], [ -8.353765, 41.172221 ], [ -8.32388, 41.204124 ], [ -8.29453, 41.218094 ], [ -8.258727, 41.248767 ], [ -8.226824, 41.252435 ], [ -8.18461, 41.245847 ], [ -8.155653, 41.216742 ], [ -8.136459, 41.180557 ] ] } },
{ "type": "Feature", "properties": { "shape_id": "shape-57", "route_id": "25-94_1008-94_38000", "route_short_name": "Linha de Aveiro", "route_long_name": "", "total_departures": 2, "median_headways": 3599.0, "mean_headways": 3599.0, "st_dev_headways": 0.0, "stop_count": 2, "services": 1.0002778549597111 }, "geometry": { "type": "LineString", "coordinates": [ [ -8.609592, 41.145666 ], [ -8.585514, 41.149622 ], [ -8.607398, 41.133494 ], [ -8.620228, 41.130042 ], [ -8.63338, 41.12454 ], [ -8.637802, 41.111956 ], [ -8.631937, 41.099548 ], [ -8.647336, 41.08156 ], [ -8.649591, 41.067854 ], [ -8.65143, 41.050808 ], [ -8.647355, 41.039233 ], [ -8.644485, 41.006195 ], [ -8.640971, 40.991268 ], [ -8.63722, 40.976935 ], [ -8.63551, 40.963073 ], [ -8.63063, 40.941571 ], [ -8.62619, 40.925255 ], [ -8.616855, 40.864496 ], [ -8.601914, 40.834893 ], [ -8.584501, 40.807137 ], [ -8.575636, 40.751209 ], [ -8.566333, 40.733522 ], [ -8.564127, 40.717163 ], [ -8.59661, 40.685815 ], [ -8.639841, 40.64528 ] ] } },
{ "type": "Feature", "properties": { "shape_id": "shape-76", "route_id": "25-94_67025-94_33001", "route_short_name": "Linha da Azambuja", "route_long_name": "", "total_departures": 10, "median_headways": 3599.0, "mean_headways": 3599.0, "st_dev_headways": 0.0, "stop_count": 10, "services": 1.0002778549597111 }, "geometry": { "type": "LineString", "coordinates": [ [ -9.172849, 38.707589 ], [ -9.168181, 38.736103 ], [ -9.165675, 38.740433 ], [ -9.1476, 38.74485 ], [ -9.135353, 38.745743 ], [ -9.109318, 38.738726 ], [ -9.102924, 38.746603 ], [ -9.09812, 38.767786 ], [ -9.099293, 38.776158 ], [ -9.099744, 38.795236 ], [ -9.095013, 38.806251 ], [ -9.081554, 38.838345 ], [ -9.06431, 38.859255 ], [ -9.034573, 38.889243 ], [ -9.011613, 38.923268 ], [ -8.986486, 38.9547 ], [ -8.964987, 38.988653 ], [ -8.954623, 39.004348 ], [ -8.928696, 39.036206 ], [ -8.902895, 39.050512 ], [ -8.867753, 39.067628 ] ] } },
{ "type": "Feature", "properties": { "shape_id": "shape-78", "route_id": "25-94_31310-94_67025", "route_short_name": "Linha da Azambuja", "route_long_name": "", "total_departures": 1, "median_headways": 3599.0, "mean_headways": 3599.0, "st_dev_headways": null, "stop_count": 1, "services": 1.0002778549597111 }, "geometry": { "type": "LineString", "coordinates": [ [ -8.964987, 38.988653 ], [ -8.986486, 38.9547 ], [ -9.011613, 38.923268 ], [ -9.034573, 38.889243 ], [ -9.06431, 38.859255 ], [ -9.081554, 38.838345 ], [ -9.095013, 38.806251 ], [ -9.099744, 38.795236 ], [ -9.099293, 38.776158 ], [ -9.09812, 38.767786 ], [ -9.102924, 38.746603 ], [ -9.109318, 38.738726 ], [ -9.135353, 38.745743 ], [ -9.1476, 38.74485 ], [ -9.165675, 38.740433 ], [ -9.168181, 38.736103 ], [ -9.172849, 38.707589 ] ] } },
{ "type": "Feature", "properties": { "shape_id": "shape-79", "route_id": "25-94_36004-94_64113", "route_short_name": "U", "route_long_name": "", "total_departures": 8, "median_headways": 3599.0, "mean_headways": 3599.0, "st_dev_headways": 0.0, "stop_count": 8, "services": 1.0002778549597111 }, "geometry": { "type": "LineString", "coordinates": [ [ -8.440468, 40.224364 ], [ -8.456596, 40.214543 ], [ -8.471038, 40.209081 ], [ -8.484952, 40.204815 ], [ -8.501267, 40.205781 ], [ -8.526305, 40.192943 ], [ -8.544961, 40.192353 ], [ -8.584275, 40.186307 ], [ -8.606849, 40.17933 ], [ -8.634473, 40.165366 ], [ -8.655785, 40.160057 ], [ -8.677145, 40.139984 ], [ -8.703769, 40.139734 ], [ -8.745465, 40.129868 ], [ -8.76298, 40.119147 ], [ -8.783323, 40.127042 ], [ -8.810635, 40.140982 ], [ -8.822389, 40.145955 ], [ -8.843364, 40.148766 ] ] } },
{ "type": "Feature", "properties": { "shape_id": "shape-84", "route_id": "25-94_95000-94_68122", "route_short_name": "Linha do Sado", "route_long_name": "", "total_departures": 1, "median_headways": 3599.0, "mean_headways": 3599.0, "st_dev_headways": null, "stop_count": 1, "services": 1.0002778549597111 }, "geometry": { "type": "LineString", "coordinates": [ [ -9.080153, 38.653656 ], [ -9.071594, 38.659875 ], [ -9.059446, 38.662091 ], [ -9.045498, 38.659969 ], [ -9.028574, 38.652334 ], [ -8.997857, 38.645271 ], [ -8.956804, 38.638367 ], [ -8.91298, 38.629981 ], [ -8.891374, 38.610011 ], [ -8.872821568, 38.5718791 ], [ -8.884939, 38.530729 ] ] } },
{ "type": "Feature", "properties": { "shape_id": "shape-90", "route_id": "25-94_31039-94_61101", "route_short_name": "Linha de Sintra", "route_long_name": "", "total_departures": 28, "median_headways": 3599.0, "mean_headways": 3599.0, "st_dev_headways": 0.0, "stop_count": 28, "services": 1.0002778549597111 }, "geometry": { "type": "LineString", "coordinates": [ [ -9.09812, 38.767786 ], [ -9.102924, 38.746603 ], [ -9.135353, 38.745743 ], [ -9.1476, 38.74485 ], [ -9.165675, 38.740433 ], [ -9.20132, 38.74452 ], [ -9.213991, 38.747148 ], [ -9.223969, 38.751226 ], [ -9.234521, 38.759131 ], [ -9.254494, 38.758425 ], [ -9.263756, 38.757067 ], [ -9.2806, 38.750647 ], [ -9.296683, 38.764014 ], [ -9.320603, 38.783862 ], [ -9.328742, 38.790853 ], [ -9.338369, 38.798368 ], [ -9.370453, 38.802494 ], [ -9.379503, 38.801465 ] ] } },
{ "type": "Feature", "properties": { "shape_id": "shape-97", "route_id": "25-94_59006-94_61101", "route_short_name": "Linha de Sintra", "route_long_name": "", "total_departures": 20, "median_headways": 3599.0, "mean_headways": 3599.0, "st_dev_headways": 0.0, "stop_count": 20, "services": 1.0002778549597111 }, "geometry": { "type": "LineString", "coordinates": [ [ -9.145902, 38.71476 ], [ -9.168181, 38.736103 ], [ -9.20132, 38.74452 ], [ -9.213991, 38.747148 ], [ -9.223969, 38.751226 ], [ -9.234521, 38.759131 ], [ -9.254494, 38.758425 ], [ -9.263756, 38.757067 ], [ -9.2806, 38.750647 ], [ -9.296683, 38.764014 ], [ -9.320603, 38.783862 ], [ -9.328742, 38.790853 ], [ -9.338369, 38.798368 ], [ -9.370453, 38.802494 ], [ -9.379503, 38.801465 ] ] } },
{ "type": "Feature", "properties": { "shape_id": "shape-13", "route_id": "25-94_31039-94_61101", "route_short_name": "Linha de Sintra", "route_long_name": "", "total_departures": 28, "median_headways": 3599.0, "mean_headways": 3599.0, "st_dev_headways": 0.0, "stop_count": 28, "services": 1.0002778549597111 }, "geometry": { "type": "LineString", "coordinates": [ [ -9.09812, 38.767786 ], [ -9.102924, 38.746603 ], [ -9.135353, 38.745743 ], [ -9.1476, 38.74485 ], [ -9.165675, 38.740433 ], [ -9.20132, 38.74452 ], [ -9.213991, 38.747148 ], [ -9.223969, 38.751226 ], [ -9.234521, 38.759131 ], [ -9.254494, 38.758425 ], [ -9.263756, 38.757067 ], [ -9.2806, 38.750647 ], [ -9.296683, 38.764014 ], [ -9.320603, 38.783862 ], [ -9.328742, 38.790853 ], [ -9.338369, 38.798368 ], [ -9.370453, 38.802494 ], [ -9.379503, 38.801465 ] ] } },
{ "type": "Feature", "properties": { "shape_id": "shape-18", "route_id": "25-94_59006-94_61101", "route_short_name": "Linha de Sintra", "route_long_name": "", "total_departures": 20, "median_headways": 3599.0, "mean_headways": 3599.0, "st_dev_headways": 0.0, "stop_count": 20, "services": 1.0002778549597111 }, "geometry": { "type": "LineString", "coordinates": [ [ -9.145902, 38.71476 ], [ -9.168181, 38.736103 ], [ -9.20132, 38.74452 ], [ -9.213991, 38.747148 ], [ -9.223969, 38.751226 ], [ -9.234521, 38.759131 ], [ -9.254494, 38.758425 ], [ -9.263756, 38.757067 ], [ -9.2806, 38.750647 ], [ -9.296683, 38.764014 ], [ -9.320603, 38.783862 ], [ -9.328742, 38.790853 ], [ -9.338369, 38.798368 ], [ -9.370453, 38.802494 ], [ -9.379503, 38.801465 ] ] } },
{ "type": "Feature", "properties": { "shape_id": "shape-19", "route_id": "25-94_69260-94_69005", "route_short_name": "Linha de Cascais", "route_long_name": "", "total_departures": 34, "median_headways": 3599.0, "mean_headways": 3599.0, "st_dev_headways": 0.0, "stop_count": 34, "services": 1.0002778549597111 }, "geometry": { "type": "LineString", "coordinates": [ [ -9.418564, 38.700762 ], [ -9.406633, 38.703679 ], [ -9.398336, 38.702284 ], [ -9.386179, 38.701016 ], [ -9.370434, 38.696124 ], [ -9.356355, 38.689857 ], [ -9.337191, 38.686946 ], [ -9.319014, 38.688613 ], [ -9.311547, 38.68679 ], [ -9.28876, 38.696672 ], [ -9.274441, 38.698888 ], [ -9.252189, 38.69992 ], [ -9.229237, 38.698345 ], [ -9.196767, 38.695876 ], [ -9.172074, 38.70194 ], [ -9.155324, 38.706252 ], [ -9.144381, 38.705907 ] ] } },
{ "type": "Feature", "properties": { "shape_id": "shape-20", "route_id": "25-94_69005-94_69260", "route_short_name": "Linha de Cascais", "route_long_name": "", "total_departures": 34, "median_headways": 3599.0, "mean_headways": 3599.0, "st_dev_headways": 0.0, "stop_count": 34, "services": 1.0002778549597111 }, "geometry": { "type": "LineString", "coordinates": [ [ -9.144381, 38.705907 ], [ -9.155324, 38.706252 ], [ -9.172074, 38.70194 ], [ -9.196767, 38.695876 ], [ -9.229237, 38.698345 ], [ -9.252189, 38.69992 ], [ -9.274441, 38.698888 ], [ -9.28876, 38.696672 ], [ -9.311547, 38.68679 ], [ -9.319014, 38.688613 ], [ -9.337191, 38.686946 ], [ -9.356355, 38.689857 ], [ -9.370434, 38.696124 ], [ -9.386179, 38.701016 ], [ -9.398336, 38.702284 ], [ -9.406633, 38.703679 ], [ -9.418564, 38.700762 ] ] } },
{ "type": "Feature", "properties": { "shape_id": "shape-4", "route_id": "25-94_67025-94_33001", "route_short_name": "Linha da Azambuja", "route_long_name": "", "total_departures": 10, "median_headways": 3599.0, "mean_headways": 3599.0, "st_dev_headways": 0.0, "stop_count": 10, "services": 1.0002778549597111 }, "geometry": { "type": "LineString", "coordinates": [ [ -9.172849, 38.707589 ], [ -9.168181, 38.736103 ], [ -9.165675, 38.740433 ], [ -9.1476, 38.74485 ], [ -9.135353, 38.745743 ], [ -9.109318, 38.738726 ], [ -9.102924, 38.746603 ], [ -9.09812, 38.767786 ], [ -9.099293, 38.776158 ], [ -9.099744, 38.795236 ], [ -9.095013, 38.806251 ], [ -9.081554, 38.838345 ], [ -9.06431, 38.859255 ], [ -9.034573, 38.889243 ], [ -9.011613, 38.923268 ], [ -8.986486, 38.9547 ], [ -8.964987, 38.988653 ], [ -8.954623, 39.004348 ], [ -8.928696, 39.036206 ], [ -8.902895, 39.050512 ], [ -8.867753, 39.067628 ] ] } },
{ "type": "Feature", "properties": { "shape_id": "shape-6", "route_id": "25-94_31310-94_67025", "route_short_name": "Linha da Azambuja", "route_long_name": "", "total_departures": 1, "median_headways": 3599.0, "mean_headways": 3599.0, "st_dev_headways": null, "stop_count": 1, "services": 1.0002778549597111 }, "geometry": { "type": "LineString", "coordinates": [ [ -8.964987, 38.988653 ], [ -8.986486, 38.9547 ], [ -9.011613, 38.923268 ], [ -9.034573, 38.889243 ], [ -9.06431, 38.859255 ], [ -9.081554, 38.838345 ], [ -9.095013, 38.806251 ], [ -9.099744, 38.795236 ], [ -9.099293, 38.776158 ], [ -9.09812, 38.767786 ], [ -9.102924, 38.746603 ], [ -9.109318, 38.738726 ], [ -9.135353, 38.745743 ], [ -9.1476, 38.74485 ], [ -9.165675, 38.740433 ], [ -9.168181, 38.736103 ], [ -9.172849, 38.707589 ] ] } },
{ "type": "Feature", "properties": { "shape_id": "shape-8", "route_id": "25-94_95000-94_68122", "route_short_name": "Linha do Sado", "route_long_name": "", "total_departures": 1, "median_headways": 3599.0, "mean_headways": 3599.0, "st_dev_headways": null, "stop_count": 1, "services": 1.0002778549597111 }, "geometry": { "type": "LineString", "coordinates": [ [ -9.080153, 38.653656 ], [ -9.071594, 38.659875 ], [ -9.059446, 38.662091 ], [ -9.045498, 38.659969 ], [ -9.028574, 38.652334 ], [ -8.997857, 38.645271 ], [ -8.956804, 38.638367 ], [ -8.91298, 38.629981 ], [ -8.891374, 38.610011 ], [ -8.872821568, 38.5718791 ], [ -8.884939, 38.530729 ] ] } }
]
}
