{
"type": "FeatureCollection",
"name": "CP_0400_shapes_aggregated",
"crs": { "type": "name", "properties": { "name": "urn:ogc:def:crs:OGC:1.3:CRS84" } },
"features": [
{ "type": "Feature", "properties": { "services_sum": 1.0002778549597111, "total_departures_sum": 2, "route_short_name_sum": null, "services_unique": null, "total_departures_unique": null, "route_short_name_unique": "Linha da Azambuja" }, "geometry": { "type": "LineString", "coordinates": [ [ -9.172849, 38.707589 ], [ -9.168181, 38.736103 ], [ -9.165675, 38.740433 ], [ -9.1476, 38.74485 ], [ -9.135353, 38.745743 ], [ -9.109318, 38.738726 ], [ -9.102924, 38.746603 ] ] } },
{ "type": "Feature", "properties": { "services_sum": 2.0005557099194222, "total_departures_sum": 12, "route_short_name_sum": null, "services_unique": null, "total_departures_unique": null, "route_short_name_unique": "R, Linha da Azambuja" }, "geometry": { "type": "LineString", "coordinates": [ [ -9.102924, 38.746603 ], [ -9.09812, 38.767786 ], [ -9.099293, 38.776158 ], [ -9.099744, 38.795236 ], [ -9.095013, 38.806251 ], [ -9.081554, 38.838345 ], [ -9.06431, 38.859255 ], [ -9.034573, 38.889243 ], [ -9.011613, 38.923268 ], [ -8.986486, 38.9547 ], [ -8.964987, 38.988653 ], [ -8.954623, 39.004348 ], [ -8.928696, 39.036206 ], [ -8.902895, 39.050512 ], [ -8.867753, 39.067628 ] ] } },
{ "type": "Feature", "properties": { "services_sum": 4.0011114198388444, "total_departures_sum": 36, "route_short_name_sum": null, "services_unique": null, "total_departures_unique": null, "route_short_name_unique": "Linha de Braga, Linha do Marco, Linha de Aveiro" }, "geometry": { "type": "LineString", "coordinates": [ [ -8.609592, 41.145666 ], [ -8.585514, 41.149622 ] ] } },
{ "type": "Feature", "properties": { "services_sum": 2.0005557099194222, "total_departures_sum": 13, "route_short_name_sum": null, "services_unique": null, "total_departures_unique": null, "route_short_name_unique": "R, Linha de Aveiro" }, "geometry": { "type": "LineString", "coordinates": [ [ -8.59661, 40.685815 ], [ -8.575636, 40.751209 ] ] } },
{ "type": "Feature", "properties": { "services_sum": 1.0002778549597111, "total_departures_sum": 8, "route_short_name_sum": null, "services_unique": null, "total_departures_unique": null, "route_short_name_unique": "Linha de Aveiro" }, "geometry": { "type": "LineString", "coordinates": [ [ -8.575636, 40.751209 ], [ -8.566333, 40.733522 ], [ -8.564127, 40.717163 ], [ -8.59661, 40.685815 ] ] } },
{ "type": "Feature", "properties": { "services_sum": 2.0005557099194222, "total_departures_sum": 25, "route_short_name_sum": null, "services_unique": null, "total_departures_unique": null, "route_short_name_unique": "Linha de Braga, Linha do Marco" }, "geometry": { "type": "LineString", "coordinates": [ [ -8.585514, 41.149622 ], [ -8.57565, 41.168396 ], [ -8.557312, 41.184418 ], [ -8.556505, 41.200564 ], [ -8.554252, 41.217349 ] ] } },
{ "type": "Feature", "properties": { "services_sum": 1.0002778549597111, "total_departures_sum": 11, "route_short_name_sum": null, "services_unique": null, "total_departures_unique": null, "route_short_name_unique": "Linha de Braga" }, "geometry": { "type": "LineString", "coordinates": [ [ -8.554252, 41.217349 ], [ -8.551783, 41.228692 ], [ -8.556695, 41.243532 ], [ -8.558154, 41.258058 ], [ -8.55453, 41.277518 ], [ -8.547626, 41.337411 ], [ -8.526658, 41.3511 ], [ -8.519631, 41.378218 ], [ -8.526247, 41.389633 ], [ -8.529737, 41.404553 ], [ -8.521448, 41.427715 ], [ -8.53772, 41.436725 ], [ -8.54431, 41.454744 ], [ -8.529178, 41.480822 ], [ -8.510734, 41.48877 ], [ -8.497693, 41.496556 ], [ -8.483078, 41.508966 ], [ -8.468178, 41.520433 ], [ -8.457616, 41.527164 ], [ -8.440553, 41.531473 ], [ -8.434642, 41.547874 ] ] } },
{ "type": "Feature", "properties": { "services_sum": 1.0002778549597111, "total_departures_sum": 14, "route_short_name_sum": null, "services_unique": null, "total_departures_unique": null, "route_short_name_unique": "Linha do Marco" }, "geometry": { "type": "LineString", "coordinates": [ [ -8.554252, 41.217349 ], [ -8.534696, 41.220333 ], [ -8.501441, 41.196992 ], [ -8.487195, 41.188026 ], [ -8.467475, 41.169489 ], [ -8.437955, 41.163772 ], [ -8.418665, 41.16126 ], [ -8.398506, 41.153493 ], [ -8.372769, 41.160128 ], [ -8.353765, 41.172221 ], [ -8.341793, 41.182231 ], [ -8.337417, 41.193971 ], [ -8.32388, 41.204124 ], [ -8.29453, 41.218094 ], [ -8.276784, 41.235375 ], [ -8.258727, 41.248767 ], [ -8.226824, 41.252435 ], [ -8.198543, 41.257549 ], [ -8.18461, 41.245847 ], [ -8.17469, 41.230378 ], [ -8.155653, 41.216742 ], [ -8.136459, 41.180557 ] ] } },
{ "type": "Feature", "properties": { "services_sum": 2.0005557099194222, "total_departures_sum": 13, "route_short_name_sum": null, "services_unique": null, "total_departures_unique": null, "route_short_name_unique": "R" }, "geometry": { "type": "LineString", "coordinates": [ [ -8.440468, 40.224364 ], [ -8.42954, 40.336114 ] ] } },
{ "type": "Feature", "properties": { "services_sum": 1.0002778549597111, "total_departures_sum": 3, "route_short_name_sum": null, "services_unique": null, "total_departures_unique": null, "route_short_name_unique": "R" }, "geometry": { "type": "LineString", "coordinates": [ [ -8.42954, 40.336114 ], [ -8.412127, 40.356605 ], [ -8.384955, 40.390117 ], [ -8.301539, 40.414904 ], [ -8.26441, 40.408058 ], [ -8.242916, 40.392049 ], [ -8.124422, 40.390471 ], [ -8.003401, 40.436215 ], [ -7.963255, 40.450227 ], [ -7.920019, 40.475403 ], [ -7.906675, 40.491208 ], [ -7.850099, 40.530118 ], [ -7.789304, 40.581465 ], [ -7.760263, 40.586489 ], [ -7.524762, 40.612036 ], [ -7.382368, 40.665172 ], [ -7.256178, 40.726949 ], [ -7.239816, 40.552532 ] ] } },
{ "type": "Feature", "properties": { "services_sum": 1.0002778549597111, "total_departures_sum": 10, "route_short_name_sum": null, "services_unique": null, "total_departures_unique": null, "route_short_name_unique": "R" }, "geometry": { "type": "LineString", "coordinates": [ [ -9.120748, 38.71584 ], [ -9.102924, 38.746603 ] ] } },
{ "type": "Feature", "properties": { "services_sum": 1.0002778549597111, "total_departures_sum": 10, "route_short_name_sum": null, "services_unique": null, "total_departures_unique": null, "route_short_name_unique": "R" }, "geometry": { "type": "LineString", "coordinates": [ [ -8.867753, 39.067628 ], [ -8.829948, 39.085841 ], [ -8.794143, 39.098985 ], [ -8.778726, 39.11299 ], [ -8.759176, 39.144254 ], [ -8.723897, 39.186727 ], [ -8.675246, 39.241918 ], [ -8.630012, 39.313766 ], [ -8.554832, 39.367985 ], [ -8.50491, 39.431893 ], [ -8.47418, 39.461597 ], [ -8.46903, 39.52886 ], [ -8.49343, 39.653869 ], [ -8.549498, 39.717054 ], [ -8.63056, 39.91774 ], [ -8.637739, 40.060011 ], [ -8.634473, 40.165366 ], [ -8.440468, 40.224364 ] ] } },
{ "type": "Feature", "properties": { "services_sum": 1.0002778549597111, "total_departures_sum": 10, "route_short_name_sum": null, "services_unique": null, "total_departures_unique": null, "route_short_name_unique": "R" }, "geometry": { "type": "LineString", "coordinates": [ [ -8.644485, 41.006195 ], [ -8.63722, 40.976935 ] ] } },
{ "type": "Feature", "properties": { "services_sum": 1.0002778549597111, "total_departures_sum": 10, "route_short_name_sum": null, "services_unique": null, "total_departures_unique": null, "route_short_name_unique": "R" }, "geometry": { "type": "LineString", "coordinates": [ [ -8.639841, 40.64528 ], [ -8.49931, 40.510692 ], [ -8.459521, 40.450742 ], [ -8.453875, 40.376285 ], [ -8.42954, 40.336114 ] ] } },
{ "type": "Feature", "properties": { "services_sum": 1.0002778549597111, "total_departures_sum": 10, "route_short_name_sum": null, "services_unique": null, "total_departures_unique": null, "route_short_name_unique": "R" }, "geometry": { "type": "LineString", "coordinates": [ [ -8.63551, 40.963073 ], [ -8.616855, 40.864496 ], [ -8.584501, 40.807137 ] ] } },
{ "type": "Feature", "properties": { "services_sum": 3.0008335648791333, "total_departures_sum": 21, "route_short_name_sum": null, "services_unique": null, "total_departures_unique": null, "route_short_name_unique": "R, Linha de Aveiro" }, "geometry": { "type": "LineString", "coordinates": [ [ -8.644485, 41.006195 ], [ -8.647355, 41.039233 ], [ -8.65143, 41.050808 ], [ -8.649591, 41.067854 ], [ -8.647336, 41.08156 ], [ -8.631937, 41.099548 ], [ -8.637802, 41.111956 ], [ -8.63338, 41.12454 ], [ -8.620228, 41.130042 ], [ -8.607398, 41.133494 ], [ -8.585514, 41.149622 ] ] } },
{ "type": "Feature", "properties": { "services_sum": 3.0008335648791333, "total_departures_sum": 21, "route_short_name_sum": null, "services_unique": null, "total_departures_unique": null, "route_short_name_unique": "R, Linha de Aveiro" }, "geometry": { "type": "LineString", "coordinates": [ [ -8.639841, 40.64528 ], [ -8.59661, 40.685815 ] ] } },
{ "type": "Feature", "properties": { "services_sum": 3.0008335648791333, "total_departures_sum": 21, "route_short_name_sum": null, "services_unique": null, "total_departures_unique": null, "route_short_name_unique": "R, Linha de Aveiro" }, "geometry": { "type": "LineString", "coordinates": [ [ -8.63722, 40.976935 ], [ -8.63551, 40.963073 ] ] } },
{ "type": "Feature", "properties": { "services_sum": 3.0008335648791333, "total_departures_sum": 21, "route_short_name_sum": null, "services_unique": null, "total_departures_unique": null, "route_short_name_unique": "R, Linha de Aveiro" }, "geometry": { "type": "LineString", "coordinates": [ [ -8.584501, 40.807137 ], [ -8.575636, 40.751209 ] ] } },
{ "type": "Feature", "properties": { "services_sum": 2.0005557099194222, "total_departures_sum": 11, "route_short_name_sum": null, "services_unique": null, "total_departures_unique": null, "route_short_name_unique": "Linha de Aveiro" }, "geometry": { "type": "LineString", "coordinates": [ [ -8.644485, 41.006195 ], [ -8.640971, 40.991268 ], [ -8.63722, 40.976935 ] ] } },
{ "type": "Feature", "properties": { "services_sum": 2.0005557099194222, "total_departures_sum": 11, "route_short_name_sum": null, "services_unique": null, "total_departures_unique": null, "route_short_name_unique": "Linha de Aveiro" }, "geometry": { "type": "LineString", "coordinates": [ [ -8.63551, 40.963073 ], [ -8.63063, 40.941571 ], [ -8.62619, 40.925255 ], [ -8.616855, 40.864496 ], [ -8.601914, 40.834893 ], [ -8.584501, 40.807137 ] ] } },
{ "type": "Feature", "properties": { "services_sum": 1.0002778549597111, "total_departures_sum": 2, "route_short_name_sum": null, "services_unique": null, "total_departures_unique": null, "route_short_name_unique": "Linha da Azambuja" }, "geometry": { "type": "LineString", "coordinates": [ [ -9.172849, 38.707589 ], [ -9.168181, 38.736103 ], [ -9.165675, 38.740433 ], [ -9.1476, 38.74485 ], [ -9.135353, 38.745743 ], [ -9.109318, 38.738726 ], [ -9.102924, 38.746603 ], [ -9.09812, 38.767786 ], [ -9.099293, 38.776158 ], [ -9.099744, 38.795236 ], [ -9.095013, 38.806251 ], [ -9.081554, 38.838345 ], [ -9.06431, 38.859255 ], [ -9.034573, 38.889243 ], [ -9.011613, 38.923268 ], [ -8.986486, 38.9547 ], [ -8.964987, 38.988653 ], [ -8.954623, 39.004348 ], [ -8.928696, 39.036206 ], [ -8.902895, 39.050512 ], [ -8.867753, 39.067628 ] ] } }
]
}
