{
"type": "FeatureCollection",
"name": "CP_2100_shapes",
"crs": { "type": "name", "properties": { "name": "urn:ogc:def:crs:OGC:1.3:CRS84" } },
"features": [
{ "type": "Feature", "properties": { "shape_id": "shape-10", "route_id": "25-94_1008-94_24000", "route_short_name": "Linha de Guimaraes", "route_long_name": "", "total_departures": 12, "median_headways": 3599.0, "mean_headways": 3599.0, "st_dev_headways": 0.0, "stop_count": 12, "services": 1.0002778549597111 }, "geometry": { "type": "LineString", "coordinates": [ [ -8.609592, 41.145666 ], [ -8.585514, 41.149622 ], [ -8.57565, 41.168396 ], [ -8.557312, 41.184418 ], [ -8.556505, 41.200564 ], [ -8.554252, 41.217349 ], [ -8.551783, 41.228692 ], [ -8.558154, 41.258058 ], [ -8.55453, 41.277518 ], [ -8.548562, 41.300518 ], [ -8.547626, 41.337411 ], [ -8.526658, 41.3511 ], [ -8.474432, 41.352307 ], [ -8.434793, 41.363996 ], [ -8.401931, 41.35965 ], [ -8.387125, 41.365118 ], [ -8.362271, 41.366646 ], [ -8.338249, 41.375982 ], [ -8.324351, 41.377421 ], [ -8.3134, 41.381133 ], [ -8.320148, 41.405703 ], [ -8.3009, 41.424238 ], [ -8.294142, 41.435373 ] ] } },
{ "type": "Feature", "properties": { "shape_id": "shape-102", "route_id": "25-94_69179-94_69005", "route_short_name": "Linha de Cascais", "route_long_name": "", "total_departures": 2, "median_headways": 3599.0, "mean_headways": 3599.0, "st_dev_headways": 0.0, "stop_count": 2, "services": 1.0002778549597111 }, "geometry": { "type": "LineString", "coordinates": [ [ -9.319014, 38.688613 ], [ -9.311547, 38.68679 ], [ -9.28876, 38.696672 ], [ -9.274441, 38.698888 ], [ -9.252189, 38.69992 ], [ -9.229237, 38.698345 ], [ -9.196767, 38.695876 ], [ -9.172074, 38.70194 ], [ -9.155324, 38.706252 ], [ -9.144381, 38.705907 ] ] } },
{ "type": "Feature", "properties": { "shape_id": "shape-103", "route_id": "25-94_69005-94_69179", "route_short_name": "Linha de Cascais", "route_long_name": "", "total_departures": 10, "median_headways": 3599.0, "mean_headways": 3599.0, "st_dev_headways": 0.0, "stop_count": 10, "services": 1.0002778549597111 }, "geometry": { "type": "LineString", "coordinates": [ [ -9.144381, 38.705907 ], [ -9.155324, 38.706252 ], [ -9.172074, 38.70194 ], [ -9.196767, 38.695876 ], [ -9.229237, 38.698345 ], [ -9.252189, 38.69992 ], [ -9.274441, 38.698888 ], [ -9.28876, 38.696672 ], [ -9.311547, 38.68679 ], [ -9.319014, 38.688613 ] ] } },
{ "type": "Feature", "properties": { "shape_id": "shape-113", "route_id": "22-94_36004-94_49007", "route_short_name": "IC", "route_long_name": "", "total_departures": 4, "median_headways": 3599.0, "mean_headways": 3599.0, "st_dev_headways": 0.0, "stop_count": 4, "services": 1.0002778549597111 }, "geometry": { "type": "LineString", "coordinates": [ [ -8.440468, 40.224364 ], [ -8.124422, 40.390471 ], [ -7.850099, 40.530118 ], [ -7.760263, 40.586489 ], [ -7.382368, 40.665172 ], [ -7.239816, 40.552532 ] ] } },
{ "type": "Feature", "properties": { "shape_id": "shape-119", "route_id": "24-94_6007-94_7005", "route_short_name": "R", "route_long_name": "", "total_departures": 12, "median_headways": 3599.0, "mean_headways": 3599.0, "st_dev_headways": 0.0, "stop_count": 12, "services": 1.0002778549597111 }, "geometry": { "type": "LineString", "coordinates": [ [ -8.54431, 41.454744 ], [ -8.563831, 41.486525 ], [ -8.58174, 41.507966 ], [ -8.608976, 41.536628 ], [ -8.627633, 41.565778 ], [ -8.633883, 41.584379 ], [ -8.634906, 41.608823 ], [ -8.666161, 41.638902 ], [ -8.700862, 41.646334 ], [ -8.720439, 41.64664 ], [ -8.739143, 41.648435 ], [ -8.780905, 41.679835 ], [ -8.799277, 41.684085 ], [ -8.830407, 41.696031 ], [ -8.854579, 41.718647 ], [ -8.863667, 41.751881 ], [ -8.862221, 41.778211 ], [ -8.866795, 41.816207 ], [ -8.860661, 41.852146 ], [ -8.836682, 41.873049 ], [ -8.825599, 41.877686 ], [ -8.810129, 41.901114 ], [ -8.780143, 41.915975 ], [ -8.763118, 41.91996 ], [ -8.743428, 41.946261 ], [ -8.688467, 41.984073 ], [ -8.657492, 42.002054 ], [ -8.639301, 42.024982 ] ] } },
{ "type": "Feature", "properties": { "shape_id": "shape-120", "route_id": "24-94_34009-94_2006", "route_short_name": "R", "route_long_name": "", "total_departures": 6, "median_headways": 3599.0, "mean_headways": 3599.0, "st_dev_headways": 0.0, "stop_count": 6, "services": 1.0002778549597111 }, "geometry": { "type": "LineString", "coordinates": [ [ -8.47418, 39.461597 ], [ -8.46903, 39.52886 ], [ -8.474052, 39.579993 ], [ -8.494837, 39.616321 ], [ -8.49343, 39.653869 ], [ -8.506924, 39.681805 ], [ -8.549498, 39.717054 ], [ -8.585756, 39.797526 ], [ -8.600303, 39.837771 ], [ -8.654928, 39.855065 ], [ -8.63056, 39.91774 ], [ -8.632787, 39.967185 ], [ -8.635076, 40.015981 ], [ -8.637739, 40.060011 ], [ -8.639302, 40.113586 ], [ -8.634473, 40.165366 ], [ -8.606849, 40.17933 ], [ -8.584275, 40.186307 ], [ -8.501267, 40.205781 ], [ -8.471038, 40.209081 ], [ -8.456596, 40.214543 ], [ -8.440468, 40.224364 ], [ -8.42954, 40.336114 ], [ -8.453875, 40.376285 ], [ -8.459521, 40.450742 ], [ -8.49931, 40.510692 ], [ -8.639841, 40.64528 ], [ -8.575636, 40.751209 ], [ -8.616855, 40.864496 ], [ -8.644485, 41.006195 ], [ -8.620228, 41.130042 ], [ -8.585514, 41.149622 ] ] } },
{ "type": "Feature", "properties": { "shape_id": "shape-122", "route_id": "24-94_36004-94_49007", "route_short_name": "R", "route_long_name": "", "total_departures": 6, "median_headways": 3599.0, "mean_headways": 3599.0, "st_dev_headways": 0.0, "stop_count": 6, "services": 1.0002778549597111 }, "geometry": { "type": "LineString", "coordinates": [ [ -8.440468, 40.224364 ], [ -8.242916, 40.392049 ], [ -8.124422, 40.390471 ], [ -8.003401, 40.436215 ], [ -7.850099, 40.530118 ], [ -7.760263, 40.586489 ], [ -7.382368, 40.665172 ], [ -7.239816, 40.552532 ] ] } },
{ "type": "Feature", "properties": { "shape_id": "shape-130", "route_id": "24-94_10009-94_9001", "route_short_name": "R", "route_long_name": "", "total_departures": 11, "median_headways": 3599.0, "mean_headways": 3599.0, "st_dev_headways": 0.0, "stop_count": 11, "services": 1.0002778549597111 }, "geometry": { "type": "LineString", "coordinates": [ [ -7.783341, 41.158549 ], [ -7.797256, 41.166386 ], [ -7.826361, 41.152745 ], [ -7.864992, 41.160698 ], [ -7.887497, 41.140881 ], [ -7.909651, 41.121549 ], [ -7.950097, 41.124538 ], [ -7.971898, 41.117595 ], [ -8.006622, 41.10645 ], [ -8.069127, 41.094616 ], [ -8.089943, 41.103462 ], [ -8.120754, 41.14218 ], [ -8.136459, 41.180557 ] ] } },
{ "type": "Feature", "properties": { "shape_id": "shape-134", "route_id": "24-94_40154-94_30007", "route_short_name": "R", "route_long_name": "", "total_departures": 15, "median_headways": 3599.0, "mean_headways": 3599.0, "st_dev_headways": 0.0, "stop_count": 15, "services": 1.0002778549597111 }, "geometry": { "type": "LineString", "coordinates": [ [ -8.4132, 39.598404 ], [ -8.395076, 39.570676 ], [ -8.400552, 39.550565 ], [ -8.429929, 39.547885 ], [ -8.462431, 39.548113 ], [ -8.472004, 39.542208 ], [ -8.46903, 39.52886 ], [ -8.47418, 39.461597 ], [ -8.50491, 39.431893 ], [ -8.554832, 39.367985 ], [ -8.630012, 39.313766 ], [ -8.675246, 39.241918 ], [ -8.723897, 39.186727 ], [ -8.759176, 39.144254 ], [ -8.778726, 39.11299 ], [ -8.794143, 39.098985 ], [ -8.829948, 39.085841 ], [ -8.867753, 39.067628 ], [ -8.986486, 38.9547 ], [ -9.034573, 38.889243 ], [ -9.06431, 38.859255 ], [ -9.09812, 38.767786 ], [ -9.120748, 38.71584 ] ] } },
{ "type": "Feature", "properties": { "shape_id": "shape-137", "route_id": "24-94_30007-94_40154", "route_short_name": "R", "route_long_name": "", "total_departures": 24, "median_headways": 3599.0, "mean_headways": 3599.0, "st_dev_headways": 0.0, "stop_count": 24, "services": 1.0002778549597111 }, "geometry": { "type": "LineString", "coordinates": [ [ -9.120748, 38.71584 ], [ -9.09812, 38.767786 ], [ -9.06431, 38.859255 ], [ -9.034573, 38.889243 ], [ -8.986486, 38.9547 ], [ -8.867753, 39.067628 ], [ -8.829948, 39.085841 ], [ -8.794143, 39.098985 ], [ -8.778726, 39.11299 ], [ -8.759176, 39.144254 ], [ -8.723897, 39.186727 ], [ -8.675246, 39.241918 ], [ -8.630012, 39.313766 ], [ -8.554832, 39.367985 ], [ -8.50491, 39.431893 ], [ -8.47418, 39.461597 ], [ -8.46903, 39.52886 ], [ -8.472004, 39.542208 ], [ -8.462431, 39.548113 ], [ -8.429929, 39.547885 ], [ -8.400552, 39.550565 ], [ -8.395076, 39.570676 ], [ -8.4132, 39.598404 ] ] } },
{ "type": "Feature", "properties": { "shape_id": "shape-141", "route_id": "24-94_34009-94_30007", "route_short_name": "R", "route_long_name": "", "total_departures": 1, "median_headways": 3599.0, "mean_headways": 3599.0, "st_dev_headways": null, "stop_count": 1, "services": 1.0002778549597111 }, "geometry": { "type": "LineString", "coordinates": [ [ -8.47418, 39.461597 ], [ -8.675246, 39.241918 ], [ -8.778726, 39.11299 ], [ -8.794143, 39.098985 ], [ -8.829948, 39.085841 ], [ -8.867753, 39.067628 ], [ -8.986486, 38.9547 ], [ -9.034573, 38.889243 ], [ -9.06431, 38.859255 ], [ -9.09812, 38.767786 ], [ -9.120748, 38.71584 ] ] } },
{ "type": "Feature", "properties": { "shape_id": "shape-142", "route_id": "24-94_36004-94_34009", "route_short_name": "R", "route_long_name": "", "total_departures": 13, "median_headways": 3599.0, "mean_headways": 3599.0, "st_dev_headways": 0.0, "stop_count": 13, "services": 1.0002778549597111 }, "geometry": { "type": "LineString", "coordinates": [ [ -8.440468, 40.224364 ], [ -8.456596, 40.214543 ], [ -8.471038, 40.209081 ], [ -8.501267, 40.205781 ], [ -8.584275, 40.186307 ], [ -8.606849, 40.17933 ], [ -8.634473, 40.165366 ], [ -8.639302, 40.113586 ], [ -8.637739, 40.060011 ], [ -8.635076, 40.015981 ], [ -8.632787, 39.967185 ], [ -8.63056, 39.91774 ], [ -8.654928, 39.855065 ], [ -8.600303, 39.837771 ], [ -8.585756, 39.797526 ], [ -8.549498, 39.717054 ], [ -8.506924, 39.681805 ], [ -8.49343, 39.653869 ], [ -8.494837, 39.616321 ], [ -8.474052, 39.579993 ], [ -8.46903, 39.52886 ], [ -8.47418, 39.461597 ] ] } },
{ "type": "Feature", "properties": { "shape_id": "shape-143", "route_id": "24-94_34009-94_36004", "route_short_name": "R", "route_long_name": "", "total_departures": 7, "median_headways": 3599.0, "mean_headways": 3599.0, "st_dev_headways": 0.0, "stop_count": 7, "services": 1.0002778549597111 }, "geometry": { "type": "LineString", "coordinates": [ [ -8.47418, 39.461597 ], [ -8.46903, 39.52886 ], [ -8.474052, 39.579993 ], [ -8.494837, 39.616321 ], [ -8.49343, 39.653869 ], [ -8.506924, 39.681805 ], [ -8.549498, 39.717054 ], [ -8.585756, 39.797526 ], [ -8.600303, 39.837771 ], [ -8.654928, 39.855065 ], [ -8.63056, 39.91774 ], [ -8.632787, 39.967185 ], [ -8.635076, 40.015981 ], [ -8.637739, 40.060011 ], [ -8.639302, 40.113586 ], [ -8.634473, 40.165366 ], [ -8.606849, 40.17933 ], [ -8.584275, 40.186307 ], [ -8.501267, 40.205781 ], [ -8.471038, 40.209081 ], [ -8.456596, 40.214543 ], [ -8.440468, 40.224364 ] ] } },
{ "type": "Feature", "properties": { "shape_id": "shape-15", "route_id": "25-94_29157-94_1008", "route_short_name": "Linha de Braga", "route_long_name": "", "total_departures": 17, "median_headways": 3599.0, "mean_headways": 3599.0, "st_dev_headways": 0.0, "stop_count": 17, "services": 1.0002778549597111 }, "geometry": { "type": "LineString", "coordinates": [ [ -8.434642, 41.547874 ], [ -8.440553, 41.531473 ], [ -8.457616, 41.527164 ], [ -8.468178, 41.520433 ], [ -8.483078, 41.508966 ], [ -8.497693, 41.496556 ], [ -8.510734, 41.48877 ], [ -8.529178, 41.480822 ], [ -8.54431, 41.454744 ], [ -8.53772, 41.436725 ], [ -8.521448, 41.427715 ], [ -8.529737, 41.404553 ], [ -8.526247, 41.389633 ], [ -8.519631, 41.378218 ], [ -8.526658, 41.3511 ], [ -8.547626, 41.337411 ], [ -8.55453, 41.277518 ], [ -8.558154, 41.258058 ], [ -8.556695, 41.243532 ], [ -8.551783, 41.228692 ], [ -8.554252, 41.217349 ], [ -8.556505, 41.200564 ], [ -8.557312, 41.184418 ], [ -8.57565, 41.168396 ], [ -8.585514, 41.149622 ], [ -8.609592, 41.145666 ] ] } },
{ "type": "Feature", "properties": { "shape_id": "shape-150", "route_id": "24-94_36004-94_49007", "route_short_name": "R", "route_long_name": "", "total_departures": 6, "median_headways": 3599.0, "mean_headways": 3599.0, "st_dev_headways": 0.0, "stop_count": 6, "services": 1.0002778549597111 }, "geometry": { "type": "LineString", "coordinates": [ [ -8.440468, 40.224364 ], [ -8.42954, 40.336114 ], [ -8.412127, 40.356605 ], [ -8.384955, 40.390117 ], [ -8.301539, 40.414904 ], [ -8.26441, 40.408058 ], [ -8.242916, 40.392049 ], [ -8.124422, 40.390471 ], [ -8.084423, 40.407825 ], [ -8.049753, 40.42042 ], [ -8.003401, 40.436215 ], [ -7.963255, 40.450227 ], [ -7.920019, 40.475403 ], [ -7.906675, 40.491208 ], [ -7.850099, 40.530118 ], [ -7.789304, 40.581465 ], [ -7.760263, 40.586489 ], [ -7.600914, 40.573983 ], [ -7.524762, 40.612036 ], [ -7.382368, 40.665172 ], [ -7.321746, 40.68193 ], [ -7.256178, 40.726949 ], [ -7.239816, 40.552532 ] ] } },
{ "type": "Feature", "properties": { "shape_id": "shape-152", "route_id": "24-94_36004-94_38000", "route_short_name": "R", "route_long_name": "", "total_departures": 11, "median_headways": 3599.0, "mean_headways": 3599.0, "st_dev_headways": 0.0, "stop_count": 11, "services": 1.0002778549597111 }, "geometry": { "type": "LineString", "coordinates": [ [ -8.440468, 40.224364 ], [ -8.45054, 40.250335 ], [ -8.441588, 40.262537 ], [ -8.425925, 40.28564 ], [ -8.42954, 40.336114 ], [ -8.453875, 40.376285 ], [ -8.456726, 40.416257 ], [ -8.455891, 40.425745 ], [ -8.459521, 40.450742 ], [ -8.4803345, 40.481098 ], [ -8.49931, 40.510692 ], [ -8.550602, 40.544487 ], [ -8.6127605, 40.5909993 ], [ -8.639841, 40.64528 ] ] } },
{ "type": "Feature", "properties": { "shape_id": "shape-154", "route_id": "24-94_38000-94_36004", "route_short_name": "R", "route_long_name": "", "total_departures": 13, "median_headways": 3599.0, "mean_headways": 3599.0, "st_dev_headways": 0.0, "stop_count": 13, "services": 1.0002778549597111 }, "geometry": { "type": "LineString", "coordinates": [ [ -8.639841, 40.64528 ], [ -8.6127605, 40.5909993 ], [ -8.550602, 40.544487 ], [ -8.49931, 40.510692 ], [ -8.4803345, 40.481098 ], [ -8.459521, 40.450742 ], [ -8.455891, 40.425745 ], [ -8.456726, 40.416257 ], [ -8.453875, 40.376285 ], [ -8.42954, 40.336114 ], [ -8.425925, 40.28564 ], [ -8.441588, 40.262537 ], [ -8.45054, 40.250335 ], [ -8.440468, 40.224364 ] ] } },
{ "type": "Feature", "properties": { "shape_id": "shape-158", "route_id": "24-71_37606-94_34009", "route_short_name": "R", "route_long_name": "", "total_departures": 6, "median_headways": 3599.0, "mean_headways": 3599.0, "st_dev_headways": 0.0, "stop_count": 6, "services": 1.0002778549597111 }, "geometry": { "type": "LineString", "coordinates": [ [ -7.142262, 38.895656 ], [ -7.253379, 39.006071 ], [ -7.333373, 39.096864 ], [ -7.38204, 39.138699 ], [ -7.46162, 39.199281 ], [ -7.635737, 39.269562 ], [ -7.807993, 39.275793 ], [ -7.908733, 39.3098 ], [ -8.013334, 39.265225 ], [ -8.135733, 39.352422 ], [ -8.193767, 39.439684 ], [ -8.248428, 39.460651 ], [ -8.29839, 39.449099 ], [ -8.347928, 39.467203 ], [ -8.374975, 39.462629 ], [ -8.436004, 39.461883 ], [ -8.47418, 39.461597 ] ] } },
{ "type": "Feature", "properties": { "shape_id": "shape-164", "route_id": "22-94_36004-94_30007", "route_short_name": "IC", "route_long_name": "", "total_departures": 4, "median_headways": 3599.0, "mean_headways": 3599.0, "st_dev_headways": 0.0, "stop_count": 4, "services": 1.0002778549597111 }, "geometry": { "type": "LineString", "coordinates": [ [ -8.440468, 40.224364 ], [ -8.634473, 40.165366 ], [ -8.63056, 39.91774 ], [ -8.549498, 39.717054 ], [ -8.49343, 39.653869 ], [ -8.47418, 39.461597 ], [ -8.675246, 39.241918 ], [ -8.986486, 38.9547 ], [ -9.09812, 38.767786 ], [ -9.120748, 38.71584 ] ] } },
{ "type": "Feature", "properties": { "shape_id": "shape-166", "route_id": "24-94_38000-94_42218", "route_short_name": "R", "route_long_name": "", "total_departures": 12, "median_headways": 3599.0, "mean_headways": 3599.0, "st_dev_headways": 0.0, "stop_count": 12, "services": 1.0002778549597111 }, "geometry": { "type": "LineString", "coordinates": [ [ -8.639841, 40.64528 ], [ -8.618086, 40.641487 ], [ -8.591564, 40.639813 ], [ -8.568048, 40.631281 ], [ -8.548099, 40.622233 ], [ -8.531796, 40.609432 ], [ -8.524593, 40.60116 ], [ -8.514447, 40.594175 ], [ -8.497828, 40.587093 ], [ -8.487777, 40.579333 ], [ -8.466597, 40.574913 ], [ -8.448443, 40.577358 ] ] } },
{ "type": "Feature", "properties": { "shape_id": "shape-168", "route_id": "24-94_44339-94_44016", "route_short_name": "R", "route_long_name": "", "total_departures": 13, "median_headways": 3599.0, "mean_headways": 3599.0, "st_dev_headways": 0.0, "stop_count": 13, "services": 1.0002778549597111 }, "geometry": { "type": "LineString", "coordinates": [ [ -8.481837, 40.839857 ], [ -8.489605, 40.85128 ], [ -8.494202, 40.868077 ], [ -8.49498, 40.879094 ], [ -8.495302, 40.89856 ], [ -8.501197, 40.909077 ], [ -8.516226, 40.919607 ], [ -8.535631, 40.924196 ], [ -8.530904, 40.926533 ], [ -8.537453, 40.939531 ], [ -8.551126, 40.955354 ], [ -8.571141, 40.960936 ], [ -8.584378, 40.972219 ], [ -8.593681, 40.983857 ], [ -8.605522, 40.983848 ], [ -8.62507, 40.982173 ], [ -8.630368, 40.988993 ], [ -8.643451, 41.002346 ] ] } },
{ "type": "Feature", "properties": { "shape_id": "shape-171", "route_id": "22-94_2006-94_30007", "route_short_name": "IC", "route_long_name": "", "total_departures": 3, "median_headways": 3599.0, "mean_headways": 3599.0, "st_dev_headways": 0.0, "stop_count": 3, "services": 1.0002778549597111 }, "geometry": { "type": "LineString", "coordinates": [ [ -8.585514, 41.149622 ], [ -8.620228, 41.130042 ], [ -8.644485, 41.006195 ], [ -8.616855, 40.864496 ], [ -8.639841, 40.64528 ], [ -8.440468, 40.224364 ], [ -8.63056, 39.91774 ], [ -8.549498, 39.717054 ], [ -8.47418, 39.461597 ], [ -8.675246, 39.241918 ], [ -8.986486, 38.9547 ], [ -9.09812, 38.767786 ], [ -9.120748, 38.71584 ] ] } },
{ "type": "Feature", "properties": { "shape_id": "shape-174", "route_id": "22-94_49007-94_30007", "route_short_name": "IC", "route_long_name": "", "total_departures": 2, "median_headways": 3599.0, "mean_headways": 3599.0, "st_dev_headways": 0.0, "stop_count": 2, "services": 1.0002778549597111 }, "geometry": { "type": "LineString", "coordinates": [ [ -7.239816, 40.552532 ], [ -7.238927273, 40.51155311 ], [ -7.268354684, 40.43489707 ], [ -7.287301395, 40.38875756 ], [ -7.3362705, 40.33330266 ], [ -7.370709107, 40.306031 ], [ -7.496116, 40.277481 ], [ -7.496576, 40.141072 ], [ -7.490912, 39.818106 ], [ -7.672902, 39.655031 ], [ -8.193767, 39.439684 ], [ -8.47418, 39.461597 ], [ -8.675246, 39.241918 ], [ -8.986486, 38.9547 ], [ -9.09812, 38.767786 ], [ -9.120748, 38.71584 ] ] } },
{ "type": "Feature", "properties": { "shape_id": "shape-175", "route_id": "22-94_30007-94_49007", "route_short_name": "IC", "route_long_name": "", "total_departures": 1, "median_headways": 3599.0, "mean_headways": 3599.0, "st_dev_headways": null, "stop_count": 1, "services": 1.0002778549597111 }, "geometry": { "type": "LineString", "coordinates": [ [ -9.120748, 38.71584 ], [ -9.09812, 38.767786 ], [ -8.986486, 38.9547 ], [ -8.675246, 39.241918 ], [ -8.47418, 39.461597 ], [ -8.193767, 39.439684 ], [ -7.672902, 39.655031 ], [ -7.490912, 39.818106 ], [ -7.496576, 40.141072 ], [ -7.496116, 40.277481 ], [ -7.370709107, 40.306031 ], [ -7.3362705, 40.33330266 ], [ -7.287301395, 40.38875756 ], [ -7.268354684, 40.43489707 ], [ -7.238927273, 40.51155311 ], [ -7.239816, 40.552532 ] ] } },
{ "type": "Feature", "properties": { "shape_id": "shape-181", "route_id": "24-94_34009-94_53009", "route_short_name": "R", "route_long_name": "", "total_departures": 7, "median_headways": 3599.0, "mean_headways": 3599.0, "st_dev_headways": 0.0, "stop_count": 7, "services": 1.0002778549597111 }, "geometry": { "type": "LineString", "coordinates": [ [ -8.47418, 39.461597 ], [ -8.436004, 39.461883 ], [ -8.396007, 39.461117 ], [ -8.374975, 39.462629 ], [ -8.347928, 39.467203 ], [ -8.29839, 39.449099 ], [ -8.248428, 39.460651 ], [ -8.193767, 39.439684 ], [ -8.187846, 39.473546 ], [ -8.085872, 39.467953 ], [ -8.045253, 39.472344 ], [ -8.00187, 39.48186 ], [ -7.959065, 39.491942 ], [ -7.835042, 39.526075 ], [ -7.715777, 39.613822 ], [ -7.672902, 39.655031 ], [ -7.683434, 39.715392 ], [ -7.62401, 39.756016 ], [ -7.591497, 39.769542 ], [ -7.562819, 39.787947 ], [ -7.490912, 39.818106 ] ] } },
{ "type": "Feature", "properties": { "shape_id": "shape-183", "route_id": "24-94_34009-94_52001", "route_short_name": "R", "route_long_name": "", "total_departures": 2, "median_headways": 3599.0, "mean_headways": 3599.0, "st_dev_headways": 0.0, "stop_count": 2, "services": 1.0002778549597111 }, "geometry": { "type": "LineString", "coordinates": [ [ -8.47418, 39.461597 ], [ -8.436004, 39.461883 ], [ -8.396007, 39.461117 ], [ -8.374975, 39.462629 ], [ -8.347928, 39.467203 ], [ -8.29839, 39.449099 ], [ -8.248428, 39.460651 ], [ -8.193767, 39.439684 ] ] } },
{ "type": "Feature", "properties": { "shape_id": "shape-189", "route_id": "24-94_73007-94_73569", "route_short_name": "R", "route_long_name": "", "total_departures": 8, "median_headways": 3599.0, "mean_headways": 3599.0, "st_dev_headways": 0.0, "stop_count": 8, "services": 1.0002778549597111 }, "geometry": { "type": "LineString", "coordinates": [ [ -7.93993, 37.018672 ], [ -7.921398, 37.014101 ], [ -7.840106, 37.03041 ], [ -7.749825, 37.053546 ], [ -7.751468, 37.060167 ], [ -7.732069, 37.073554 ], [ -7.700221, 37.088982 ], [ -7.655782, 37.12086 ], [ -7.649051, 37.133058 ], [ -7.605801, 37.144421 ], [ -7.538629, 37.176389 ], [ -7.484539, 37.197148 ], [ -7.449151, 37.189984 ], [ -7.421588, 37.199837 ] ] } },
{ "type": "Feature", "properties": { "shape_id": "shape-19", "route_id": "25-94_1008-94_29157", "route_short_name": "Linha de Braga", "route_long_name": "", "total_departures": 24, "median_headways": 3599.0, "mean_headways": 3599.0, "st_dev_headways": 0.0, "stop_count": 24, "services": 1.0002778549597111 }, "geometry": { "type": "LineString", "coordinates": [ [ -8.609592, 41.145666 ], [ -8.585514, 41.149622 ], [ -8.57565, 41.168396 ], [ -8.557312, 41.184418 ], [ -8.556505, 41.200564 ], [ -8.554252, 41.217349 ], [ -8.551783, 41.228692 ], [ -8.556695, 41.243532 ], [ -8.558154, 41.258058 ], [ -8.55453, 41.277518 ], [ -8.547626, 41.337411 ], [ -8.526658, 41.3511 ], [ -8.519631, 41.378218 ], [ -8.526247, 41.389633 ], [ -8.529737, 41.404553 ], [ -8.521448, 41.427715 ], [ -8.53772, 41.436725 ], [ -8.54431, 41.454744 ], [ -8.529178, 41.480822 ], [ -8.510734, 41.48877 ], [ -8.497693, 41.496556 ], [ -8.483078, 41.508966 ], [ -8.468178, 41.520433 ], [ -8.457616, 41.527164 ], [ -8.440553, 41.531473 ], [ -8.434642, 41.547874 ] ] } },
{ "type": "Feature", "properties": { "shape_id": "shape-192", "route_id": "24-94_73569-94_73007", "route_short_name": "R", "route_long_name": "", "total_departures": 8, "median_headways": 3599.0, "mean_headways": 3599.0, "st_dev_headways": 0.0, "stop_count": 8, "services": 1.0002778549597111 }, "geometry": { "type": "LineString", "coordinates": [ [ -7.421588, 37.199837 ], [ -7.538629, 37.176389 ], [ -7.605801, 37.144421 ], [ -7.649051, 37.133058 ], [ -7.655782, 37.12086 ], [ -7.700221, 37.088982 ], [ -7.751468, 37.060167 ], [ -7.749825, 37.053546 ], [ -7.840106, 37.03041 ], [ -7.921398, 37.014101 ], [ -7.93993, 37.018672 ] ] } },
{ "type": "Feature", "properties": { "shape_id": "shape-194", "route_id": "22-94_31039-94_73007", "route_short_name": "IC", "route_long_name": "", "total_departures": 4, "median_headways": 3599.0, "mean_headways": 3599.0, "st_dev_headways": 0.0, "stop_count": 4, "services": 1.0002778549597111 }, "geometry": { "type": "LineString", "coordinates": [ [ -9.09812, 38.767786 ], [ -9.1476, 38.74485 ], [ -9.165675, 38.740433 ], [ -9.179598, 38.66604 ], [ -8.91298, 38.629981 ], [ -8.554587, 38.181438 ], [ -8.413854, 38.002896 ], [ -8.337657, 37.727755 ], [ -8.414482, 37.690077 ], [ -8.481355, 37.495705 ], [ -8.290597, 37.255484 ], [ -8.255074, 37.16349 ], [ -8.233185, 37.128837 ], [ -8.058616, 37.104553 ], [ -7.93993, 37.018672 ] ] } },
{ "type": "Feature", "properties": { "shape_id": "shape-199", "route_id": "22-94_83006-94_75002", "route_short_name": "IC", "route_long_name": "", "total_departures": 2, "median_headways": 3599.0, "mean_headways": 3599.0, "st_dev_headways": 0.0, "stop_count": 2, "services": 1.0002778549597111 }, "geometry": { "type": "LineString", "coordinates": [ [ -7.908454, 38.558662 ], [ -8.158677, 38.498328 ], [ -8.096422, 38.4079 ], [ -8.035433, 38.294492 ], [ -8.000772, 38.23313 ], [ -7.895128, 38.163769 ], [ -7.858406, 38.018382 ] ] } },
{ "type": "Feature", "properties": { "shape_id": "shape-2", "route_id": "22-94_36004-94_49007", "route_short_name": "IC", "route_long_name": "", "total_departures": 4, "median_headways": 3599.0, "mean_headways": 3599.0, "st_dev_headways": 0.0, "stop_count": 4, "services": 1.0002778549597111 }, "geometry": { "type": "LineString", "coordinates": [ [ -8.440468, 40.224364 ], [ -8.242916, 40.392049 ], [ -8.124422, 40.390471 ], [ -8.003401, 40.436215 ], [ -7.850099, 40.530118 ], [ -7.760263, 40.586489 ], [ -7.524762, 40.612036 ], [ -7.382368, 40.665172 ], [ -7.256178, 40.726949 ], [ -7.239816, 40.552532 ] ] } },
{ "type": "Feature", "properties": { "shape_id": "shape-200", "route_id": "24-94_73007-94_90464", "route_short_name": "R", "route_long_name": "", "total_departures": 11, "median_headways": 3599.0, "mean_headways": 3599.0, "st_dev_headways": 0.0, "stop_count": 11, "services": 1.0002778549597111 }, "geometry": { "type": "LineString", "coordinates": [ [ -7.93993, 37.018672 ], [ -7.9865, 37.081967 ], [ -8.024077, 37.095096 ], [ -8.058616, 37.104553 ], [ -8.153103, 37.123068 ], [ -8.233185, 37.128837 ], [ -8.255074, 37.16349 ], [ -8.30479, 37.168024 ], [ -8.347588, 37.169991 ], [ -8.386375, 37.164029 ], [ -8.437656, 37.17567 ], [ -8.483573, 37.142959 ], [ -8.515139, 37.139611 ], [ -8.537529, 37.144562 ], [ -8.607801, 37.153087 ], [ -8.649169, 37.117388 ], [ -8.671616, 37.108744 ] ] } },
{ "type": "Feature", "properties": { "shape_id": "shape-201", "route_id": "24-94_90464-94_73007", "route_short_name": "R", "route_long_name": "", "total_departures": 9, "median_headways": 3599.0, "mean_headways": 3599.0, "st_dev_headways": 0.0, "stop_count": 9, "services": 1.0002778549597111 }, "geometry": { "type": "LineString", "coordinates": [ [ -8.671616, 37.108744 ], [ -8.649169, 37.117388 ], [ -8.607801, 37.153087 ], [ -8.537529, 37.144562 ], [ -8.515139, 37.139611 ], [ -8.483573, 37.142959 ], [ -8.437656, 37.17567 ], [ -8.347588, 37.169991 ], [ -8.30479, 37.168024 ], [ -8.255074, 37.16349 ], [ -8.233185, 37.128837 ], [ -8.153103, 37.123068 ], [ -8.058616, 37.104553 ], [ -8.024077, 37.095096 ], [ -7.9865, 37.081967 ], [ -7.93993, 37.018672 ] ] } },
{ "type": "Feature", "properties": { "shape_id": "shape-205", "route_id": "24-94_73007-94_90464", "route_short_name": "R", "route_long_name": "", "total_departures": 11, "median_headways": 3599.0, "mean_headways": 3599.0, "st_dev_headways": 0.0, "stop_count": 11, "services": 1.0002778549597111 }, "geometry": { "type": "LineString", "coordinates": [ [ -7.93993, 37.018672 ], [ -7.9865, 37.081967 ], [ -8.024077, 37.095096 ], [ -8.058616, 37.104553 ], [ -8.153103, 37.123068 ], [ -8.233185, 37.128837 ], [ -8.255074, 37.16349 ], [ -8.30479, 37.168024 ], [ -8.347588, 37.169991 ], [ -8.437656, 37.17567 ], [ -8.483573, 37.142959 ], [ -8.515139, 37.139611 ], [ -8.537529, 37.144562 ], [ -8.607801, 37.153087 ], [ -8.671616, 37.108744 ] ] } },
{ "type": "Feature", "properties": { "shape_id": "shape-207", "route_id": "22-94_24000-94_30007", "route_short_name": "IC", "route_long_name": "", "total_departures": 1, "median_headways": 3599.0, "mean_headways": 3599.0, "st_dev_headways": null, "stop_count": 1, "services": 1.0002778549597111 }, "geometry": { "type": "LineString", "coordinates": [ [ -8.294142, 41.435373 ], [ -8.3134, 41.381133 ], [ -8.474432, 41.352307 ], [ -8.547626, 41.337411 ], [ -8.585514, 41.149622 ], [ -8.620228, 41.130042 ], [ -8.644485, 41.006195 ], [ -8.616855, 40.864496 ], [ -8.639841, 40.64528 ], [ -8.440468, 40.224364 ], [ -8.63056, 39.91774 ], [ -8.549498, 39.717054 ], [ -8.47418, 39.461597 ], [ -8.675246, 39.241918 ], [ -8.986486, 38.9547 ], [ -9.09812, 38.767786 ], [ -9.120748, 38.71584 ] ] } },
{ "type": "Feature", "properties": { "shape_id": "shape-211", "route_id": "24-94_62042-94_63008", "route_short_name": "R", "route_long_name": "", "total_departures": 4, "median_headways": 3599.0, "mean_headways": 3599.0, "st_dev_headways": 0.0, "stop_count": 4, "services": 1.0002778549597111 }, "geometry": { "type": "LineString", "coordinates": [ [ -9.313149, 38.793035 ], [ -9.301083, 38.826801 ], [ -9.29549, 38.867051 ], [ -9.291764, 38.897449 ], [ -9.256521, 38.92898 ], [ -9.232706, 38.949983 ], [ -9.199544, 38.96893 ], [ -9.197579, 38.988235 ], [ -9.183118, 39.006564 ], [ -9.179138, 39.023467 ], [ -9.184273, 39.044036 ], [ -9.210308, 39.074452 ], [ -9.25553, 39.093481 ], [ -9.21555, 39.139956 ], [ -9.177217, 39.191569 ], [ -9.153353, 39.2654 ], [ -9.165529, 39.299636 ], [ -9.18112, 39.326044 ], [ -9.170503, 39.348461 ], [ -9.154754, 39.368289 ], [ -9.140619, 39.407702 ] ] } },
{ "type": "Feature", "properties": { "shape_id": "shape-212", "route_id": "24-94_63008-94_30007", "route_short_name": "R", "route_long_name": "", "total_departures": 6, "median_headways": 3599.0, "mean_headways": 3599.0, "st_dev_headways": 0.0, "stop_count": 6, "services": 1.0002778549597111 }, "geometry": { "type": "LineString", "coordinates": [ [ -9.140619, 39.407702 ], [ -9.154754, 39.368289 ], [ -9.170503, 39.348461 ], [ -9.18112, 39.326044 ], [ -9.165529, 39.299636 ], [ -9.153353, 39.2654 ], [ -9.177217, 39.191569 ], [ -9.21555, 39.139956 ], [ -9.25553, 39.093481 ], [ -9.210308, 39.074452 ], [ -9.184273, 39.044036 ], [ -9.179138, 39.023467 ], [ -9.183118, 39.006564 ], [ -9.197579, 38.988235 ], [ -9.199544, 38.96893 ], [ -9.232706, 38.949983 ], [ -9.256521, 38.92898 ], [ -9.291764, 38.897449 ], [ -9.29549, 38.867051 ], [ -9.301083, 38.826801 ], [ -9.313149, 38.793035 ], [ -9.296683, 38.764014 ], [ -9.165675, 38.740433 ], [ -9.1476, 38.74485 ], [ -9.120748, 38.71584 ] ] } },
{ "type": "Feature", "properties": { "shape_id": "shape-216", "route_id": "24-94_63008-94_36004", "route_short_name": "R", "route_long_name": "", "total_departures": 1, "median_headways": 3599.0, "mean_headways": 3599.0, "st_dev_headways": null, "stop_count": 1, "services": 1.0002778549597111 }, "geometry": { "type": "LineString", "coordinates": [ [ -9.140619, 39.407702 ], [ -9.14772, 39.487382 ], [ -9.135027, 39.501954 ], [ -9.08949, 39.529744 ], [ -9.017867, 39.584705 ], [ -8.983988, 39.656871 ], [ -8.945994, 39.687412 ], [ -8.925494, 39.737142 ], [ -8.828034, 39.756605 ], [ -8.845784, 39.861961 ], [ -8.831271, 39.906829 ], [ -8.802, 39.956201 ], [ -8.813732, 40.012286 ], [ -8.703769, 40.139734 ], [ -8.634473, 40.165366 ], [ -8.440468, 40.224364 ] ] } },
{ "type": "Feature", "properties": { "shape_id": "shape-220", "route_id": "22-94_73007-94_31039", "route_short_name": "IC", "route_long_name": "", "total_departures": 5, "median_headways": 3599.0, "mean_headways": 3599.0, "st_dev_headways": 0.0, "stop_count": 5, "services": 1.0002778549597111 }, "geometry": { "type": "LineString", "coordinates": [ [ -7.93993, 37.018672 ], [ -8.058616, 37.104553 ], [ -8.233185, 37.128837 ], [ -8.255074, 37.16349 ], [ -8.290597, 37.255484 ], [ -8.481355, 37.495705 ], [ -8.337657, 37.727755 ], [ -8.413854, 38.002896 ], [ -8.554587, 38.181438 ], [ -8.91298, 38.629981 ], [ -9.179598, 38.66604 ], [ -9.165675, 38.740433 ], [ -9.1476, 38.74485 ], [ -9.09812, 38.767786 ] ] } },
{ "type": "Feature", "properties": { "shape_id": "shape-226", "route_id": "22-94_30007-94_29157", "route_short_name": "IC", "route_long_name": "", "total_departures": 3, "median_headways": 3599.0, "mean_headways": 3599.0, "st_dev_headways": 0.0, "stop_count": 3, "services": 1.0002778549597111 }, "geometry": { "type": "LineString", "coordinates": [ [ -9.120748, 38.71584 ], [ -9.09812, 38.767786 ], [ -8.986486, 38.9547 ], [ -8.675246, 39.241918 ], [ -8.47418, 39.461597 ], [ -8.63056, 39.91774 ], [ -8.440468, 40.224364 ], [ -8.453875, 40.376285 ], [ -8.639841, 40.64528 ], [ -8.575636, 40.751209 ], [ -8.644485, 41.006195 ], [ -8.620228, 41.130042 ], [ -8.585514, 41.149622 ], [ -8.529737, 41.404553 ], [ -8.54431, 41.454744 ], [ -8.434642, 41.547874 ] ] } },
{ "type": "Feature", "properties": { "shape_id": "shape-228", "route_id": "22-94_30007-94_7005", "route_short_name": "IC", "route_long_name": "", "total_departures": 5, "median_headways": 3599.0, "mean_headways": 3599.0, "st_dev_headways": 0.0, "stop_count": 5, "services": 1.0002778549597111 }, "geometry": { "type": "LineString", "coordinates": [ [ -9.120748, 38.71584 ], [ -9.09812, 38.767786 ], [ -8.986486, 38.9547 ], [ -8.675246, 39.241918 ], [ -8.47418, 39.461597 ], [ -8.549498, 39.717054 ], [ -8.63056, 39.91774 ], [ -8.440468, 40.224364 ], [ -8.639841, 40.64528 ], [ -8.616855, 40.864496 ], [ -8.644485, 41.006195 ], [ -8.620228, 41.130042 ], [ -8.585514, 41.149622 ], [ -8.547626, 41.337411 ], [ -8.529737, 41.404553 ], [ -8.54431, 41.454744 ], [ -8.608976, 41.536628 ], [ -8.700862, 41.646334 ], [ -8.830407, 41.696031 ], [ -8.866795, 41.816207 ], [ -8.825599, 41.877686 ], [ -8.743428, 41.946261 ], [ -8.639301, 42.024982 ] ] } },
{ "type": "Feature", "properties": { "shape_id": "shape-229", "route_id": "23-94_36004-94_63008", "route_short_name": "IR", "route_long_name": "", "total_departures": 7, "median_headways": 3599.0, "mean_headways": 3599.0, "st_dev_headways": 0.0, "stop_count": 7, "services": 1.0002778549597111 }, "geometry": { "type": "LineString", "coordinates": [ [ -8.440468, 40.224364 ], [ -8.634473, 40.165366 ], [ -8.703769, 40.139734 ], [ -8.813732, 40.012286 ], [ -8.802, 39.956201 ], [ -8.831271, 39.906829 ], [ -8.845784, 39.861961 ], [ -8.828034, 39.756605 ], [ -8.925494, 39.737142 ], [ -8.945994, 39.687412 ], [ -9.017867, 39.584705 ], [ -9.135027, 39.501954 ], [ -9.140619, 39.407702 ] ] } },
{ "type": "Feature", "properties": { "shape_id": "shape-235", "route_id": "23-94_7005-94_64113", "route_short_name": "IR", "route_long_name": "", "total_departures": 6, "median_headways": 3599.0, "mean_headways": 3599.0, "st_dev_headways": 0.0, "stop_count": 6, "services": 1.0002778549597111 }, "geometry": { "type": "LineString", "coordinates": [ [ -8.639301, 42.024982 ], [ -8.743428, 41.946261 ], [ -8.825599, 41.877686 ], [ -8.860661, 41.852146 ], [ -8.866795, 41.816207 ], [ -8.862221, 41.778211 ], [ -8.830407, 41.696031 ], [ -8.799277, 41.684085 ], [ -8.739143, 41.648435 ], [ -8.720439, 41.64664 ], [ -8.700862, 41.646334 ], [ -8.666161, 41.638902 ], [ -8.634906, 41.608823 ], [ -8.608976, 41.536628 ], [ -8.54431, 41.454744 ], [ -8.529737, 41.404553 ], [ -8.547626, 41.337411 ], [ -8.554252, 41.217349 ], [ -8.585514, 41.149622 ], [ -8.620228, 41.130042 ], [ -8.644485, 41.006195 ], [ -8.616855, 40.864496 ], [ -8.575636, 40.751209 ], [ -8.639841, 40.64528 ], [ -8.453875, 40.376285 ], [ -8.42954, 40.336114 ], [ -8.440468, 40.224364 ], [ -8.634473, 40.165366 ], [ -8.843364, 40.148766 ] ] } },
{ "type": "Feature", "properties": { "shape_id": "shape-242", "route_id": "23-94_7005-94_2006", "route_short_name": "IR", "route_long_name": "", "total_departures": 10, "median_headways": 3599.0, "mean_headways": 3599.0, "st_dev_headways": 0.0, "stop_count": 10, "services": 1.0002778549597111 }, "geometry": { "type": "LineString", "coordinates": [ [ -8.639301, 42.024982 ], [ -8.743428, 41.946261 ], [ -8.825599, 41.877686 ], [ -8.860661, 41.852146 ], [ -8.866795, 41.816207 ], [ -8.862221, 41.778211 ], [ -8.830407, 41.696031 ], [ -8.799277, 41.684085 ], [ -8.739143, 41.648435 ], [ -8.700862, 41.646334 ], [ -8.666161, 41.638902 ], [ -8.634906, 41.608823 ], [ -8.608976, 41.536628 ], [ -8.58174, 41.507966 ], [ -8.563831, 41.486525 ], [ -8.54431, 41.454744 ], [ -8.529737, 41.404553 ], [ -8.547626, 41.337411 ], [ -8.554252, 41.217349 ], [ -8.585514, 41.149622 ] ] } },
{ "type": "Feature", "properties": { "shape_id": "shape-248", "route_id": "23-94_1008-94_10009", "route_short_name": "IR", "route_long_name": "", "total_departures": 1, "median_headways": 3599.0, "mean_headways": 3599.0, "st_dev_headways": null, "stop_count": 1, "services": 1.0002778549597111 }, "geometry": { "type": "LineString", "coordinates": [ [ -8.609592, 41.145666 ], [ -8.585514, 41.149622 ], [ -8.554252, 41.217349 ], [ -8.32388, 41.204124 ], [ -8.29453, 41.218094 ], [ -8.226824, 41.252435 ], [ -8.155653, 41.216742 ], [ -8.136459, 41.180557 ], [ -8.069127, 41.094616 ], [ -8.006622, 41.10645 ], [ -7.950097, 41.124538 ], [ -7.864992, 41.160698 ], [ -7.783341, 41.158549 ] ] } },
{ "type": "Feature", "properties": { "shape_id": "shape-26", "route_id": "25-94_5074-94_29157", "route_short_name": "Linha de Braga", "route_long_name": "", "total_departures": 9, "median_headways": 3599.0, "mean_headways": 3599.0, "st_dev_headways": 0.0, "stop_count": 9, "services": 1.0002778549597111 }, "geometry": { "type": "LineString", "coordinates": [ [ -8.529737, 41.404553 ], [ -8.521448, 41.427715 ], [ -8.53772, 41.436725 ], [ -8.54431, 41.454744 ], [ -8.529178, 41.480822 ], [ -8.510734, 41.48877 ], [ -8.497693, 41.496556 ], [ -8.483078, 41.508966 ], [ -8.468178, 41.520433 ], [ -8.457616, 41.527164 ], [ -8.440553, 41.531473 ], [ -8.434642, 41.547874 ] ] } },
{ "type": "Feature", "properties": { "shape_id": "shape-30", "route_id": "25-94_9001-94_1008", "route_short_name": "Linha do Marco", "route_long_name": "", "total_departures": 27, "median_headways": 3599.0, "mean_headways": 3599.0, "st_dev_headways": 0.0, "stop_count": 27, "services": 1.0002778549597111 }, "geometry": { "type": "LineString", "coordinates": [ [ -8.136459, 41.180557 ], [ -8.155653, 41.216742 ], [ -8.17469, 41.230378 ], [ -8.18461, 41.245847 ], [ -8.198543, 41.257549 ], [ -8.226824, 41.252435 ], [ -8.258727, 41.248767 ], [ -8.276784, 41.235375 ], [ -8.29453, 41.218094 ], [ -8.32388, 41.204124 ], [ -8.337417, 41.193971 ], [ -8.341793, 41.182231 ], [ -8.353765, 41.172221 ], [ -8.372769, 41.160128 ], [ -8.398506, 41.153493 ], [ -8.418665, 41.16126 ], [ -8.437955, 41.163772 ], [ -8.467475, 41.169489 ], [ -8.487195, 41.188026 ], [ -8.501441, 41.196992 ], [ -8.534696, 41.220333 ], [ -8.554252, 41.217349 ], [ -8.556505, 41.200564 ], [ -8.557312, 41.184418 ], [ -8.57565, 41.168396 ], [ -8.585514, 41.149622 ], [ -8.609592, 41.145666 ] ] } },
{ "type": "Feature", "properties": { "shape_id": "shape-32", "route_id": "25-94_1008-94_9001", "route_short_name": "Linha do Marco", "route_long_name": "", "total_departures": 22, "median_headways": 3599.0, "mean_headways": 3599.0, "st_dev_headways": 0.0, "stop_count": 22, "services": 1.0002778549597111 }, "geometry": { "type": "LineString", "coordinates": [ [ -8.609592, 41.145666 ], [ -8.585514, 41.149622 ], [ -8.57565, 41.168396 ], [ -8.557312, 41.184418 ], [ -8.556505, 41.200564 ], [ -8.554252, 41.217349 ], [ -8.501441, 41.196992 ], [ -8.487195, 41.188026 ], [ -8.398506, 41.153493 ], [ -8.353765, 41.172221 ], [ -8.32388, 41.204124 ], [ -8.29453, 41.218094 ], [ -8.276784, 41.235375 ], [ -8.258727, 41.248767 ], [ -8.226824, 41.252435 ], [ -8.198543, 41.257549 ], [ -8.18461, 41.245847 ], [ -8.17469, 41.230378 ], [ -8.155653, 41.216742 ], [ -8.136459, 41.180557 ] ] } },
{ "type": "Feature", "properties": { "shape_id": "shape-36", "route_id": "25-94_1008-94_9001", "route_short_name": "Linha do Marco", "route_long_name": "", "total_departures": 22, "median_headways": 3599.0, "mean_headways": 3599.0, "st_dev_headways": 0.0, "stop_count": 22, "services": 1.0002778549597111 }, "geometry": { "type": "LineString", "coordinates": [ [ -8.609592, 41.145666 ], [ -8.585514, 41.149622 ], [ -8.57565, 41.168396 ], [ -8.557312, 41.184418 ], [ -8.556505, 41.200564 ], [ -8.554252, 41.217349 ], [ -8.534696, 41.220333 ], [ -8.501441, 41.196992 ], [ -8.487195, 41.188026 ], [ -8.467475, 41.169489 ], [ -8.437955, 41.163772 ], [ -8.418665, 41.16126 ], [ -8.398506, 41.153493 ], [ -8.372769, 41.160128 ], [ -8.353765, 41.172221 ], [ -8.341793, 41.182231 ], [ -8.337417, 41.193971 ], [ -8.32388, 41.204124 ], [ -8.29453, 41.218094 ], [ -8.276784, 41.235375 ], [ -8.258727, 41.248767 ], [ -8.226824, 41.252435 ], [ -8.198543, 41.257549 ], [ -8.18461, 41.245847 ], [ -8.17469, 41.230378 ], [ -8.155653, 41.216742 ], [ -8.136459, 41.180557 ] ] } },
{ "type": "Feature", "properties": { "shape_id": "shape-42", "route_id": "25-94_38000-94_1008", "route_short_name": "Linha de Aveiro", "route_long_name": "", "total_departures": 25, "median_headways": 3599.0, "mean_headways": 3599.0, "st_dev_headways": 0.0, "stop_count": 25, "services": 1.0002778549597111 }, "geometry": { "type": "LineString", "coordinates": [ [ -8.639841, 40.64528 ], [ -8.59661, 40.685815 ], [ -8.564127, 40.717163 ], [ -8.566333, 40.733522 ], [ -8.575636, 40.751209 ], [ -8.584501, 40.807137 ], [ -8.601914, 40.834893 ], [ -8.616855, 40.864496 ], [ -8.62619, 40.925255 ], [ -8.63063, 40.941571 ], [ -8.63551, 40.963073 ], [ -8.63722, 40.976935 ], [ -8.640971, 40.991268 ], [ -8.644485, 41.006195 ], [ -8.647355, 41.039233 ], [ -8.65143, 41.050808 ], [ -8.649591, 41.067854 ], [ -8.647336, 41.08156 ], [ -8.631937, 41.099548 ], [ -8.637802, 41.111956 ], [ -8.63338, 41.12454 ], [ -8.620228, 41.130042 ], [ -8.607398, 41.133494 ], [ -8.585514, 41.149622 ], [ -8.609592, 41.145666 ] ] } },
{ "type": "Feature", "properties": { "shape_id": "shape-5", "route_id": "21-94_30007-94_2006", "route_short_name": "AP", "route_long_name": "", "total_departures": 1, "median_headways": 3599.0, "mean_headways": 3599.0, "st_dev_headways": null, "stop_count": 1, "services": 1.0002778549597111 }, "geometry": { "type": "LineString", "coordinates": [ [ -9.120748, 38.71584 ], [ -9.09812, 38.767786 ], [ -8.440468, 40.224364 ], [ -8.639841, 40.64528 ], [ -8.620228, 41.130042 ], [ -8.585514, 41.149622 ] ] } },
{ "type": "Feature", "properties": { "shape_id": "shape-57", "route_id": "25-94_1008-94_38000", "route_short_name": "Linha de Aveiro", "route_long_name": "", "total_departures": 24, "median_headways": 3599.0, "mean_headways": 3599.0, "st_dev_headways": 0.0, "stop_count": 24, "services": 1.0002778549597111 }, "geometry": { "type": "LineString", "coordinates": [ [ -8.609592, 41.145666 ], [ -8.585514, 41.149622 ], [ -8.607398, 41.133494 ], [ -8.620228, 41.130042 ], [ -8.63338, 41.12454 ], [ -8.637802, 41.111956 ], [ -8.631937, 41.099548 ], [ -8.647336, 41.08156 ], [ -8.649591, 41.067854 ], [ -8.65143, 41.050808 ], [ -8.647355, 41.039233 ], [ -8.644485, 41.006195 ], [ -8.640971, 40.991268 ], [ -8.63722, 40.976935 ], [ -8.63551, 40.963073 ], [ -8.63063, 40.941571 ], [ -8.62619, 40.925255 ], [ -8.616855, 40.864496 ], [ -8.601914, 40.834893 ], [ -8.584501, 40.807137 ], [ -8.575636, 40.751209 ], [ -8.566333, 40.733522 ], [ -8.564127, 40.717163 ], [ -8.59661, 40.685815 ], [ -8.639841, 40.64528 ] ] } },
{ "type": "Feature", "properties": { "shape_id": "shape-59", "route_id": "25-94_38299-94_1008", "route_short_name": "Linha de Aveiro", "route_long_name": "", "total_departures": 7, "median_headways": 3599.0, "mean_headways": 3599.0, "st_dev_headways": 0.0, "stop_count": 7, "services": 1.0002778549597111 }, "geometry": { "type": "LineString", "coordinates": [ [ -8.616855, 40.864496 ], [ -8.63551, 40.963073 ], [ -8.63722, 40.976935 ], [ -8.644485, 41.006195 ], [ -8.647355, 41.039233 ], [ -8.65143, 41.050808 ], [ -8.649591, 41.067854 ], [ -8.647336, 41.08156 ], [ -8.631937, 41.099548 ], [ -8.637802, 41.111956 ], [ -8.63338, 41.12454 ], [ -8.620228, 41.130042 ], [ -8.607398, 41.133494 ], [ -8.585514, 41.149622 ], [ -8.609592, 41.145666 ] ] } },
{ "type": "Feature", "properties": { "shape_id": "shape-66", "route_id": "25-94_2006-94_21071", "route_short_name": "Linha de Leixoes", "route_long_name": "", "total_departures": 7, "median_headways": 3599.0, "mean_headways": 3599.0, "st_dev_headways": 0.0, "stop_count": 7, "services": 1.0002778549597111 }, "geometry": { "type": "LineString", "coordinates": [ [ -8.585514, 41.149622 ], [ -8.57565, 41.168396 ], [ -8.578925, 41.197276 ], [ -8.598269, 41.185137 ], [ -8.613096, 41.190359 ], [ -8.630343, 41.196551 ], [ -8.629593, 41.208622 ] ] } },
{ "type": "Feature", "properties": { "shape_id": "shape-68", "route_id": "25-94_21071-94_2006", "route_short_name": "Linha de Leixoes", "route_long_name": "", "total_departures": 7, "median_headways": 3599.0, "mean_headways": 3599.0, "st_dev_headways": 0.0, "stop_count": 7, "services": 1.0002778549597111 }, "geometry": { "type": "LineString", "coordinates": [ [ -8.629593, 41.208622 ], [ -8.630343, 41.196551 ], [ -8.613096, 41.190359 ], [ -8.598269, 41.185137 ], [ -8.578925, 41.197276 ], [ -8.57565, 41.168396 ], [ -8.585514, 41.149622 ] ] } },
{ "type": "Feature", "properties": { "shape_id": "shape-7", "route_id": "21-94_29157-94_30007", "route_short_name": "AP", "route_long_name": "", "total_departures": 4, "median_headways": 3599.0, "mean_headways": 3599.0, "st_dev_headways": 0.0, "stop_count": 4, "services": 1.0002778549597111 }, "geometry": { "type": "LineString", "coordinates": [ [ -8.434642, 41.547874 ], [ -8.54431, 41.454744 ], [ -8.529737, 41.404553 ], [ -8.585514, 41.149622 ], [ -8.620228, 41.130042 ], [ -8.639841, 40.64528 ], [ -8.440468, 40.224364 ], [ -9.09812, 38.767786 ], [ -9.120748, 38.71584 ] ] } },
{ "type": "Feature", "properties": { "shape_id": "shape-73", "route_id": "25-94_33001-94_30007", "route_short_name": "Linha da Azambuja", "route_long_name": "", "total_departures": 25, "median_headways": 3599.0, "mean_headways": 3599.0, "st_dev_headways": 0.0, "stop_count": 25, "services": 1.0002778549597111 }, "geometry": { "type": "LineString", "coordinates": [ [ -8.867753, 39.067628 ], [ -8.902895, 39.050512 ], [ -8.928696, 39.036206 ], [ -8.954623, 39.004348 ], [ -8.964987, 38.988653 ], [ -8.986486, 38.9547 ], [ -9.011613, 38.923268 ], [ -9.034573, 38.889243 ], [ -9.06431, 38.859255 ], [ -9.081554, 38.838345 ], [ -9.095013, 38.806251 ], [ -9.099744, 38.795236 ], [ -9.099293, 38.776158 ], [ -9.09812, 38.767786 ], [ -9.102924, 38.746603 ], [ -9.120748, 38.71584 ] ] } },
{ "type": "Feature", "properties": { "shape_id": "shape-74", "route_id": "25-94_30007-94_33001", "route_short_name": "Linha da Azambuja", "route_long_name": "", "total_departures": 16, "median_headways": 3599.0, "mean_headways": 3599.0, "st_dev_headways": 0.0, "stop_count": 16, "services": 1.0002778549597111 }, "geometry": { "type": "LineString", "coordinates": [ [ -9.120748, 38.71584 ], [ -9.102924, 38.746603 ], [ -9.09812, 38.767786 ], [ -9.099293, 38.776158 ], [ -9.099744, 38.795236 ], [ -9.095013, 38.806251 ], [ -9.081554, 38.838345 ], [ -9.06431, 38.859255 ], [ -9.034573, 38.889243 ], [ -9.011613, 38.923268 ], [ -8.986486, 38.9547 ], [ -8.964987, 38.988653 ], [ -8.954623, 39.004348 ], [ -8.928696, 39.036206 ], [ -8.902895, 39.050512 ], [ -8.867753, 39.067628 ] ] } },
{ "type": "Feature", "properties": { "shape_id": "shape-75", "route_id": "25-94_67025-94_31310", "route_short_name": "Linha da Azambuja", "route_long_name": "", "total_departures": 34, "median_headways": 3599.0, "mean_headways": 3599.0, "st_dev_headways": 0.0, "stop_count": 34, "services": 1.0002778549597111 }, "geometry": { "type": "LineString", "coordinates": [ [ -9.172849, 38.707589 ], [ -9.168181, 38.736103 ], [ -9.165675, 38.740433 ], [ -9.1476, 38.74485 ], [ -9.135353, 38.745743 ], [ -9.109318, 38.738726 ], [ -9.102924, 38.746603 ], [ -9.09812, 38.767786 ], [ -9.099293, 38.776158 ], [ -9.099744, 38.795236 ], [ -9.095013, 38.806251 ], [ -9.081554, 38.838345 ], [ -9.06431, 38.859255 ], [ -9.034573, 38.889243 ], [ -9.011613, 38.923268 ], [ -8.986486, 38.9547 ], [ -8.964987, 38.988653 ] ] } },
{ "type": "Feature", "properties": { "shape_id": "shape-78", "route_id": "25-94_31310-94_67025", "route_short_name": "Linha da Azambuja", "route_long_name": "", "total_departures": 34, "median_headways": 3599.0, "mean_headways": 3599.0, "st_dev_headways": 0.0, "stop_count": 34, "services": 1.0002778549597111 }, "geometry": { "type": "LineString", "coordinates": [ [ -8.964987, 38.988653 ], [ -8.986486, 38.9547 ], [ -9.011613, 38.923268 ], [ -9.034573, 38.889243 ], [ -9.06431, 38.859255 ], [ -9.081554, 38.838345 ], [ -9.095013, 38.806251 ], [ -9.099744, 38.795236 ], [ -9.099293, 38.776158 ], [ -9.09812, 38.767786 ], [ -9.102924, 38.746603 ], [ -9.109318, 38.738726 ], [ -9.135353, 38.745743 ], [ -9.1476, 38.74485 ], [ -9.165675, 38.740433 ], [ -9.168181, 38.736103 ], [ -9.172849, 38.707589 ] ] } },
{ "type": "Feature", "properties": { "shape_id": "shape-79", "route_id": "25-94_36004-94_64113", "route_short_name": "U", "route_long_name": "", "total_departures": 3, "median_headways": 3599.0, "mean_headways": 3599.0, "st_dev_headways": 0.0, "stop_count": 3, "services": 1.0002778549597111 }, "geometry": { "type": "LineString", "coordinates": [ [ -8.440468, 40.224364 ], [ -8.456596, 40.214543 ], [ -8.471038, 40.209081 ], [ -8.484952, 40.204815 ], [ -8.501267, 40.205781 ], [ -8.526305, 40.192943 ], [ -8.544961, 40.192353 ], [ -8.584275, 40.186307 ], [ -8.606849, 40.17933 ], [ -8.634473, 40.165366 ], [ -8.655785, 40.160057 ], [ -8.677145, 40.139984 ], [ -8.703769, 40.139734 ], [ -8.745465, 40.129868 ], [ -8.76298, 40.119147 ], [ -8.783323, 40.127042 ], [ -8.810635, 40.140982 ], [ -8.822389, 40.145955 ], [ -8.843364, 40.148766 ] ] } },
{ "type": "Feature", "properties": { "shape_id": "shape-8", "route_id": "21-94_30007-94_29157", "route_short_name": "AP", "route_long_name": "", "total_departures": 3, "median_headways": 3599.0, "mean_headways": 3599.0, "st_dev_headways": 0.0, "stop_count": 3, "services": 1.0002778549597111 }, "geometry": { "type": "LineString", "coordinates": [ [ -9.120748, 38.71584 ], [ -9.09812, 38.767786 ], [ -8.440468, 40.224364 ], [ -8.639841, 40.64528 ], [ -8.620228, 41.130042 ], [ -8.585514, 41.149622 ], [ -8.529737, 41.404553 ], [ -8.54431, 41.454744 ], [ -8.434642, 41.547874 ] ] } },
{ "type": "Feature", "properties": { "shape_id": "shape-80", "route_id": "25-94_64113-94_36004", "route_short_name": "U", "route_long_name": "", "total_departures": 4, "median_headways": 3599.0, "mean_headways": 3599.0, "st_dev_headways": 0.0, "stop_count": 4, "services": 1.0002778549597111 }, "geometry": { "type": "LineString", "coordinates": [ [ -8.843364, 40.148766 ], [ -8.822389, 40.145955 ], [ -8.810635, 40.140982 ], [ -8.783323, 40.127042 ], [ -8.76298, 40.119147 ], [ -8.745465, 40.129868 ], [ -8.703769, 40.139734 ], [ -8.677145, 40.139984 ], [ -8.655785, 40.160057 ], [ -8.634473, 40.165366 ], [ -8.606849, 40.17933 ], [ -8.584275, 40.186307 ], [ -8.544961, 40.192353 ], [ -8.526305, 40.192943 ], [ -8.501267, 40.205781 ], [ -8.484952, 40.204815 ], [ -8.471038, 40.209081 ], [ -8.456596, 40.214543 ], [ -8.440468, 40.224364 ] ] } },
{ "type": "Feature", "properties": { "shape_id": "shape-85", "route_id": "25-94_91058-94_95000", "route_short_name": "Linha do Sado", "route_long_name": "", "total_departures": 26, "median_headways": 3599.0, "mean_headways": 3599.0, "st_dev_headways": 0.0, "stop_count": 26, "services": 1.0002778549597111 }, "geometry": { "type": "LineString", "coordinates": [ [ -8.849731, 38.511928 ], [ -8.886497, 38.525648 ], [ -8.884939, 38.530729 ], [ -8.872821568, 38.5718791 ], [ -8.891374, 38.610011 ], [ -8.91298, 38.629981 ], [ -8.956804, 38.638367 ], [ -8.997857, 38.645271 ], [ -9.028574, 38.652334 ], [ -9.045498, 38.659969 ], [ -9.059446, 38.662091 ], [ -9.071594, 38.659875 ], [ -9.080153, 38.653656 ] ] } },
{ "type": "Feature", "properties": { "shape_id": "shape-86", "route_id": "25-94_95000-94_91058", "route_short_name": "Linha do Sado", "route_long_name": "", "total_departures": 23, "median_headways": 3599.0, "mean_headways": 3599.0, "st_dev_headways": 0.0, "stop_count": 23, "services": 1.0002778549597111 }, "geometry": { "type": "LineString", "coordinates": [ [ -9.080153, 38.653656 ], [ -9.071594, 38.659875 ], [ -9.059446, 38.662091 ], [ -9.045498, 38.659969 ], [ -9.028574, 38.652334 ], [ -8.997857, 38.645271 ], [ -8.956804, 38.638367 ], [ -8.91298, 38.629981 ], [ -8.891374, 38.610011 ], [ -8.872821568, 38.5718791 ], [ -8.884939, 38.530729 ], [ -8.886497, 38.525648 ], [ -8.849731, 38.511928 ] ] } },
{ "type": "Feature", "properties": { "shape_id": "shape-9", "route_id": "25-94_24000-94_1008", "route_short_name": "Linha de Guimaraes", "route_long_name": "", "total_departures": 16, "median_headways": 3599.0, "mean_headways": 3599.0, "st_dev_headways": 0.0, "stop_count": 16, "services": 1.0002778549597111 }, "geometry": { "type": "LineString", "coordinates": [ [ -8.294142, 41.435373 ], [ -8.3009, 41.424238 ], [ -8.320148, 41.405703 ], [ -8.3134, 41.381133 ], [ -8.324351, 41.377421 ], [ -8.338249, 41.375982 ], [ -8.362271, 41.366646 ], [ -8.387125, 41.365118 ], [ -8.401931, 41.35965 ], [ -8.434793, 41.363996 ], [ -8.474432, 41.352307 ], [ -8.526658, 41.3511 ], [ -8.547626, 41.337411 ], [ -8.548562, 41.300518 ], [ -8.55453, 41.277518 ], [ -8.558154, 41.258058 ], [ -8.551783, 41.228692 ], [ -8.554252, 41.217349 ], [ -8.556505, 41.200564 ], [ -8.557312, 41.184418 ], [ -8.57565, 41.168396 ], [ -8.585514, 41.149622 ], [ -8.609592, 41.145666 ] ] } },
{ "type": "Feature", "properties": { "shape_id": "shape-90", "route_id": "25-94_31039-94_61101", "route_short_name": "Linha de Sintra", "route_long_name": "", "total_departures": 38, "median_headways": 3599.0, "mean_headways": 3599.0, "st_dev_headways": 0.0, "stop_count": 38, "services": 1.0002778549597111 }, "geometry": { "type": "LineString", "coordinates": [ [ -9.09812, 38.767786 ], [ -9.102924, 38.746603 ], [ -9.135353, 38.745743 ], [ -9.1476, 38.74485 ], [ -9.165675, 38.740433 ], [ -9.20132, 38.74452 ], [ -9.213991, 38.747148 ], [ -9.223969, 38.751226 ], [ -9.234521, 38.759131 ], [ -9.254494, 38.758425 ], [ -9.263756, 38.757067 ], [ -9.2806, 38.750647 ], [ -9.296683, 38.764014 ], [ -9.320603, 38.783862 ], [ -9.328742, 38.790853 ], [ -9.338369, 38.798368 ], [ -9.370453, 38.802494 ], [ -9.379503, 38.801465 ] ] } },
{ "type": "Feature", "properties": { "shape_id": "shape-92", "route_id": "25-94_61101-94_31039", "route_short_name": "Linha de Sintra", "route_long_name": "", "total_departures": 37, "median_headways": 3599.0, "mean_headways": 3599.0, "st_dev_headways": 0.0, "stop_count": 37, "services": 1.0002778549597111 }, "geometry": { "type": "LineString", "coordinates": [ [ -9.379503, 38.801465 ], [ -9.370453, 38.802494 ], [ -9.338369, 38.798368 ], [ -9.328742, 38.790853 ], [ -9.320603, 38.783862 ], [ -9.296683, 38.764014 ], [ -9.2806, 38.750647 ], [ -9.263756, 38.757067 ], [ -9.254494, 38.758425 ], [ -9.234521, 38.759131 ], [ -9.223969, 38.751226 ], [ -9.213991, 38.747148 ], [ -9.20132, 38.74452 ], [ -9.165675, 38.740433 ], [ -9.1476, 38.74485 ], [ -9.135353, 38.745743 ], [ -9.102924, 38.746603 ], [ -9.09812, 38.767786 ] ] } },
{ "type": "Feature", "properties": { "shape_id": "shape-93", "route_id": "25-94_62042-94_59006", "route_short_name": "Linha de Sintra", "route_long_name": "", "total_departures": 1, "median_headways": 3599.0, "mean_headways": 3599.0, "st_dev_headways": null, "stop_count": 1, "services": 1.0002778549597111 }, "geometry": { "type": "LineString", "coordinates": [ [ -9.313149, 38.793035 ], [ -9.296683, 38.764014 ], [ -9.2806, 38.750647 ], [ -9.263756, 38.757067 ], [ -9.254494, 38.758425 ], [ -9.234521, 38.759131 ], [ -9.223969, 38.751226 ], [ -9.213991, 38.747148 ], [ -9.20132, 38.74452 ], [ -9.168181, 38.736103 ], [ -9.145902, 38.71476 ] ] } },
{ "type": "Feature", "properties": { "shape_id": "shape-95", "route_id": "21-94_73007-94_2006", "route_short_name": "AP", "route_long_name": "", "total_departures": 3, "median_headways": 3599.0, "mean_headways": 3599.0, "st_dev_headways": 0.0, "stop_count": 3, "services": 1.0002778549597111 }, "geometry": { "type": "LineString", "coordinates": [ [ -7.93993, 37.018672 ], [ -8.058616, 37.104553 ], [ -8.233185, 37.128837 ], [ -8.255074, 37.16349 ], [ -8.91298, 38.629981 ], [ -9.1476, 38.74485 ], [ -9.09812, 38.767786 ], [ -8.440468, 40.224364 ], [ -8.639841, 40.64528 ], [ -8.620228, 41.130042 ], [ -8.585514, 41.149622 ] ] } },
{ "type": "Feature", "properties": { "shape_id": "shape-96", "route_id": "25-94_61101-94_59006", "route_short_name": "Linha de Sintra", "route_long_name": "", "total_departures": 30, "median_headways": 3599.0, "mean_headways": 3599.0, "st_dev_headways": 0.0, "stop_count": 30, "services": 1.0002778549597111 }, "geometry": { "type": "LineString", "coordinates": [ [ -9.379503, 38.801465 ], [ -9.370453, 38.802494 ], [ -9.338369, 38.798368 ], [ -9.328742, 38.790853 ], [ -9.320603, 38.783862 ], [ -9.296683, 38.764014 ], [ -9.2806, 38.750647 ], [ -9.263756, 38.757067 ], [ -9.254494, 38.758425 ], [ -9.234521, 38.759131 ], [ -9.223969, 38.751226 ], [ -9.213991, 38.747148 ], [ -9.20132, 38.74452 ], [ -9.168181, 38.736103 ], [ -9.145902, 38.71476 ] ] } },
{ "type": "Feature", "properties": { "shape_id": "shape-97", "route_id": "25-94_59006-94_61101", "route_short_name": "Linha de Sintra", "route_long_name": "", "total_departures": 33, "median_headways": 3599.0, "mean_headways": 3599.0, "st_dev_headways": 0.0, "stop_count": 33, "services": 1.0002778549597111 }, "geometry": { "type": "LineString", "coordinates": [ [ -9.145902, 38.71476 ], [ -9.168181, 38.736103 ], [ -9.20132, 38.74452 ], [ -9.213991, 38.747148 ], [ -9.223969, 38.751226 ], [ -9.234521, 38.759131 ], [ -9.254494, 38.758425 ], [ -9.263756, 38.757067 ], [ -9.2806, 38.750647 ], [ -9.296683, 38.764014 ], [ -9.320603, 38.783862 ], [ -9.328742, 38.790853 ], [ -9.338369, 38.798368 ], [ -9.370453, 38.802494 ], [ -9.379503, 38.801465 ] ] } },
{ "type": "Feature", "properties": { "shape_id": "shape-98", "route_id": "25-94_69260-94_69005", "route_short_name": "Linha de Cascais", "route_long_name": "", "total_departures": 38, "median_headways": 3599.0, "mean_headways": 3599.0, "st_dev_headways": 0.0, "stop_count": 38, "services": 1.0002778549597111 }, "geometry": { "type": "LineString", "coordinates": [ [ -9.418564, 38.700762 ], [ -9.406633, 38.703679 ], [ -9.398336, 38.702284 ], [ -9.386179, 38.701016 ], [ -9.370434, 38.696124 ], [ -9.356355, 38.689857 ], [ -9.337191, 38.686946 ], [ -9.319014, 38.688613 ], [ -9.311547, 38.68679 ], [ -9.28876, 38.696672 ], [ -9.274441, 38.698888 ], [ -9.252189, 38.69992 ], [ -9.229237, 38.698345 ], [ -9.196767, 38.695876 ], [ -9.172074, 38.70194 ], [ -9.155324, 38.706252 ], [ -9.144381, 38.705907 ] ] } },
{ "type": "Feature", "properties": { "shape_id": "shape-99", "route_id": "25-94_69005-94_69260", "route_short_name": "Linha de Cascais", "route_long_name": "", "total_departures": 35, "median_headways": 3599.0, "mean_headways": 3599.0, "st_dev_headways": 0.0, "stop_count": 35, "services": 1.0002778549597111 }, "geometry": { "type": "LineString", "coordinates": [ [ -9.144381, 38.705907 ], [ -9.155324, 38.706252 ], [ -9.172074, 38.70194 ], [ -9.196767, 38.695876 ], [ -9.229237, 38.698345 ], [ -9.252189, 38.69992 ], [ -9.274441, 38.698888 ], [ -9.28876, 38.696672 ], [ -9.311547, 38.68679 ], [ -9.319014, 38.688613 ], [ -9.337191, 38.686946 ], [ -9.356355, 38.689857 ], [ -9.370434, 38.696124 ], [ -9.386179, 38.701016 ], [ -9.398336, 38.702284 ], [ -9.406633, 38.703679 ], [ -9.418564, 38.700762 ] ] } },
{ "type": "Feature", "properties": { "shape_id": "shape-1", "route_id": "25-94_33001-94_30007", "route_short_name": "Linha da Azambuja", "route_long_name": "", "total_departures": 25, "median_headways": 3599.0, "mean_headways": 3599.0, "st_dev_headways": 0.0, "stop_count": 25, "services": 1.0002778549597111 }, "geometry": { "type": "LineString", "coordinates": [ [ -8.867753, 39.067628 ], [ -8.902895, 39.050512 ], [ -8.928696, 39.036206 ], [ -8.954623, 39.004348 ], [ -8.964987, 38.988653 ], [ -8.986486, 38.9547 ], [ -9.011613, 38.923268 ], [ -9.034573, 38.889243 ], [ -9.06431, 38.859255 ], [ -9.081554, 38.838345 ], [ -9.095013, 38.806251 ], [ -9.099744, 38.795236 ], [ -9.099293, 38.776158 ], [ -9.09812, 38.767786 ], [ -9.102924, 38.746603 ], [ -9.120748, 38.71584 ] ] } },
{ "type": "Feature", "properties": { "shape_id": "shape-10", "route_id": "25-94_95000-94_91058", "route_short_name": "Linha do Sado", "route_long_name": "", "total_departures": 23, "median_headways": 3599.0, "mean_headways": 3599.0, "st_dev_headways": 0.0, "stop_count": 23, "services": 1.0002778549597111 }, "geometry": { "type": "LineString", "coordinates": [ [ -9.080153, 38.653656 ], [ -9.071594, 38.659875 ], [ -9.059446, 38.662091 ], [ -9.045498, 38.659969 ], [ -9.028574, 38.652334 ], [ -8.997857, 38.645271 ], [ -8.956804, 38.638367 ], [ -8.91298, 38.629981 ], [ -8.891374, 38.610011 ], [ -8.872821568, 38.5718791 ], [ -8.884939, 38.530729 ], [ -8.886497, 38.525648 ], [ -8.849731, 38.511928 ] ] } },
{ "type": "Feature", "properties": { "shape_id": "shape-13", "route_id": "25-94_31039-94_61101", "route_short_name": "Linha de Sintra", "route_long_name": "", "total_departures": 38, "median_headways": 3599.0, "mean_headways": 3599.0, "st_dev_headways": 0.0, "stop_count": 38, "services": 1.0002778549597111 }, "geometry": { "type": "LineString", "coordinates": [ [ -9.09812, 38.767786 ], [ -9.102924, 38.746603 ], [ -9.135353, 38.745743 ], [ -9.1476, 38.74485 ], [ -9.165675, 38.740433 ], [ -9.20132, 38.74452 ], [ -9.213991, 38.747148 ], [ -9.223969, 38.751226 ], [ -9.234521, 38.759131 ], [ -9.254494, 38.758425 ], [ -9.263756, 38.757067 ], [ -9.2806, 38.750647 ], [ -9.296683, 38.764014 ], [ -9.320603, 38.783862 ], [ -9.328742, 38.790853 ], [ -9.338369, 38.798368 ], [ -9.370453, 38.802494 ], [ -9.379503, 38.801465 ] ] } },
{ "type": "Feature", "properties": { "shape_id": "shape-14", "route_id": "25-94_61101-94_31039", "route_short_name": "Linha de Sintra", "route_long_name": "", "total_departures": 37, "median_headways": 3599.0, "mean_headways": 3599.0, "st_dev_headways": 0.0, "stop_count": 37, "services": 1.0002778549597111 }, "geometry": { "type": "LineString", "coordinates": [ [ -9.379503, 38.801465 ], [ -9.370453, 38.802494 ], [ -9.338369, 38.798368 ], [ -9.328742, 38.790853 ], [ -9.320603, 38.783862 ], [ -9.296683, 38.764014 ], [ -9.2806, 38.750647 ], [ -9.263756, 38.757067 ], [ -9.254494, 38.758425 ], [ -9.234521, 38.759131 ], [ -9.223969, 38.751226 ], [ -9.213991, 38.747148 ], [ -9.20132, 38.74452 ], [ -9.165675, 38.740433 ], [ -9.1476, 38.74485 ], [ -9.135353, 38.745743 ], [ -9.102924, 38.746603 ], [ -9.09812, 38.767786 ] ] } },
{ "type": "Feature", "properties": { "shape_id": "shape-15", "route_id": "25-94_62042-94_59006", "route_short_name": "Linha de Sintra", "route_long_name": "", "total_departures": 1, "median_headways": 3599.0, "mean_headways": 3599.0, "st_dev_headways": null, "stop_count": 1, "services": 1.0002778549597111 }, "geometry": { "type": "LineString", "coordinates": [ [ -9.313149, 38.793035 ], [ -9.296683, 38.764014 ], [ -9.2806, 38.750647 ], [ -9.263756, 38.757067 ], [ -9.254494, 38.758425 ], [ -9.234521, 38.759131 ], [ -9.223969, 38.751226 ], [ -9.213991, 38.747148 ], [ -9.20132, 38.74452 ], [ -9.168181, 38.736103 ], [ -9.145902, 38.71476 ] ] } },
{ "type": "Feature", "properties": { "shape_id": "shape-17", "route_id": "25-94_61101-94_59006", "route_short_name": "Linha de Sintra", "route_long_name": "", "total_departures": 30, "median_headways": 3599.0, "mean_headways": 3599.0, "st_dev_headways": 0.0, "stop_count": 30, "services": 1.0002778549597111 }, "geometry": { "type": "LineString", "coordinates": [ [ -9.379503, 38.801465 ], [ -9.370453, 38.802494 ], [ -9.338369, 38.798368 ], [ -9.328742, 38.790853 ], [ -9.320603, 38.783862 ], [ -9.296683, 38.764014 ], [ -9.2806, 38.750647 ], [ -9.263756, 38.757067 ], [ -9.254494, 38.758425 ], [ -9.234521, 38.759131 ], [ -9.223969, 38.751226 ], [ -9.213991, 38.747148 ], [ -9.20132, 38.74452 ], [ -9.168181, 38.736103 ], [ -9.145902, 38.71476 ] ] } },
{ "type": "Feature", "properties": { "shape_id": "shape-18", "route_id": "25-94_59006-94_61101", "route_short_name": "Linha de Sintra", "route_long_name": "", "total_departures": 33, "median_headways": 3599.0, "mean_headways": 3599.0, "st_dev_headways": 0.0, "stop_count": 33, "services": 1.0002778549597111 }, "geometry": { "type": "LineString", "coordinates": [ [ -9.145902, 38.71476 ], [ -9.168181, 38.736103 ], [ -9.20132, 38.74452 ], [ -9.213991, 38.747148 ], [ -9.223969, 38.751226 ], [ -9.234521, 38.759131 ], [ -9.254494, 38.758425 ], [ -9.263756, 38.757067 ], [ -9.2806, 38.750647 ], [ -9.296683, 38.764014 ], [ -9.320603, 38.783862 ], [ -9.328742, 38.790853 ], [ -9.338369, 38.798368 ], [ -9.370453, 38.802494 ], [ -9.379503, 38.801465 ] ] } },
{ "type": "Feature", "properties": { "shape_id": "shape-19", "route_id": "25-94_69260-94_69005", "route_short_name": "Linha de Cascais", "route_long_name": "", "total_departures": 38, "median_headways": 3599.0, "mean_headways": 3599.0, "st_dev_headways": 0.0, "stop_count": 38, "services": 1.0002778549597111 }, "geometry": { "type": "LineString", "coordinates": [ [ -9.418564, 38.700762 ], [ -9.406633, 38.703679 ], [ -9.398336, 38.702284 ], [ -9.386179, 38.701016 ], [ -9.370434, 38.696124 ], [ -9.356355, 38.689857 ], [ -9.337191, 38.686946 ], [ -9.319014, 38.688613 ], [ -9.311547, 38.68679 ], [ -9.28876, 38.696672 ], [ -9.274441, 38.698888 ], [ -9.252189, 38.69992 ], [ -9.229237, 38.698345 ], [ -9.196767, 38.695876 ], [ -9.172074, 38.70194 ], [ -9.155324, 38.706252 ], [ -9.144381, 38.705907 ] ] } },
{ "type": "Feature", "properties": { "shape_id": "shape-2", "route_id": "25-94_30007-94_33001", "route_short_name": "Linha da Azambuja", "route_long_name": "", "total_departures": 16, "median_headways": 3599.0, "mean_headways": 3599.0, "st_dev_headways": 0.0, "stop_count": 16, "services": 1.0002778549597111 }, "geometry": { "type": "LineString", "coordinates": [ [ -9.120748, 38.71584 ], [ -9.102924, 38.746603 ], [ -9.09812, 38.767786 ], [ -9.099293, 38.776158 ], [ -9.099744, 38.795236 ], [ -9.095013, 38.806251 ], [ -9.081554, 38.838345 ], [ -9.06431, 38.859255 ], [ -9.034573, 38.889243 ], [ -9.011613, 38.923268 ], [ -8.986486, 38.9547 ], [ -8.964987, 38.988653 ], [ -8.954623, 39.004348 ], [ -8.928696, 39.036206 ], [ -8.902895, 39.050512 ], [ -8.867753, 39.067628 ] ] } },
{ "type": "Feature", "properties": { "shape_id": "shape-20", "route_id": "25-94_69005-94_69260", "route_short_name": "Linha de Cascais", "route_long_name": "", "total_departures": 47, "median_headways": 3599.0, "mean_headways": 3599.0, "st_dev_headways": 0.0, "stop_count": 47, "services": 1.0002778549597111 }, "geometry": { "type": "LineString", "coordinates": [ [ -9.144381, 38.705907 ], [ -9.155324, 38.706252 ], [ -9.172074, 38.70194 ], [ -9.196767, 38.695876 ], [ -9.229237, 38.698345 ], [ -9.252189, 38.69992 ], [ -9.274441, 38.698888 ], [ -9.28876, 38.696672 ], [ -9.311547, 38.68679 ], [ -9.319014, 38.688613 ], [ -9.337191, 38.686946 ], [ -9.356355, 38.689857 ], [ -9.370434, 38.696124 ], [ -9.386179, 38.701016 ], [ -9.398336, 38.702284 ], [ -9.406633, 38.703679 ], [ -9.418564, 38.700762 ] ] } },
{ "type": "Feature", "properties": { "shape_id": "shape-23", "route_id": "25-94_69179-94_69005", "route_short_name": "Linha de Cascais", "route_long_name": "", "total_departures": 2, "median_headways": 3599.0, "mean_headways": 3599.0, "st_dev_headways": 0.0, "stop_count": 2, "services": 1.0002778549597111 }, "geometry": { "type": "LineString", "coordinates": [ [ -9.319014, 38.688613 ], [ -9.311547, 38.68679 ], [ -9.28876, 38.696672 ], [ -9.274441, 38.698888 ], [ -9.252189, 38.69992 ], [ -9.229237, 38.698345 ], [ -9.196767, 38.695876 ], [ -9.172074, 38.70194 ], [ -9.155324, 38.706252 ], [ -9.144381, 38.705907 ] ] } },
{ "type": "Feature", "properties": { "shape_id": "shape-3", "route_id": "25-94_67025-94_31310", "route_short_name": "Linha da Azambuja", "route_long_name": "", "total_departures": 34, "median_headways": 3599.0, "mean_headways": 3599.0, "st_dev_headways": 0.0, "stop_count": 34, "services": 1.0002778549597111 }, "geometry": { "type": "LineString", "coordinates": [ [ -9.172849, 38.707589 ], [ -9.168181, 38.736103 ], [ -9.165675, 38.740433 ], [ -9.1476, 38.74485 ], [ -9.135353, 38.745743 ], [ -9.109318, 38.738726 ], [ -9.102924, 38.746603 ], [ -9.09812, 38.767786 ], [ -9.099293, 38.776158 ], [ -9.099744, 38.795236 ], [ -9.095013, 38.806251 ], [ -9.081554, 38.838345 ], [ -9.06431, 38.859255 ], [ -9.034573, 38.889243 ], [ -9.011613, 38.923268 ], [ -8.986486, 38.9547 ], [ -8.964987, 38.988653 ] ] } },
{ "type": "Feature", "properties": { "shape_id": "shape-6", "route_id": "25-94_31310-94_67025", "route_short_name": "Linha da Azambuja", "route_long_name": "", "total_departures": 34, "median_headways": 3599.0, "mean_headways": 3599.0, "st_dev_headways": 0.0, "stop_count": 34, "services": 1.0002778549597111 }, "geometry": { "type": "LineString", "coordinates": [ [ -8.964987, 38.988653 ], [ -8.986486, 38.9547 ], [ -9.011613, 38.923268 ], [ -9.034573, 38.889243 ], [ -9.06431, 38.859255 ], [ -9.081554, 38.838345 ], [ -9.095013, 38.806251 ], [ -9.099744, 38.795236 ], [ -9.099293, 38.776158 ], [ -9.09812, 38.767786 ], [ -9.102924, 38.746603 ], [ -9.109318, 38.738726 ], [ -9.135353, 38.745743 ], [ -9.1476, 38.74485 ], [ -9.165675, 38.740433 ], [ -9.168181, 38.736103 ], [ -9.172849, 38.707589 ] ] } },
{ "type": "Feature", "properties": { "shape_id": "shape-9", "route_id": "25-94_91058-94_95000", "route_short_name": "Linha do Sado", "route_long_name": "", "total_departures": 26, "median_headways": 3599.0, "mean_headways": 3599.0, "st_dev_headways": 0.0, "stop_count": 26, "services": 1.0002778549597111 }, "geometry": { "type": "LineString", "coordinates": [ [ -8.849731, 38.511928 ], [ -8.886497, 38.525648 ], [ -8.884939, 38.530729 ], [ -8.872821568, 38.5718791 ], [ -8.891374, 38.610011 ], [ -8.91298, 38.629981 ], [ -8.956804, 38.638367 ], [ -8.997857, 38.645271 ], [ -9.028574, 38.652334 ], [ -9.045498, 38.659969 ], [ -9.059446, 38.662091 ], [ -9.071594, 38.659875 ], [ -9.080153, 38.653656 ] ] } }
]
}
